都道府県コード又は市区町村コード,NO,都道府県名,市区町村名,名称,名称_カナ,医療機関の種類,住所,方書,lat,lon,電話番号,内線番号,FAX番号,法人番号,法人の名称,医療機関コード,診療曜日,診療開始時間,診療終了時間,診療日時特記事項,時間外における対応,診療科目,病床数,URL,備考
472093,0000000001,沖縄県,名護市,国立療養所沖縄愛楽園,コクリツリョウヨウジョオキナワアイラクエン,病院,名護市字済井出1192番地,,26.67622330,128.01896001,(0980)52-8331,,,,,,,,,,,内科;外科;整形外科;眼科;泌尿器科;皮膚科;耳鼻咽喉科;精神科;歯科,419,,
472093,0000000002,沖縄県,名護市,沖縄県立北部病院,オキナワケンリツホクブビョウイン,病院,名護市大中2丁目12番3号,,26.59177422,127.98656537,(0980)52-2719,,,,,,,,,,,"内科,呼吸器内科,消化器内科,循環器内科,神経内科,外科,呼吸器外科,消化器外科,脳神経外科,整形外科,形成外科,精神科,リウマチ科,小児科,皮膚科,泌尿器科,産科,婦人科,眼科,耳鼻咽喉科,リハリビテーション科,放射線科,病理診断科,麻酔科,腎臓内科,救急科,歯科口腔外科",327,,
472093,0000000003,沖縄県,名護市,社会福祉法人五和会　名護療育医療センター,シャカイフクシホウジンイカズエ　ナゴリョウイクイリョウセンター,病院,名護市字宇茂佐1765番地,,26.60778050,127.96436894,(0980)52-0957,,,,,,,,,,,内科;精神科;神経科;小児科;外科;整形外科;リハリビテーション科,80,,
472093,0000000004,沖縄県,名護市,医療法人タピック　宮里病院,イリョウホウジンタピック　ミヤザトビョウイン,病院,名護市字宇茂佐1763番地2,,26.60858045,127.96466890,(0980)53-7771,,,,,,,,,,,内科;精神科;神経内科;脳神経外科;リハビリテーション科;皮膚科;整形外科,239,,
473081,0000000005,沖縄県,本部町,もとぶ記念病院,モトブキネンビョウイン,病院,本部町字石川972番地,,26.69277993,127.88295380,(0980)51-7007,,,,,,,,,,,精神科;老年精神科;内科,170,,
473065,0000000006,沖縄県,今帰仁村,北山病院,キタヤマビョウイン,病院,今帰仁村字今泊307番地,,26.70327821,127.92964910,(0980)56-2339,,,,,,,,,,,内科;整形外科;リハリビテーション科;皮膚科,60,,
473081,0000000007,沖縄県,本部町,もとぶ野毛病院,モトブノゲビョウイン,病院,本部町字大浜880番地1,,26.65748969,127.88394291,(0980)47-3001,,,,,,,,,,,内科;脳神経外科;外科;小児科;リハリビテーション科;放射線科;整形外科,150,,
472093,0000000008,沖縄県,名護市,公益社団法人北部地区医師会　北部地区医師会病院　,コウエキシャダンホウジンホクブチクイシカイ　ホクブチクイシカイビョウイン　,病院,名護市字宇茂佐1712番3,,26.60776110,127.96567440,(0980)54-1111,,,,,,,,,,,内科;外科;整形外科;リハリビテーション科;放射線科;麻酔科;皮膚科;病理診断科;消化器外科;リウマチ科;心療内科;精神科;心臓血管外科;循環器内科;救急科;形成外科,236,,
472093,0000000009,沖縄県,名護市,医療法人琉心会　勝山病院,イリョウホウジンルゴコロカイ　カツヤマビョウイン,病院,名護市字屋部468番地1,,26.60667170,127.94590359,(0980)53-7777,,,,,,,,,,,内科;リハリビテーション科;整形外科;リウマチ科,154,,
472093,0000000010,沖縄県,名護市,辻眼科,ツジガンカ,無床診療所,名護市宮里1丁目26番11号,,26.59430666,127.97076058,(0980)52-6700,,,,,,,,,,,眼科,0,,
472093,0000000011,沖縄県,名護市,大北内科胃腸科クリニック,オオキタナイカイチョウカクリニック,有床診療所,名護市大北3丁目1番48号,,26.60134336,127.99589504,(0980)53-5455,,,,,,,,,,,内科;胃腸科;リハビリテーション科,0,,
473154,0000000012,沖縄県,伊江村,特別養護老人ホームいえしま医務室,トクベツヨウゴロウジンホームイエシマイムシツ,無床診療所,伊江村字東江前2303-1,,26.71092728,127.82517964,(0980)49-5502,,,,,,,,,,,内科;外科;精神科,0,,
473154,0000000013,沖縄県,伊江村,伊江村立診療所,イエソンタチシンリョウジョ,無床診療所,伊江村字東江前459番地,,26.71199072,127.80663652,(0980)49-2054,,,,,,,,,,,内科;外科;小児科;整形外科;人工透析内科,0,,
473600,0000000014,沖縄県,伊是名村,沖縄県立北部病院附属伊是名診療所,オキナワケンリツホクブビョウインフゾクイゼナシンリョウジョ,無床診療所,伊是名村字仲田1198番地,,26.92796841,127.94067566,(0980)45-2017,,,,,,,,,,,内科;外科;小児科,0,,
473600,0000000015,沖縄県,伊是名村,特別養護老人ホームチヂン園,トクベツヨウゴロウジンホームチヂンエン,無床診療所,伊是名村字仲田1687-51,,26.92240794,127.94361716,(0980)45-2273,,,,,,,,,,,内科;外科,0,,
473596,0000000016,沖縄県,伊平屋村,県立北部病院附属伊平屋診療所,ケンリツホクブビョウインフゾクイヒラヤシンリョウジョ,無床診療所,伊平屋村字我喜屋217番地,,27.03445215,127.96360251,(0980)46-2116,,,,,,,,,,,内科;外科;小児科,0,,
473014,0000000017,沖縄県,国頭村,国頭村立診療所,クニガミソンリツシンリョウジョ,無床診療所,国頭村字辺土名1437番地,,26.74530973,128.17599317,(0980)41-5380,,,,,,,,,,,内科;小児科,0,,
473014,0000000018,沖縄県,国頭村,特別養護老人ホーム北斗園医務室,トクベツヨウゴロウジンホームホクトエンイムシツ,無床診療所,国頭村字辺土名1692番地,,26.74068515,128.17486573,(0980)41-2743,,,,,,,,,,,内科,0,,
473065,0000000019,沖縄県,今帰仁村,今帰仁診療所,ナキジンシンリョウジョ,無床診療所,今帰仁村字謝名139番地,,26.68531241,127.96706345,(0980)56-3581,,,,,,,,,,,内科;小児科;整形外科;眼科;耳鼻咽喉科,0,,
473065,0000000020,沖縄県,今帰仁村,特別養護老人ホーム乙羽園医務室,トクベツヨウゴロウジンホームオトハエンイムシツ,無床診療所,今帰仁村字天底222番地,,26.67550285,127.97852133,(0980)56-3881,,,,,,,,,,,内科;外科,0,,
473022,0000000021,沖縄県,大宜味村,特別養護老人ホームやんばるの家,トクベツヨウゴロウジンホームヤンバルノイエ,無床診療所,大宜味村字津波1971-35,,26.65610822,128.10710747,(0980)44-2288,,,,,,,,,,,内科;眼科,0,,
473081,0000000022,沖縄県,本部町,特別養護老人ホーム本部園医務室,トクベツヨウゴロウジンホームホンブエンイムシツ,無床診療所,本部町字谷茶310番地,,26.65851484,127.89162286,(0980)47-3644,,,,,,,,,,,内科,0,,
473081,0000000023,沖縄県,本部町,一般財団法人健康科学財団ウェルネスセンター,イッパンザイダンホウジンケンコウカガクザイダンウェルネスセンター,無床診療所,本部町字浜元410番地,,26.67641817,127.88699801,(0980)48-3051,,,,,,,,,,,外科;内科;心療内科;小児科;整形外科;リハビリテーション科;皮膚科,0,,
472093,0000000024,沖縄県,名護市,大宮医院,オオミヤイイン,無床診療所,名護市宮里3丁目1番20号,,26.59623418,127.96656913,(0980)53-4116,,,,,,,,,,,小児科;内科;外科;肛門外科,0,,
472093,0000000025,沖縄県,名護市,医療法人樫の会　新垣耳鼻咽喉科,イリョウホウジンカシノカイ　アラカキジビインコウカ,無床診療所,名護市字宮里453-7　大宮総合開発ビル4階,,26.59366770,127.96613592,(0980)53-5586,,,,,,,,,,,耳鼻咽喉科,0,,
472093,0000000026,沖縄県,名護市,名護厚生園医務室,ナゴコウセイエンイムシツ,無床診療所,名護市宮里5丁目4番29号,,26.59996183,127.97138258,(0980)52-3283,,,,,,,,,,,内科;精神科,0,,
472093,0000000027,沖縄県,名護市,さくら眼科,サクラガンカ,無床診療所,名護市字伊差川310番1,,26.61028189,128.00154426,(0980)54-5100,,,,,,,,,,,眼科,0,,
472093,0000000028,沖縄県,名護市,伊差川整形外科,イサガワセイケイゲカ,無床診療所,名護市字伊差川309-1,,26.60973192,128.00120820,(0980)52-5656,,,,,,,,,,,整形外科;リハリビテーション科,0,,
472093,0000000029,沖縄県,名護市,メンタルクリニックやんばる,メンタルクリニックヤンバル,無床診療所,名護市宇茂佐の森1丁目2番地9,,26.60152266,127.96550238,(0980)52-4556,,,,,,,,,,,精神科;心療内科,0,,
472093,0000000030,沖縄県,名護市,公益社団法人北部地区医師会　ちゅら海クリニック,コウエキシャダンホウジンホクブチクイシカイ　チュラウミクリニック,無床診療所,名護市字宇茂佐1710-25,,26.60873603,127.96581049,(0980)51-1414,,,,,,,,,,,内科;腎臓内科（人工透析）;漢方内科;心療内科;精神科,0,,
472093,0000000031,沖縄県,名護市,平安山医院,ヘンザンイイン,無床診療所,名護市字宇茂佐1702-1　,,26.60741965,127.97112682,(0980)52-6895,,,,,,,,,,,内科;小児科,0,,
472093,0000000032,沖縄県,名護市,特別養護老人ホーム　かりゆしぬ村医務室,トクベツヨウゴロウジンホーム　カリユシヌムライムシツ,無床診療所,名護市字宇茂佐1873-1,,26.61252189,127.96620479,(0980)53-1934,,,,,,,,,,,内科,0,,
472093,0000000033,沖縄県,名護市,かじまやリゾートクリニック,カジマヤリゾートクリニック,無床診療所,名護市字宮里518番地2,,26.59488977,127.96431933,(0980)51-1197,,,,,,,,,,,婦人科;内科;小児科;外科;リハビリテーション科,0,,
472093,0000000034,沖縄県,名護市,厚生労働省第二共済組合国立療養所沖縄愛楽園診療部,コウセイロウドウショウダイニキョウサイクミアイコクリツリョウヨウジョオキナワアイラクエンシンリョウブ,無床診療所,名護市字済井出1192番地,,26.67622330,128.01896001,(0980)52-8331,,,,,,,,,,,内科;外科;皮膚科;歯科,0,,
472093,0000000035,沖縄県,名護市,医療法人中央外科,イリョウホウジンチュウオウゲカ,無床診療所,名護市城1丁目1番12号,,26.59075466,127.98201842,(0980)52-2118,,,,,,,,,,,内科;外科;整形外科;胃腸科;リハビリテーション科,0,,
472093,0000000036,沖縄県,名護市,儀保小児科内科医院,ギボショウニカナイカイイン,無床診療所,名護市大西2丁目4番32号,,26.59605968,127.97962945,(0980)53-4833,,,,,,,,,,,内科;小児科,0,,
472093,0000000037,沖縄県,名護市,沖縄県北部保健所,オキナワケンホクブホケンジョ,無床診療所,名護市大中2丁目13番1号,,26.59342136,127.98774025,(0980)52-2714,,,,,,,,,,,内科,0,,
472093,0000000038,沖縄県,名護市,医療法人運天産婦人科医院,イリョウホウジンウンテンサンフジンカイイン,有床診療所,名護市大中3丁目1番5号,,26.59514353,127.98984285,(0980)53-0131,,,,,,,,,,,産科;婦人科;内科;小児科,0,,
472093,0000000039,沖縄県,名護市,なかち泌尿器科クリニック,ナカチヒニョウキカクリニック,無床診療所,名護市大中5丁目4番50号,,26.59701015,127.99201488,(0980)53-3335,,,,,,,,,,,泌尿器科;皮膚科;外科;内科;整形外科;リハビリテーション科;小児科;性病科;リウマチ科,0,,
472093,0000000040,沖縄県,名護市,名嘉眞皮膚科,ナカマヒフカ,無床診療所,名護市大東1丁目10番13号,,26.58839946,127.98582664,(0980)52-4755,,,,,,,,,,,皮膚科,0,,
472093,0000000041,沖縄県,名護市,社会福祉法人五和会　名護療育医療センター附属　育ちのクリニック,シャカイフクシホウジンイカズエ　ナゴリョウイクイリョウセンターフゾク　ソダチノクリニック,無床診療所,名護市大東2丁目23番30号,,26.59120762,127.98723758,(0980)53-3366,,,,,,,,,,,小児科;内科;皮膚科;児童精神科;精神科,0,,
472093,0000000042,沖縄県,名護市,北部山里クリニック,ホクブヤマザトクリニック,無床診療所,名護市大南2丁目12番26号,,26.59413188,127.97590472,(0980)52-1119,,,,,,,,,,,内科;糖尿病内科;脂質代謝内科;腎臓内科;心療内科;老年内科;外科;小児科;精神科,0,,
472093,0000000043,沖縄県,名護市,名護皮ふ科,ナゴヒフカ,無床診療所,名護市大北1丁目2番34号,,26.60017674,127.99520068,(0980)50-9480,,,,,,,,,,,皮膚科,0,,
472093,0000000044,沖縄県,名護市,赤嶺内科,アカミネナイカ,無床診療所,名護市大北1丁目5番11号,,26.59877672,127.99259533,(0980)54-6200,,,,,,,,,,,内科;呼吸器科;胃腸科;循環器科;小児科,0,,
472093,0000000045,沖縄県,名護市,北部皮フ科クリニック,ホクブカワフカクリニック,無床診療所,名護市大北3丁目9番7号,,26.60319874,127.99452002,(0980)54-4912,,,,,,,,,,,皮膚科,0,,
472093,0000000046,沖縄県,名護市,崎山クリニック,サキヤマクリニック,無床診療所,名護市大北4丁目26番10号,,26.60662045,127.98852856,(0980)54-3776,,,,,,,,,,,内科,0,,
472093,0000000047,沖縄県,名護市,医療法人美ら海ハシイ産婦人科,イリョウホウジンチュラウミハシイサンフジンカ,有床診療所,名護市大北5丁目3番4号,,26.60413982,127.98311509,(0980)54-4188,,,,,,,,,,,産科;婦人科,0,,
472093,0000000048,沖縄県,名護市,ゆうクリニック,ユウクリニック,無床診療所,名護市宇茂佐の森1丁目1番地5,,26.60106439,127.96648010,(0980)54-8010,,,,,,,,,,,内科;外科;小児科,0,,
472093,0000000049,沖縄県,名護市,地域密着型介護老人福祉施設　瑞穂の郷,チイキミッチャクガタカイゴロウジンフクシシセツ　ミズホノゴウ,無床診療所,名護市字親川571番地,,26.61650701,128.01510689,(0980)58-1631,,,,,,,,,,,内科;外科,0,,
472093,0000000050,沖縄県,名護市,スポーク・クリニック,スポーク・クリニック,無床診療所,名護市字屋部117番地,,26.60175004,127.95256161,(0980)52-7775,,,,,,,,,,,内科;整形外科;リハビリテーション科;精神科,0,,
472093,0000000051,沖縄県,名護市,ひだか脳神経外科,ヒダカノウシンケイゲカ,無床診療所,名護市字宇茂佐1746-6,,26.60586956,127.96524394,(0980)54-2828,,,,,,,,,,,脳神経外科;外科;整形外科;内科;リハビリテーション科;放射線科,0,,
473081,0000000052,沖縄県,本部町,やまだクリニック　,ヤマダクリニック　,無床診療所,本部町字大浜874番15,,26.65485389,127.88485955,(0980)47-6660,,,,,,,,,,,内科;外科;小児科,0,,
472093,0000000053,沖縄県,名護市,大兼久医院,オオガネクイイン,無床診療所,名護市城1丁目1番13号,,26.59056023,127.98208787,(0980)53-1297,,,,,,,,,,,内科,0,,
473014,0000000054,沖縄県,国頭村,国頭村立東部へき地診療所,クニガミソンリツトウブヘキチシンリョウジョ,無床診療所,国頭村字安田170番地,,26.74550500,128.31709807,(0980)41-7511,,,,,,,,,,,内科,0,,
472093,0000000055,沖縄県,名護市,たいようのクリニック,タイヨウノクリニック,無床診療所,名護市大西3丁目15番1号,,26.59777927,127.98538741,(0980)54-0700,,,,,,,,,,,内科;腎臓内科;糖尿病内科;人工透析内科;リウマチ科,0,,
472093,0000000056,沖縄県,名護市,やんばる協同クリニック,ヤンバルキョウドウクリニック,無床診療所,名護市大北5丁目3-2,,26.60424261,127.98343728,(0980)52-1001,,,,,,,,,,,内科,0,,
473031,0000000057,沖縄県,東村,東村立診療所,ヒガシソンリツシンリョウジョ,無床診療所,東村字平良804番地,,26.63297316,128.15609458,(0980)51-2200,,,,,,,,,,,内科;外科,0,,
472093,0000000058,沖縄県,名護市,あがりえクリニック,アガリエクリニック,無床診療所,名護市大東1丁目5番34号,,26.58819398,127.98755157,(0980)43-0271,,,,,,,,,,,内科;消化器科;小児科,0,,
473022,0000000059,沖縄県,大宜味村,大宜味村立診療所 ,オオギミソンリツシンリョウジョ ,無床診療所,大宜味村字塩屋1306番地62,,26.67779471,128.10111290,(0980)50-5450,,,,,,,,,,,内科;小児科;心療内科;精神科;外科;眼科;消化器内科;皮膚科,0,,
472093,0000000060,沖縄県,名護市,みみ・はな・のど　ゆいクリニック ,ミミ・ハナ・ノド　ユイクリニック ,無床診療所,名護市大北5丁目22番25号,,26.60710065,127.98142897,(0980)51-1187,,,,,,,,,,,耳鼻咽喉科;小児科;内科,0,,
472093,0000000061,沖縄県,名護市,アイクリニック敬愛,アイクリニックケイアイ,無床診療所,名護市宮里6丁目4番21号,,26.60301727,127.97364900,(0980)54-0037,,,,,,,,,,,眼科,0,,
472093,0000000062,沖縄県,名護市,名護市屋我地診療所,ナゴシヤガジシンリョウジョ,無床診療所,名護市字饒平名460番1,,26.65801412,128.01715522,(0980)52-8887,,,,,,,,,,,内科;小児科,0,,
472093,0000000063,沖縄県,名護市,医療法人桜風会　おおにし医院,イリョウホウジンサクラフウカイ　オオニシイイン,無床診療所,名護市城2丁目10番16号,,26.58713840,127.98480730,(0980)43-0200,,,,,,,,,,,内科;胃腸内科,0,,
472093,0000000064,沖縄県,名護市,たいら内科クリニック,タイラナイカクリニック,無床診療所,名護市宮里6丁目8番7号,,26.60157580,127.97605725,(0980)53-0033,,,,,,,,,,,内科;血液内科,0,,
472093,0000000065,沖縄県,名護市,ちはる眼科,チハルガンカ,無床診療所,名護市宮里6丁目8番7号,,26.60157580,127.97605725,(0980)43-5513,,,,,,,,,,,眼科,0,,
473022,0000000066,沖縄県,大宜味村,社会福祉法人一心福祉会　障害者支援施設　一心福祉会「医務室」,シャカイフクシホウジンイッシンフクシカイ　ショウガイシャシエンシセツ　イッシンフクシカイ「イムシツ」,無床診療所,大宜味村字津波1971番地35,,26.65610822,128.10710747,(0980)44-2234,,,,,,,,,,,内科;外科,0,,
472093,0000000067,沖縄県,名護市,北部形成・外科診療所,ホクブケイセイ・ゲカシンリョウジョ,無床診療所,名護市大南2丁目13-8,,26.59483180,127.97553527,(0980)53-7008,,,,,,,,,,,形成外科;外科;皮膚科,0,,
472093,0000000068,沖縄県,名護市,名護市久志診療所,ナゴシクシシンリョウジョ,無床診療所,名護市三原64番地7,,26.55812986,128.07095995,(0980)55-8886,,,,,,,,,,,内科;循環器内科;整形外科,0,,
472093,0000000069,沖縄県,名護市,うりずん診療所,ウリズンシンリョウジョ,無床診療所,名護市字為又69番地,,26.60650869,127.97340448,(0980)54-6633,,,,,,,,,,,整形外科;リハビリテーション科;内科;小児科,0,,
472093,0000000070,沖縄県,名護市,社会福祉法人名護学院　クリニック和睦,シャカイフクシホウジンナゴガクイン　クリニックワボク,無床診療所,名護市大東1丁目15-6,,26.58994378,127.98595158,(0980)43-0418,,,,,,,,,,,内科;心療内科;小児科;精神科,0,,
472093,0000000071,沖縄県,名護市,あしとみ泌尿器科クリニック,アシトミヒニョウキカクリニック,無床診療所,名護市宮里5-10-17,,26.59843700,127.97343804,(0980)52-2222,,,,,,,,,,,泌尿器科,0,,
472093,0000000072,沖縄県,名護市,カヌチャＫＩＮ　クリニック,カヌチャＫＩＮ　クリニック,無床診療所,名護市字安部156番地2,,26.55009156,128.07670147,,,,,,,,,,,,内科,0,,
472093,0000000073,沖縄県,名護市,あき内科クリニック,アキナイカクリニック,無床診療所,名護市字宇茂佐919番地7　センタービル1F,,26.59685908,127.96478313,(0980)45-0088,,,,,,,,,,,内科;リウマチ科;腎臓内科,0,,
472093,0000000074,沖縄県,名護市,久辺の里医務室,ヒサヘンノサトイムシツ,無床診療所,名護市字豊原216番地,,26.52124835,128.02215124,(0980)55-2525,,,,,,,,,,,内科,0,,
473081,0000000075,沖縄県,本部町,やんばるキッズファミリークリニック,ヤンバルキッズファミリークリニック,無床診療所,本部町渡久地846-1,,26.66355042,127.89224217,(0980)43-7818,,,,,,,,,,,小児科;アレルギー科;内科,0,,
473022,0000000076,沖縄県,大宜味村,召団沖縄クリニック,ショウダンオキナワクリニック,無床診療所,大宜味村字津波1971-195,,26.63862927,128.10008597,,,,,,,,,,,,精神科,0,,
472093,0000000077,沖縄県,名護市,オアシス歯科医院,オアシスシカイイン,無床診療所,名護市東江1丁目25番14号　メゾンロイヤル1Ｆ,,26.58389985,127.98646567,(0980)51-0777,,,,,,,,,,,歯科;小児歯科,0,,
473154,0000000078,沖縄県,伊江村,伊江歯科医院,イエシカイイン,無床診療所,伊江村字東江前459番地,,26.71199072,127.80663652,(0980)49-2214,,,,,,,,,,,歯科;小児歯科,0,,
473600,0000000079,沖縄県,伊是名村,伊是名村立歯科診療所,イゼナソンリツシカシンリョウジョ,無床診療所,伊是名村字仲田1199- 1,,26.92755734,127.94051734,(0980)45-2612,,,,,,,,,,,歯科,0,,
473596,0000000080,沖縄県,伊平屋村,伊平屋村立歯科診療所,イヘヤソンタチシカシンリョウジョ,無床診療所,伊平屋村字我喜屋217-3,,27.03456325,127.96381082,(0980)46-2853,,,,,,,,,,,歯科;小児歯科;矯正歯科,0,,
473022,0000000081,沖縄県,大宜味村,大宜味村立歯科診療所,オオギミソンリツシカシンリョウジョ,無床診療所,大宜味村字塩屋987-3,,26.67514505,128.10351281,(0980)44-3840,,,,,,,,,,,歯科;小児歯科,0,,
472093,0000000082,沖縄県,名護市,がなは歯科医院,ガナハシカイイン,無床診療所,名護市大西1丁目1番1号　神山ビル2Ｆ,,26.59158791,127.98192951,(0980)54-5555,,,,,,,,,,,歯科;小児歯科,0,,
473014,0000000083,沖縄県,国頭村,国頭村立辺土名歯科診療所,クニガミソンリツヘントナシカシンリョウジョ,無床診療所,国頭村字辺土名1458番地,,26.74610131,128.17541819,(0980)41-5360,,,,,,,,,,,歯科,0,,
472093,0000000084,沖縄県,名護市,名嘉真歯科医院,ナカマシカイイン,無床診療所,名護市大東1丁目11番15号,,26.58819946,127.98549334,(0980)53-7888,,,,,,,,,,,歯科,0,,
472093,0000000085,沖縄県,名護市,ながた歯科医院,ナガタシカイイン,無床診療所,名護市宮里1丁目28番8号　 南西ビル3Ｆ,,26.59369844,127.97273269,(0980)53-4865,,,,,,,,,,,歯科;小児歯科;矯正歯科,0,,
472093,0000000086,沖縄県,名護市,羽地歯科医院,ハネジシカイイン,無床診療所,名護市字伊差川313番地1,,26.60986529,128.00235255,(0980)53-5356,,,,,,,,,,,歯科,0,,
473031,0000000087,沖縄県,東村,東村歯科診療所,ヒガシソンシカシンリョウジョ,無床診療所,東村字平良550番地,,26.63073717,128.15293655,(0980)43-2744,,,,,,,,,,,歯科;小児歯科,0,,
473065,0000000088,沖縄県,今帰仁村,北山歯科医院,キタヤマシカイイン,無床診療所,今帰仁村仲宗根279番地4,,26.68175759,127.97601293,(0980)56-5655,,,,,,,,,,,歯科,0,,
472093,0000000089,沖縄県,名護市,宮里歯科医院,ミヤザトシカイイン,無床診療所,名護市大東3丁目21番22号,,26.59248809,127.98779861,(0980)53-6974,,,,,,,,,,,歯科,0,,
473081,0000000090,沖縄県,本部町,本部マリン歯科,ホンブマリンシカ,無床診療所,本部町字渡久地799番地1,,26.66225607,127.89110617,(0980)47-6363,,,,,,,,,,,歯科,0,,
472093,0000000091,沖縄県,名護市,医療法人社団和洸会　役所前歯科医院,イリョウホウジンシャダンカズヒロシカイ　ヤクショマエシカイイン,無床診療所,名護市字宮里445-6　大瀬産業ビル1F　101号,,26.59576752,127.96595808,(0980)52-5072,,,,,,,,,,,歯科;小児歯科;矯正歯科,0,,
472093,0000000092,沖縄県,名護市,やんばる歯科医院,ヤンバルシカイイン,無床診療所,名護市大北1丁目23番2号,,26.59846561,127.99203704,(0980)54-0221,,,,,,,,,,,歯科;小児歯科,0,,
472093,0000000093,沖縄県,名護市,とおる歯科,トオルシカ,無床診療所,名護市大南1丁目10番12号　南進ビル2F,,26.59249322,127.97799357,(0980)54-5333,,,,,,,,,,,歯科,0,,
472093,0000000094,沖縄県,名護市,ハート歯科,ハートシカ,無床診療所,名護市大北5丁目2番3号,,26.60381770,127.98480945,(0980)54-8822,,,,,,,,,,,歯科;小児歯科;矯正歯科;歯科口腔外科,0,,
472093,0000000095,沖縄県,名護市,あらさき歯科クリニック,アラサキシカクリニック,無床診療所,名護市大北5丁目22番25号,,26.60710065,127.98142897,(0980)51-0648,,,,,,,,,,,歯科;小児歯科;矯正歯科;歯科口腔外科,0,,
472093,0000000096,沖縄県,名護市,歯科口腔外科クリニック,シカコウクウゲカクリニック,無床診療所,名護市城1丁目1番19号,,26.59086853,127.98177676,(0980)52-2155,,,,,,,,,,,歯科;小児歯科;歯科口腔外科,0,,
473065,0000000097,沖縄県,今帰仁村,おっぱ歯科医院,オッパシカイイン,無床診療所,今帰仁村字謝名621番地1,,26.68644833,127.96598569,(0980)56-1184,,,,,,,,,,,歯科;小児歯科,0,,
472093,0000000098,沖縄県,名護市,こうげん歯科医院,コウゲンシカイイン,無床診療所,名護市宮里1丁目1番52号,,26.59671761,127.97139656,(0980)52-5380,,,,,,,,,,,歯科;小児歯科;矯正歯科;歯科口腔外科,0,,
472093,0000000099,沖縄県,名護市,なごみの森歯科,ナゴミノモリシカ,無床診療所,名護市字名護4558-53,,26.60881215,127.99278655,(0980)52-0737,,,,,,,,,,,歯科;小児歯科;矯正歯科;歯科口腔外科,0,,
473081,0000000100,沖縄県,本部町,らいおん歯科,ライオンシカ,無床診療所,本部町字渡久地231番地,,26.66098701,127.89766402,(0980)47-7855,,,,,,,,,,,歯科;小児歯科,0,,
472093,0000000101,沖縄県,名護市,おおきた歯科,オオキタシカ,無床診療所,名護市大北1丁目1番34号　1Ｆ,,26.60062396,127.99569508,(0980)52-8750,,,,,,,,,,,歯科;小児歯科,0,,
472093,0000000102,沖縄県,名護市,とよはら歯科医院,トヨハラシカイイン,無床診療所,名護市字豊原169番地1,,26.51919027,128.02415951,(0980)55-3905,,,,,,,,,,,歯科;小児歯科;矯正歯科;歯科口腔外科,0,,
472093,0000000103,沖縄県,名護市,くまがい歯科クリニック,クマガイシカクリニック,無床診療所,名護市宇茂佐の森4丁目7番地10,,26.60041713,127.96384419,(0980)43-8890,,,,,,,,,,,歯科;小児歯科;歯科口腔外科,0,,
472093,0000000104,沖縄県,名護市,キラリ・デンタルケアクリニック,キラリ・デンタルケアクリニック,無床診療所,名護市城2丁目10番20号　1Ｆ,,26.58742171,127.98460174,(0980)54-5046,,,,,,,,,,,歯科;小児歯科,0,,
472093,0000000105,沖縄県,名護市,あさと歯科医院,アサトシカイイン,無床診療所,名護市宮里7丁目4番14号,,26.60283983,127.98118469,(0980)54-6480,,,,,,,,,,,歯科;小児歯科;口腔外科,0,,
472093,0000000106,沖縄県,名護市,グリーンデンタルクリニック,グリーンデンタルクリニック,無床診療所,名護市大西4丁目4番14号,,26.60083698,127.97658502,(0980)53-4562,,,,,,,,,,,歯科;小児歯科;矯正歯科;歯科口腔外科,0,,
473014,0000000107,沖縄県,国頭村,のと歯科,ノトシカ,無床診療所,国頭村字辺土名2141-1,,26.74610122,128.17214909,(0980)41-2577,,,,,,,,,,,歯科;小児歯科,0,,
472093,0000000108,沖縄県,名護市,よなみね歯科,ヨナミネシカ,無床診療所,名護市宮里6丁目1番8号  　真栄田ビル1F,,26.60360894,127.97462671,(0980)53-6688,,,,,,,,,,,歯科;小児歯科,0,,
472093,0000000109,沖縄県,名護市,まきや歯科医院,マキヤシカイイン,無床診療所,名護市大東1丁目18番11号　1Ｆ,,26.58914659,127.98516554,(0980)54-4618,,,,,,,,,,,歯科;小児歯科,0,,
472093,0000000110,沖縄県,名護市,ひで歯科クリニック,ヒデシカクリニック,無床診療所,名護市字伊差川514-1F,,26.61532065,128.00686032,(0980)52-1118,,,,,,,,,,,歯科;小児歯科;歯科口腔外科,0,,
473081,0000000111,沖縄県,本部町,金城歯科医院 ,キンジョウシカイイン ,無床診療所,本部町字渡久地142番地1,,26.66006479,127.89494202,(0980)47-2648,,,,,,,,,,,歯科,0,,
473081,0000000112,沖縄県,本部町,医療法人社団幸悠会　もとぶ歯科医院,イリョウホウジンシャダンユキユウカイ　モトブシカイイン,無床診療所,本部町字大浜858番8,,26.65370952,127.88313747,(0980)47-5432,,,,,,,,,,,歯科;小児歯科,0,,
472093,0000000113,沖縄県,名護市,医療法人社団幸悠会　名護カムカム歯科医院,イリョウホウジンシャダンユキユウカイ　ナゴカムカムシカイイン,無床診療所,名護市字伊佐川7番地,,26.59153494,127.97737142,(0980)54-5511,,,,,,,,,,,歯科;小児歯科;歯科口腔外科,0,,
472093,0000000114,沖縄県,名護市,10 Dental Clinic,テンデンダルクリニック,無床診療所,名護市宇茂佐の森4-1-2　具志堅ビル202,,26.60178094,127.96444966,(0980)54-0131,,,,,,,,,,,歯科,0,,
472131,0000000115,沖縄県,うるま市,沖縄県立中部病院　,オキナワケンリツナカベビョウイン　,病院,うるま市字宮里281番地,,26.35565562,127.83380798,(098)973-4111,,,,,,,,,,,内科;呼吸器内科;消化器内科;循環器内科;神経内科;心療内科;外科;呼吸器外科;消化器外科;気管食道外科;肛門外科;心臓血管外科;脳神経外科;小児外科;整形外科;形成外科;精神科;アレルギー科;リウマチ科;小児科;皮膚科;泌尿器科;産科;婦人科;眼科;耳鼻咽喉科;リハビリテーション科;放射線科;病理診断科;救急科;歯科口腔外科;麻酔科;腎臓内科;血液;腫瘍内科;感染症内科;糖尿病;代謝内科;内分泌内科;乳腺外科;耳鼻咽喉;頭頸部外科;新生児内科;緩和ケア内科,0,,
472115,0000000116,沖縄県,沖縄市,沖縄中部療育医療センター,オキナワチュウブリョウイクイリョウセンター,病院,沖縄市比屋根5丁目2番17号,,26.31275404,127.81910157,(098)932-6077,,,,,,,,,,,小児科;内科;リハビリテーション科;整形外科,0,,
472051,0000000117,沖縄県,宜野湾市,独立行政法人国立病院機構沖縄病院,ドクリツギョウセイホウジンコクリツビョウインキコウオキナワビョウイン,病院,宜野湾市我如古3丁目20番14号,,26.25247151,127.75630384,(098)898-2121,,,,,,,,,,,内科;脳神経内科;外科;整形外科;小児科;呼吸器科;放射線科;呼吸器外科;リハビリテーション科;麻酔科;病理診断科,0,,
473146,0000000118,沖縄県,金武町,独立行政法人国立病院機構琉球病院　,ドクリツギョウセイホウジンコクリツビョウインキコウリュウキュウビョウイン　,病院,金武町字金武7958番地1,,26.45151252,127.91084319,(098)968-2133,,,,,,,,,,,内科;精神科;神経科;歯科;児童精神科;麻酔科;リハビリテーション科,0,,
472051,0000000119,沖縄県,宜野湾市,医療法人緑水会　宜野湾記念病院,イリョウホウジンミドリミズカイ　ギノワンキネンビョウイン,病院,宜野湾市宜野湾3丁目3番13号,,26.26008197,127.75836727,(098)893-2101,,,,,,,,,,,内科;呼吸器内科;循環器内科;整形外科;外科;リハビリテーション科;眼科;消化器内科;消化器外科;心療内科;精神科;神経内科,0,,
473251,0000000120,沖縄県,嘉手納町,医療法人仁誠会　名嘉病院,イリョウホウジンヒトシマコトカイ　ナカビョウイン,病院,嘉手納町字嘉手納258番地,,26.36733329,127.75505220,(098)956-1161,,,,,,,,,,,内科;外科;胃腸科;整形外科;眼科;耳鼻咽喉科;リハビリテーション科;歯科;脳神経外科;皮膚科,0,,
473286,0000000121,沖縄県,中城村,社会医療法人かりゆし会　ハートライフ病院 　,シャカイイリョウホウジンカリユシカイ　ハートライフビョウイン 　,病院,中城村字伊集208番地,,26.23790385,127.77102269,(098)895-3255,,,,,,,,,,,内科;呼吸器内科;消化器内科;循環器内科;小児科;リウマチ科;外科;整形外科;脳神経外科;産婦人科;眼科;耳鼻咽喉科;皮膚科;泌尿器科;大腸;肛門外科;精神科;心療内科;リハビリテーション科;放射線科;麻酔科;血液内科;形成外科;救急科;肝臓内科;食道外科;血管外科;乳腺外科;人工透析内科;病理診断科;膵臓外科;腎臓内科;歯科,0,,
472115,0000000122,沖縄県,沖縄市,医療法人卯の会　新垣病院,イリョウホウジンウノカイ　シンガキビョウイン,病院,沖縄市安慶田4丁目10番3号,,26.32888839,127.81077696,(098)933-2756,,,,,,,,,,,精神科;心療内科,0,,
472131,0000000123,沖縄県,うるま市,医療法人社団志誠会　平和病院,イリョウホウジンシャダンココロザシマコトカイ　ヘイワビョウイン,病院,うるま市字上江洲665番地,,26.35925576,127.85954413,(098)973-2000,,,,,,,,,,,精神科;心療内科,0,,
473278,0000000124,沖縄県,北中城村,北中城若松病院　,キタナカシロワカマツビョウイン　,病院,北中城村字大城311番地,,26.28829744,127.80032076,(098)935-2277,,,,,,,,,,,精神科;神経内科;内科;リハビリテーション科,0,,
472131,0000000125,沖縄県,うるま市,いずみ病院,イズミビョウイン,病院,うるま市字栄野比1150番地,,26.39749011,127.82781009,(098)972-7788,,,,,,,,,,,精神科;内科;心療内科,0,,
472051,0000000126,沖縄県,宜野湾市,医療法人球陽会　海邦病院,イリョウホウジンキュウヨウカイ　カイホウビョウイン,病院,宜野湾市真志喜2丁目23番5号,,26.27673004,127.73681274,(098)898-2111,,,,,,,,,,,内科;整形外科;リハビリテーション科;放射線科;泌尿器科;呼吸器内科;循環器内科;消化器内科;リウマチ科;人工透析内科,0,,
472115,0000000127,沖縄県,沖縄市,沖縄中央病院　,オキナワチュウオウビョウイン　,病院,沖縄市知花五丁目26番1号,,26.36516273,127.81067620,(098)938-3188,,,,,,,,,,,精神科;心療内科,0,,
473138,0000000128,沖縄県,宜野座村,医療法人ユカリア沖縄　かんな病院　,イリョウホウジンユカリアオキナワ　カンナビョウイン　,病院,宜野座村字漢那469番地,,26.47496991,127.96265139,(098)968-3661,,,,,,,,,,,内科;外科;小児科;整形外科;皮膚科;眼科;泌尿器科;リハビリテーション科;消化器内科;循環器内科,0,,
472131,0000000129,沖縄県,うるま市,医療法人沖縄寿光会　与勝病院,イリョウホウジンオキナワジュコウカイ　ヨカツビョウイン,病院,うるま市勝連南風原3584番地,,26.32662360,127.88271369,(098)978-5235,,,,,,,,,,,内科;外科;整形外科;耳鼻咽喉科;循環器内科;呼吸器内科;消化器外科;皮膚科;リハビリテーション科;腎臓内科;人工透析内科;歯科;歯科口腔外科,0,,
472115,0000000130,沖縄県,沖縄市,医療法人タピック　沖縄リハビリテーションセンター病院,イリョウホウジンタピック　オキナワリハビリテーションセンタービョウイン,病院,沖縄市比屋根2丁目15番1号,,26.31477062,127.82408164,(098)982-1777,,,,,,,,,,,リハビリテーション科;内科;脳神経外科;整形外科;精神科,0,,
472131,0000000131,沖縄県,うるま市,うるま記念病院,ウルマキネンビョウイン,病院,うるま市字昆布1832番地397,,26.39641829,127.84043959,(098)972-6000,,,,,,,,,,,精神科;内科;老年精神科;リハビリテーション科 ,0,,
473260,0000000132,沖縄県,北谷町,北上中央病院,キタカミチュウオウビョウイン,病院,北谷町字上勢頭631番地9,,26.32928741,127.77260465,(098)936-5111,,,,,,,,,,,"内科;外科;泌尿器科;皮膚科;精神科
",0,,
472115,0000000133,沖縄県,沖縄市,翔南病院,ショウミナミビョウイン,病院,沖縄市山内3丁目14番28号,,26.32736284,127.78212075,(098)930-3020,,,,,,,,,,,内科;循環器内科;リハビリテーション科;泌尿器科;皮膚科;整形外科;糖尿病;内分泌内科;消化器内科,0,,
472115,0000000134,沖縄県,沖縄市,医療法人心和会　潮平病院,イリョウホウジンシンワカイ　シオヒラビョウイン,病院,沖縄市胡屋1丁目17番1号,,26.33620972,127.80285796,(098)937-2054,,,,,,,,,,,内科;外科;小児科;整形外科;リハビリテーション科;泌尿器科,0,,
472115,0000000135,沖縄県,沖縄市,ちゅうざん病院,チュウザンビョウイン,病院,沖縄市松本6丁目2番1号,,26.35472201,127.80974040,(098)982-1346,,,,,,,,,,,リハビリテーション科,0,,
473278,0000000136,沖縄県,北中城村,屋宜原病院,ヤギバルビョウイン,病院,北中城村字屋宜原722番地,,26.31205900,127.79181221,(098)933-1574,,,,,,,,,,,内科;皮膚科,0,,
473286,0000000137,沖縄県,中城村,うえむら病院,ウエムラビョウイン,病院,中城村字南上原803番地3,,26.24845288,127.77446923,(098)895-3535,,,,,,,,,,,産婦人科;小児科;産婦人科（生殖医療）,0,,
472131,0000000138,沖縄県,うるま市,名城病院,ナシロビョウイン,病院,うるま市字赤道175番地3,,26.35357244,127.83056109,(098)974-2121,,,,,,,,,,,産科;婦人科,0,,
473278,0000000139,沖縄県,北中城村,医療法人徳洲会　中部徳洲会病院,イリョウホウジントクシュウカイ　チュウブトクシュウカイビョウイン,病院,北中城村字比嘉801番地　,,26.31693091,127.79722275,(098)932-1110,,,,,,,,,,,内科;呼吸器内科;循環器内科;消化器内科;血液内科;腎臓内科;脳神経内科;ペインクリニック内科;外科;呼吸器外科;心臓血管外科;消化器外科;乳腺外科;小児外科;気管食道外科;肛門外科;整形外科;脳神経外科;形成外科;膵臓外科;リウマチ科;ペインクリニック外科;小児科;皮膚科;泌尿器科;産婦人科;婦人科;眼科;耳鼻咽喉科;リハビリテーション科;放射線科;病理診断科;臨床検査科;救急科;泌尿器科（人工透析）;麻酔科;歯科口腔外科,0,,
473260,0000000140,沖縄県,北谷町,医療法人徳洲会　北谷病院,イリョウホウジントクシュウカイ　チャタンビョウイン,病院,北谷町字上勢頭631番地4,,26.32968739,127.77312682,(098)936-5611,,,,,,,,,,,内科;小児科;外科;整形外科;泌尿器科;リハビリテーション科,0,,
472115,0000000141,沖縄県,沖縄市,社会医療法人敬愛会　中頭病院　,シャカイイリョウホウジンケイアイカイ　ナカガミビョウイン　,病院,沖縄市字登川610番地,,26.36636834,127.82568890,(098)939-1300,,,,,,,,,,,内科;循環器内科;消化器内科;呼吸器内科;感染症内科;血液腫瘍内科;内分泌;代謝内科（糖尿病）;腎臓内科（人工透析）;神経内科;外科;消化器外科;肛門外科;呼吸器外科;乳腺外科;心臓血管外科;脳神経外科;整形外科;形成外科;産婦人科;小児科;小児外科;泌尿器科;眼科;耳鼻いんこう科;頭頸部外科;麻酔科（上川務恵）;病理診断科;放射線科;救急科;リハビリテーション科;血管外科;皮膚科;ペインクリニック内科,0,,
472115,0000000142,沖縄県,沖縄市,中部協同病院　,チュウブキョウドウビョウイン　,病院,沖縄市美里1丁目31番15号,,26.34248996,127.81677349,(098)938-8828,,,,,,,,,,,内科;外科;小児科;整形外科;呼吸器内科;消化器内科;循環器内科;肛門外科;気管食道外科;放射線科;心臓血管外科;歯科;小児歯科;矯正歯科;リハビリテーション科;リウマチ科;精神科;心療内科;婦人科;皮膚科;泌尿器科;脳神経外科;形成外科;神経内科,0,,
472051,0000000143,沖縄県,宜野湾市,順徳医院,ジュントクイイン,有床診療所,宜野湾市大謝名1丁目19番1号,,26.26667817,127.73751037,(098)897-5456,,,,,,,,,,,内科;小児科;外科;産婦人科;麻酔科;耳鼻咽喉科;整形外科,0,,
472131,0000000144,沖縄県,うるま市,海上自衛隊沖縄基地隊医務室,カイジョウジエイタイオキナワキチタイイムシツ,有床診療所,うるま市勝連平敷屋1920番地,,26.30839587,127.91456459,(098)978-3453,,,,,,,,,,,内科;外科;歯科,0,,
473146,0000000145,沖縄県,金武町,厚生労働省第二共済組合国立療養所琉球病院所属診療所,コウセイロウドウショウダイニキョウサイクミアイコクリツリョウヨウジョリュウキュウビョウインショゾクシンリョウジョ,無床診療所,金武町字金武7958番地1,,26.45151252,127.91084319,(098)968-2133,,,,,,,,,,,内科,0,,
473243,0000000146,沖縄県,読谷村,読谷村診療所,ヨミタンソンシンリョウショ,無床診療所,読谷村字都屋167番地,,26.39355507,127.72514255,(098)956-1151,,,,,,,,,,,内科;小児科;皮膚科;リハビリテーション科,0,,
472051,0000000147,沖縄県,宜野湾市,国立療養所沖縄病院所属所診療所,コクリツリョウヨウジョオキナワビョウインショゾクジョシンリョウジョ,無床診療所,宜野湾市我如古3丁目20番14号,,26.25247151,127.75630384,(098)898-2121,,,,,,,,,,,内科;外科;整形外科;小児科;呼吸器科;歯科,0,,
472051,0000000148,沖縄県,宜野湾市,当山産婦人科医院,トウヤマサンフジンカイイン,有床診療所,宜野湾市大謝名5丁目20番8号,,26.26753904,127.73040260,(098)897-5666,,,,,,,,,,,産科;婦人科,0,,
472051,0000000149,沖縄県,宜野湾市,駐留軍要員健康保険組合伊佐浜診療所,イサハマシンリョウショ,無床診療所,宜野湾市伊佐4丁目5番7号,,26.29006539,127.75333573,(098)898-4893,,,,,,,,,,,,0,,
472131,0000000150,沖縄県,うるま市,特別養護老人ホーム楽寿園診療所,トクベツヨウゴロウジンホームラクジュエンシンリョウジョ,無床診療所,うるま市石川嘉手苅961番地17,,26.42533110,127.79759179,(098)965-4152,,,,,,,,,,,内科;外科;消化器科,0,,
472131,0000000151,沖縄県,うるま市,特別養護老人ホーム与勝の里医務室,トクベツヨウゴロウジンホームヨカツノサトイムシツ,無床診療所,うるま市勝連南風原4902番地,,26.34214967,127.87707836,(098)978-2629,,,,,,,,,,,内科;外科,0,,
472131,0000000152,沖縄県,うるま市,特別養護老人ホーム平和の村医務室,トクベツヨウゴロウジンホームヘイワノソンイムシツ,無床診療所,うるま市字昆布1832番地1,,26.39874306,127.83988400,(098)972-5000,,,,,,,,,,,内科;皮膚科,0,,
472115,0000000153,沖縄県,沖縄市,沖縄一条園診療所,オキナワイチジョウエンシンリョウショ,無床診療所,沖縄市与儀3丁目5番10号,,26.31007368,127.81626301,(098)932-9376,,,,,,,,,,,内科,0,,
472051,0000000154,沖縄県,宜野湾市,山城眼科医院,ヤマシロガンカイイン,無床診療所,宜野湾市野嵩3丁目2番8号,,26.28823848,127.77925312,(098)892-1665,,,,,,,,,,,眼科,0,,
472051,0000000155,沖縄県,宜野湾市,愛知クリニック,アイチクリニック,有床診療所,宜野湾市愛知1丁目2番12号,,26.27037852,127.76874654,(098)892-3511,,,,,,,,,,,産科;婦人科;内科;小児科;呼吸器科;胃腸科;循環器科;理学診療科;放射線科,0,,
472115,0000000156,沖縄県,沖縄市,特別養護老人ホーム緑樹園医務室,トクベツヨウゴロウジンホームリョクジュエンイムシツ,無床診療所,沖縄市胡屋7丁目2番10号,,26.32563039,127.81117143,(098)933-1205,,,,,,,,,,,内科,0,,
473260,0000000157,沖縄県,北谷町,砂辺クリニック,スナベクリニック,無床診療所,北谷町字宮城1番地43,,26.32920057,127.74552617,(098)936-6270,,,,,,,,,,,内科;皮膚科;小児科,0,,
473286,0000000158,沖縄県,中城村,春華園診療所,シュンカエンシンリョウジョ,無床診療所,中城村字添石363番地,,26.27707607,127.79667158,(098)895-4407,,,,,,,,,,,内科,0,,
473260,0000000159,沖縄県,北谷町,特別養護老人ホーム陽明園診療所,トクベツヨウゴロウジンホームヨウアケゾノシンリョウジョ,無床診療所,北谷町字吉原265番地,,26.31602211,127.77750204,(098)936-3565,,,,,,,,,,,内科,0,,
473260,0000000160,沖縄県,北谷町,一般社団法人中部地区医師会　検診センター　　,チュウブチクイシカイケンシンセンター,無床診療所,北谷町字宮城1番地584,,26.32502062,127.75325349,(098)936-8200,,,,,,,,,,,内科;外科;婦人科;歯科,0,,
472115,0000000161,沖縄県,沖縄市,伊元小児科,イモトショウニカ,無床診療所,沖縄市泡瀬4丁目39番12号,,26.31388747,127.82885619,(098)938-6112,,,,,,,,,,,内科;小児科;皮膚科,0,,
472131,0000000162,沖縄県,うるま市,山田小児科内科医院,ヤマダショウニカナイカイイン,無床診療所,うるま市石川東山1丁目19番11号,,26.43527874,127.83795761,(098)965-3577,,,,,,,,,,,内科;小児科,0,,
472051,0000000163,沖縄県,宜野湾市,眼科クリニック幸地,ガンカクリニックコウチ,無床診療所,宜野湾市宜野湾2丁目5番13号,,26.26237340,127.75688953,(098)893-3711,,,,,,,,,,,眼科,0,,
472115,0000000164,沖縄県,沖縄市,医療法人高徳会　松永眼科医院,マツナガガンカイイン,有床診療所,沖縄市美里2丁目10番2号,,26.34466470,127.81390144,(098)938-7271,,,,,,,,,,,眼科,0,,
472115,0000000165,沖縄県,沖縄市,大城内科医院,オオシロナイカイイン,無床診療所,沖縄市照屋5丁目19番6号,,26.32991342,127.81687645,(098)938-3100,,,,,,,,,,,内科;小児科,0,,
472131,0000000166,沖縄県,うるま市,宮里眼科,ミヤザトガンカ,無床診療所,うるま市石川東山1丁目22番2号,,26.43508985,127.83749377,(098)965-2536,,,,,,,,,,,眼科,0,,
472131,0000000167,沖縄県,うるま市,中山内科医院,ナカヤマナイカイイン,無床診療所,うるま市字赤道260番地7,,26.35592221,127.83062768,(098)974-4620,,,,,,,,,,,内科;小児科;皮膚科,0,,
472115,0000000168,沖縄県,沖縄市,医療法人藤真会　プラザクリニック,プラザクリニック,有床診療所,沖縄市久保田1丁目10番5号,,26.32213864,127.79403951,(098)933-5719,,,,,,,,,,,内科;消化器科;胃腸科;整形外科;肛門科;理学療法科;心療内科;精神科,0,,
472051,0000000169,沖縄県,宜野湾市,こはぐら耳鼻咽喉科,コハグラジビインコウカ,無床診療所,宜野湾市普天間2丁目49番14号,,26.29135202,127.77625601,(098)893-4070,,,,,,,,,,,耳鼻咽喉科;気管食道科,0,,
472131,0000000170,沖縄県,うるま市,川根内科外科　血管外科クリニック,カワネナイカゲカケッカンゲカクリニック,無床診療所,うるま市みどり町4丁目2番29号,,26.37842042,127.85676633,(098)974-3025,,,,,,,,,,,内科;小児科;皮膚科;外科;整形外科;麻酔科;血管外科,0,,
472051,0000000171,沖縄県,宜野湾市,宜野湾整形外科医院,ギノワンセイケイゲカイイン,無床診療所,宜野湾市真栄原3丁目7番7号,,26.26256473,127.74171019,(098)897-1891,,,,,,,,,,,整形外科;リハビリテーション科,0,,
473260,0000000172,沖縄県,北谷町,やびく産婦人科小児科,ヤビクサンフジンカショウニカ,有床診療所,北谷町字砂辺306番地,,26.33228652,127.74997290,(098)936-6789,,,,,,,,,,,内科;小児科;産科;婦人科;皮膚科;外科;整形外科;泌尿器科,0,,
473278,0000000173,沖縄県,北中城村,仲舛内科,ナカマスナイカ,無床診療所,北中城村字島袋534番地12,,26.32207489,127.79885304,(098)93-32631,,,,,,,,,,,内科;小児科;皮膚科,0,,
472131,0000000174,沖縄県,うるま市,沖縄県立中部病院附属津堅診療所,チュウブビョウインフゾクツケンシンリョウショ,無床診療所,うるま市勝連津堅1582番地,,26.24861355,127.93871398,(098)978-2918,,,,,,,,,,,内科;小児科;外科,0,,
473251,0000000175,沖縄県,嘉手納町,特別養護老人ホーム比謝川の里医務室,トクベツヨウゴロウジンホームヒジャガワノサトイムシツ,無床診療所,嘉手納町字久得242番地2,,26.37205544,127.77124271,(098)957-3000,,,,,,,,,,,内科,0,,
472115,0000000176,沖縄県,沖縄市,ふくはら小児科医院,フクハラショウンカイイン,無床診療所,沖縄市泡瀬2丁目8番7号,,26.31797047,127.83196970,(098)934-1115,,,,,,,,,,,小児科;内科;皮膚科,0,,
473146,0000000177,沖縄県,金武町,特別養護老人ホーム光が丘医務室,トクベツヨウゴロウジンホームヒカリガオカイムシツ,無床診療所,金武町字伊芸1292番1,,26.45778047,127.86777972,(098)968-4486,,,,,,,,,,,内科;外科;皮膚科;整形外科,0,,
472131,0000000178,沖縄県,うるま市,医療法人うるま会　具志川整形外科,グシカワセイケイゲカ,無床診療所,うるま市みどり町4丁目13番1号,,26.37649281,127.85554982,(098)974-2610,,,,,,,,,,,整形外科;リハビリテ－ション科,0,,
472131,0000000179,沖縄県,うるま市,しげま小児科医院,シゲマショウニカイイン,無床診療所,うるま市みどり町3丁目18番12号,,26.37420979,127.85906063,(098)973-2300,,,,,,,,,,,小児科;内科;皮膚科;耳鼻咽喉科,0,,
473146,0000000180,沖縄県,金武町,松原クリニック　,マツバラクリニック,無床診療所,金武町字金武4231番地,,26.45137650,127.91442346,(098)968-3961,,,,,,,,,,,皮膚科;内科;精神科;小児科;心療内科,0,,
472051,0000000181,沖縄県,宜野湾市,山内耳鼻咽喉科医院,ヤマウチジビインコウカイイン,有床診療所,宜野湾市真栄原3丁目24番14号,,26.26408690,127.74570702,(098)890-1717,,,,,,,,,,,耳鼻咽喉科;気管食道科,0,,
472115,0000000182,沖縄県,沖縄市,医療法人ゆうな会　なかいま耳鼻咽喉科,ナカイマジビインコウカ,無床診療所,沖縄市胡屋1丁目13番15号,,26.33494871,127.80206360,(098)937-5555,,,,,,,,,,,耳鼻咽喉科;気管食道科,0,,
472131,0000000183,沖縄県,うるま市,みどり町眼科,ミドリマチガンカ,無床診療所,うるま市みどり町4丁目14番7号　コーポ仲宗根1階,,26.37590677,127.85570815,(098)974-2300,,,,,,,,,,,眼科,0,,
472115,0000000184,沖縄県,沖縄市,いまい整形外科医院,イマイセイケイゲカイイン,無床診療所,沖縄市知花6丁目23番22号,,26.36428786,127.81479813,(098)939-1100,,,,,,,,,,,整形外科;理学診療科,0,,
473146,0000000185,沖縄県,金武町,身体障害者療護施設松原園医務室,シンタイショウガイシャリョウゴシセツマツバラエンイムシツ,無床診療所,金武町字金武4231番地,,26.45137650,127.91442346,(098)968-3961,,,,,,,,,,,内科;外科;皮膚科;精神科;神経内科,0,,
473286,0000000186,沖縄県,中城村,榕原医院,ガジュバルイイン,有床診療所,中城村字北上原280番地,,26.26837339,127.77755145,(098)895-7505,,,,,,,,,,,循環器科;内科;小児科;整形外科,0,,
472115,0000000187,沖縄県,沖縄市,アワセ第一医院,アワセダイイチイイン,無床診療所,沖縄市泡瀬2丁目54番26号,,26.31654293,127.83685257,(098)937-5536,,,,,,,,,,,内科;小児科;皮膚科;呼吸器科;胃腸科;循環器科;気管食道科;外科,0,,
472115,0000000188,沖縄県,沖縄市,一般社団法人日本健康倶楽部　沖縄支部診療所,ニホンケンコウクラブ　オキナワシブシンリョウショ,無床診療所,沖縄市字登川3169番地,,26.37543391,127.81220081,(098)939-4026,,,,,,,,,,,内科;眼科,0,,
473243,0000000189,沖縄県,読谷村,都屋の里医務室,トヤノサト　イムシツ,無床診療所,読谷村字都屋167番地4,,26.39438555,127.72484810,(098)956-1150,,,,,,,,,,,内科,0,,
472115,0000000190,沖縄県,沖縄市,美原クリニック,ミハラクリニック,無床診療所,沖縄市字松本921番地,,26.35234186,127.82032581,(098)938-1500,,,,,,,,,,,内科;循環器科;小児科;皮膚科;泌尿器科,0,,
472051,0000000191,沖縄県,宜野湾市,やましろ皮フ科,ヤマシロヒフカ,無床診療所,宜野湾市上原1丁目2番9号,,26.27528105,127.77450138,(098)892-8105,,,,,,,,,,,皮膚科,0,,
473243,0000000192,沖縄県,読谷村,特別養護老人ホーム読谷の里,トクベツヨウゴロウジンホームヨミタンノサト,無床診療所,読谷村字座喜味1875番地1,,26.39537993,127.72647572,(098)956-2000,,,,,,,,,,,内科;神経科;精神科,0,,
472131,0000000193,沖縄県,うるま市,指定障害者支援施設美原の里医務室,シテイショウガイシャシエンシセツミハラノサトイムシツ,無床診療所,うるま市石川東恩納1517番地,,26.40684767,127.83229271,(098)965-3308,,,,,,,,,,,精神科,0,,
472131,0000000194,沖縄県,うるま市,大嶺医院,オオミネイイン,無床診療所,うるま市字田場1417番地,,26.36831040,127.85909406,(098)973-1125,,,,,,,,,,,内科;小児科;皮膚科;外科;整形外科,0,,
472115,0000000195,沖縄県,沖縄市,仲宗根クリニック,ナカソネクリニック,無床診療所,沖縄市高原7丁目23番14号,,26.31782866,127.82454542,(098)933-8000,,,,,,,,,,,内科;外科;消化器科;肛門科;理学診療科,0,,
472051,0000000196,沖縄県,宜野湾市,神元内科医院,カミモトナイカイイン,無床診療所,宜野湾市真栄原3丁目5番3号,,26.26112048,127.74467389,(098)898-6631,,,,,,,,,,,内科;循環器内科;小児科,0,,
472131,0000000197,沖縄県,うるま市,特別養護老人ホームあやはし苑医務室,トクベツヨウゴロウジンホームアヤハシソノイムシツ,無床診療所,うるま市与那城屋慶名1410番地,,26.32717438,127.90912001,(098)978-5566,,,,,,,,,,,内科,0,,
472051,0000000198,沖縄県,宜野湾市,宮城医院,ミヤギイイン,無床診療所,宜野湾市野嵩1丁目10番11号,,26.28036139,127.78063116,(098)893-7777,,,,,,,,,,,内科;消化器科;小児科;泌尿器科;リハビリテ－ション科,0,,
472051,0000000199,沖縄県,宜野湾市,よなみね内科,ヨナミネナイカ,無床診療所,宜野湾市普天間2丁目4番5号,,26.28811341,127.77665335,(098)894-1000,,,,,,,,,,,内科;循環器科;呼吸器科;小児科,0,,
472115,0000000200,沖縄県,沖縄市,アイクリニック中の町,アイクリニックナカノマチ,無床診療所,沖縄市上地1丁目11番2号　ヨシヒラ2階,,26.33364043,127.79862499,(098)930-2812,,,,,,,,,,,眼科,0,,
472115,0000000201,沖縄県,沖縄市,つかやま耳鼻咽喉科,ツカヤマジビインコウカ,無床診療所,沖縄市南桃原4丁目28番10号,,26.32849047,127.78045137,(098)933-8733,,,,,,,,,,,耳鼻咽喉科,0,,
472115,0000000202,沖縄県,沖縄市,みさと耳鼻科,ミサトジビカ,無床診療所,沖縄市美原4丁目1番15号 ,,26.35178076,127.81806765,(098)939-8733,,,,,,,,,,,耳鼻咽喉科,0,,
473260,0000000203,沖縄県,北谷町,医療法人八重会　たまきクリニック,タマキクリニック,無床診療所,北谷町字上勢頭837番地8,,26.32748192,127.76885498,(098)926-1313,,,,,,,,,,,内科;呼吸器科;胃腸科;循環器科;放射線科;リハビリテ－ション科,0,,
473243,0000000204,沖縄県,読谷村,まつしまクリニック,マツシマクリニック,無床診療所,読谷村字瀬名波894番地2,,26.42498558,127.73072167,(098)958-6888,,,,,,,,,,,内科;消化器科;循環器科;小児科;外科;眼科;リハビリテ－ション科;心療内科;精神科,0,,
473278,0000000205,沖縄県,北中城村,身体障害者療護施設沖縄中央療護園医務室,シンタイショウガイシャリョウゴシセツオキナワチュウオウリョウゴエンイムシツ,無床診療所,北中城村字仲順544番地1,,26.30871503,127.79693692,(098)935-1000,,,,,,,,,,,内科;皮膚科,0,,
472051,0000000206,沖縄県,宜野湾市,さよウイメンズ．メンタルクリニック,サヨウイメンズメンタルクリニック,無床診療所,宜野湾市志真志4丁目27番7号　沖縄ぎのわんセミナーハウス4階,,26.25745997,127.75775353,(098)870-9855,,,,,,,,,,,精神科;心療内科,0,,
472115,0000000207,沖縄県,沖縄市,東部クリニック,トウブクリニック,無床診療所,沖縄市与儀3丁目9番1号,,26.30768778,127.81521039,(098)932-0111,,,,,,,,,,,内科;脳神経外科;リハビリテ－ション科;放射線科;整形外科;脳神経内科,0,,
473243,0000000208,沖縄県,読谷村,なかそね内科,ナカソネナイカ,無床診療所,読谷村字伊良皆340番地,,26.38149571,127.75191038,(098)957-0707,,,,,,,,,,,内科;消化器科;呼吸器科;循環器科;皮膚科,0,,
472051,0000000209,沖縄県,宜野湾市,まえはら内科,マエハラナイカ,無床診療所,宜野湾市真栄原3丁目19番8号,,26.26396187,127.74402661,(098)870-2807,,,,,,,,,,,内科;呼吸器科,0,,
472115,0000000210,沖縄県,沖縄市,愛聖クリニック,アイセイクリニック,無床診療所,沖縄市高原5丁目15番11号,,26.32255884,127.82890881,(098)939-5114,,,,,,,,,,,内科;循環器科;呼吸器科;消化器科;小児科;皮膚科;アレルギー科;リハビリテーション科;精神科,0,,
472115,0000000211,沖縄県,沖縄市,ふくはら胃腸科外科,フクハライチョウカゲカ,無床診療所,沖縄市美里仲原町26番5号,,26.34447048,127.82640331,(098)921-0001,,,,,,,,,,,胃腸科;外科;リハビリテ－ション科;整形外科;肛門科;小児科,0,,
472115,0000000212,沖縄県,沖縄市,岸本内科クリニック,キシモトナイカクリニック,無床診療所,沖縄市登川1丁目1番24号,,26.36731816,127.81842834,(098)934-7770,,,,,,,,,,,内科;小児科;皮膚科;呼吸器科;循環器科;胃腸科;アレルギー科,0,,
472115,0000000213,沖縄県,沖縄市,美里ヒフ科,ミサトヒフカ,無床診療所,沖縄市東2丁目5番14号,,26.34743128,127.82473949,(098)939-7241,,,,,,,,,,,皮膚科,0,,
472051,0000000214,沖縄県,宜野湾市,ひかり眼科,ヒカリガンカ,無床診療所,宜野湾市愛知1丁目2番1号,,26.27046742,127.76950481,(098)892-9888,,,,,,,,,,,眼科,0,,
472051,0000000215,沖縄県,宜野湾市,おやかわクリニック,オヤカワクリニック,無床診療所,宜野湾市長田1丁目29番1号,,26.26292901,127.76221685,(098)893-5511,,,,,,,,,,,内科;消化器科;呼吸器科;循環器科,0,,
472115,0000000216,沖縄県,沖縄市,特別養護老人ホームおきなわ長寿苑医務室,トクベツヨウゴロウジンホームオキナワチョウジュソノイムシツ,無床診療所,沖縄市字登川1403番地,,26.37518686,127.82331940,(098)939-4165,,,,,,,,,,,内科,0,,
473278,0000000217,沖縄県,北中城村,ごきげんリハビリクリニック,ゴイゲンリハビリクリニック,無床診療所,北中城村字島袋1253番4,,26.32069191,127.80788292,(098)933-5515,,,,,,,,,,,リハビリテーション科;内科;リウマチ科;整形外科;美容外科,0,,
472131,0000000218,沖縄県,うるま市,ぐしかわ皮ふ科,グシカワヒフカ,無床診療所,うるま市みどり町4丁目19番1号,,26.37517073,127.85560539,(098)973-3008,,,,,,,,,,,皮膚科;性病科,0,,
472115,0000000219,沖縄県,沖縄市,うえはら眼科,ウエハラガンカ,無床診療所,沖縄市高原2丁目4番17号,,26.32706922,127.81476556,(098)930-3100,,,,,,,,,,,眼科,0,,
472115,0000000220,沖縄県,沖縄市,うちま内科,ウチマナイカ,無床診療所,沖縄市宮里4丁目2番3号,,26.34139296,127.82312026,(098)934-7500,,,,,,,,,,,内科;循環器科;呼吸器科;消化器科;リウマチ科,0,,
472115,0000000221,沖縄県,沖縄市,はなしろ小児科,ハナシロショウニカ,無床診療所,沖縄市南桃原3丁目36番13号,,26.32478807,127.78181808,(098)930-5177,,,,,,,,,,,小児科,0,,
472115,0000000222,沖縄県,沖縄市,とけし内科,トケシナイカ,無床診療所,沖縄市東2丁目5番11号,,26.34763126,127.82454504,(098)937-1515,,,,,,,,,,,内科;消化器科;循環器科,0,,
472115,0000000223,沖縄県,沖縄市,コザクリニック,コザクリニック,無床診療所,沖縄市仲宗根町19番1号,,26.33450434,127.80303575,(098)938-1038,,,,,,,,,,,内科;神経内科;リハビリテーション科,0,,
472051,0000000224,沖縄県,宜野湾市,うえはらこどもクリニック,ウエハラコドモクリニック,無床診療所,宜野湾市長田1丁目26番19号,,26.26129863,127.76350570,(098)892-5151,,,,,,,,,,,小児科;アレルギー科,0,,
472115,0000000225,沖縄県,沖縄市,富名腰医院,フナコシイイン,無床診療所,沖縄市住吉1丁目5番16号,,26.33813191,127.80970743,(098)938-2936,,,,,,,,,,,内科;皮膚科,0,,
472051,0000000226,沖縄県,宜野湾市,みやぎ小児科クリニック,ミヤギショウニカクリニック,無床診療所,宜野湾市字我如古447番地1,,26.26015391,127.74527943,(098)898-3339,,,,,,,,,,,小児科;内科;皮膚科,0,,
472115,0000000227,沖縄県,沖縄市,医療法人真愛会　伊佐整形外科,イサセイケイゲカ,無床診療所,沖縄市比屋根2丁目3番3号,,26.31655936,127.82570645,(098)931-1111,,,,,,,,,,,整形外科;リハビリテーション科;リウマチ科,0,,
472115,0000000228,沖縄県,沖縄市,ひが内科クリニック,ヒガナイカクリニック,無床診療所,沖縄市東2丁目25番2号　コーポ桑江1階,,26.34610919,127.82524503,(098)929-1810,,,,,,,,,,,内科;循環器科;小児科,0,,
472051,0000000229,沖縄県,宜野湾市,いとむクリニック,イトムクリニック,無床診療所,宜野湾市伊佐1丁目10番9号,,26.28500753,127.75509694,(098)898-5856,,,,,,,,,,,内科;皮膚科;小児科;耳鼻科;眼科,0,,
472051,0000000230,沖縄県,宜野湾市,クリニックぎのわん,クリニックギノワン,無床診療所,宜野湾市大山7丁目7番22号,,26.28749874,127.74539761,(098)890-1213,,,,,,,,,,,内科;心療内科;外科;整形外科;リハビリテーション科;精神科,0,,
472115,0000000231,沖縄県,沖縄市,やんハーブクリニック,ヤンハーブクリニック,無床診療所,沖縄市東2丁目16番5号,,26.34279006,127.82433126,(098)939-8877,,,,,,,,,,,小児科;内科;皮膚科,0,,
472115,0000000232,沖縄県,沖縄市,吉里小児クリニック,ヨシザトショウニクリニック,無床診療所,沖縄市美里5丁目24番15号,,26.35324442,127.81245968,(098)921-0300,,,,,,,,,,,小児科;内科;皮膚科,0,,
472115,0000000233,沖縄県,沖縄市,ファミリーメンタルクリニック,ファミリーメンタルクリニック,無床診療所,沖縄市知花6丁目40番3号,,26.36640990,127.81655072,(098)939-5561,,,,,,,,,,,診療内科;神経科;精神科;内科;小児科,0,,
472051,0000000234,沖縄県,宜野湾市,池原外科胃腸科医院,イケハラゲカイチョウカイイン,無床診療所,宜野湾市新城2丁目40番27号,,26.28755766,127.76815130,(098)893-1531,,,,,,,,,,,内科;外科;胃腸科;泌尿器科;こう門科;呼吸器科;放射線科,0,,
472115,0000000235,沖縄県,沖縄市,沖縄県中部保健所,チュウブホケンショ,無床診療所,沖縄市美原1丁目6番28号,,26.34773673,127.81972039,(098)938-9886,,,,,,,,,,,内科;歯科,0,,
472131,0000000236,沖縄県,うるま市,みどり町クリニック,ミドリマチクリニック,無床診療所,うるま市みどり町5丁目27番2号,,26.37803146,127.85129186,(098)972-3858,,,,,,,,,,,内科;小児科;皮膚科,0,,
472115,0000000237,沖縄県,沖縄市,永山脳神経クリニック,ナガヤマノウシンケイクリニック,無床診療所,沖縄市美原4丁目1番10号,,26.35160577,127.81807599,(098)929-2200,,,,,,,,,,,脳神経外科;内科;リハビリテーション科;整形外科,0,,
472115,0000000238,沖縄県,沖縄市,のぼる耳鼻咽喉科医院,ノボルジビインコウカイイン,無床診療所,沖縄市東2丁目26番5号,,26.34511486,127.82587000,(098)929-1187,,,,,,,,,,,耳鼻咽喉科;アレルギー科,0,,
473251,0000000239,沖縄県,嘉手納町,医療法人海泉陽の会　中山眼科,ナカヤマガンカ,無床診療所,嘉手納町字嘉手納286番地2,,26.36428082,127.75521615,(098)957-2737,,,,,,,,,,,眼科,0,,
473243,0000000240,沖縄県,読谷村,よみたん皮フ科,ヨミタンヒフカ,無床診療所,読谷村字都屋234番地3,,26.39331346,127.72679799,(098)957-2002,,,,,,,,,,,皮膚科;美容外科;アレルギー科,0,,
472115,0000000241,沖縄県,沖縄市,元美皮フ科,モトミカワフカ,無床診療所,沖縄市登川1丁目12番13号,,26.36917356,127.81991428,(098)929-4112,,,,,,,,,,,皮膚科,0,,
472115,0000000242,沖縄県,沖縄市,中部眼科,チュウブガンカ,有床診療所,沖縄市美原3丁目22番11号,,26.35084751,127.81756771,(098)934-8000,,,,,,,,,,,眼科,0,,
472115,0000000243,沖縄県,沖縄市,北城整形外科,キタシロセイケイゲカ,無床診療所,沖縄市山内2丁目25番41号,,26.32469378,127.78711771,(098)930-7777,,,,,,,,,,,整形外科;リハビリテーション科;リウマチ科,0,,
473260,0000000244,沖縄県,北谷町,大城ヒフ科クリニック,オオシロヒフカクリニック,無床診療所,北谷町字上勢頭629番地1,,26.32839303,127.77167418,(098)926-0007,,,,,,,,,,,皮膚科,0,,
473243,0000000245,沖縄県,読谷村,ライフケアクリニック長浜,ライフケアクリニックナガハマ,無床診療所,読谷村字長浜1530番1,,26.41713355,127.73151629,(098)982-9000,,,,,,,,,,,内科;外科;小児科;消化器科;神経科;リハビリテーション科,0,,
472115,0000000246,沖縄県,沖縄市,社会医療法人敬愛会　ちばなクリニック　,チバナクリニック,無床診療所,沖縄市知花6丁目25番15号,,26.36381848,127.81713964,(098)939-1301,,,,,,,,,,,内科;外科;小児科;整形外科;泌尿器科;眼科;耳鼻いんこう科;小児外科;婦人科;放射線科;リハビリテーション科;神経内科;循環器内科;消化器内科;呼吸器内科;感染症内科;糖尿病内科;腎臓内科（人工透析）;消化器外科;;呼吸器外科;肛門外科;血管外科;皮膚科;脳神経外科,0,,
472131,0000000247,沖縄県,うるま市,よしクリニック,ヨシクリニック,無床診療所,うるま市石川曙3丁目2番10号,,26.41924082,127.82513996,(098)982-5353,,,,,,,,,,,内科;外科;整形外科;皮膚科;肛門科,0,,
473243,0000000248,沖縄県,読谷村,よみたん眼科,ヨミタンガンカ,無床診療所,読谷村字大木324番地1,,26.38250943,127.74885778,(098)956-0100,,,,,,,,,,,眼科,0,,
472115,0000000249,沖縄県,沖縄市,兼城医院,カネシロイイン,無床診療所,沖縄市美原2丁目26番13号,,26.34671737,127.81903992,(098)929-3000,,,,,,,,,,,心療内科;精神科;神経科;内科,0,,
472115,0000000250,沖縄県,沖縄市,まつもと胃腸科整形外科医院,マツモトイチョウカセイケイゲカイイン,無床診療所,沖縄市松本1丁目21番23号,,26.35638587,127.81789532,(098)939-2115,,,,,,,,,,,胃腸科;整形外科;外科;内科;肛門科;皮膚科;リハビリテーション科,0,,
472051,0000000251,沖縄県,宜野湾市,いなふくクリニック,イナフククリニック,無床診療所,宜野湾市真栄原3丁目12番20号,,26.26333415,127.74351001,(098)890-5300,,,,,,,,,,,産婦人科;内科;心療内科,0,,
472131,0000000252,沖縄県,うるま市,平良川整形外科,タイラガワセイケイゲカ,無床診療所,うるま市字喜屋武169番地5,,26.36344119,127.84749255,(098)974-5670,,,,,,,,,,,整形外科,0,,
472115,0000000253,沖縄県,沖縄市,嘉数医院,カカズイイン,無床診療所,沖縄市諸見里1丁目26番2号,,26.32908240,127.79362545,(098)930-0090,,,,,,,,,,,内科;呼吸器科;アレルギー科;小児科,0,,
472051,0000000254,沖縄県,宜野湾市,ちゃたに内科・呼吸器科,チャタニナイカコキュウキカ,無床診療所,宜野湾市字宇地泊724番地2,,26.27241357,127.72945799,(098)898-7777,,,,,,,,,,,内科;呼吸器科,0,,
472131,0000000255,沖縄県,うるま市,しゅくみね内科,ショクミネナイカ,無床診療所,うるま市字赤道759番地1,,26.35941342,127.82153665,(098)975-1515,,,,,,,,,,,内科;消化器科;胃腸科;呼吸器科;循環器科,0,,
472115,0000000256,沖縄県,沖縄市,源河医院,ゲンカイイン,無床診療所,沖縄市中央1丁目18番7号,,26.33748177,127.80079419,(098)937-4976,,,,,,,,,,,内科;脳神経外科;リハビリテーション科,0,,
472051,0000000257,沖縄県,宜野湾市,喜屋武内科クリニツク,キャンナイカクリニック,無床診療所,宜野湾市嘉数2丁目1番1号,,26.25584861,127.73924675,(098)890-7715,,,,,,,,,,,内科;小児科;リウマチ科,0,,
472115,0000000258,沖縄県,沖縄市,美里女性クリニック,ミサトジョセイクリニック,有床診療所,沖縄市美原2丁目25番3号,,26.34697566,127.81767334,(098)929-3003,,,,,,,,,,,産婦人科;内科,0,,
472131,0000000259,沖縄県,うるま市,あさと整形クリニック,アサトセイケイクリニック,無床診療所,うるま市石川1丁目16番16号,,26.43090093,127.82464498,(098)982-5621,,,,,,,,,,,整形外科;リウマチ科;リハビリテーション科,0,,
472115,0000000260,沖縄県,沖縄市,中部産婦人科医院,チュウブサンフジンカイイン,有床診療所,沖縄市安慶田1丁目3番20号,,26.33794587,127.81211280,(098)937-8878,,,,,,,,,,,産科;婦人科,0,,
472131,0000000261,沖縄県,うるま市,よざ耳鼻咽喉科,ヨザジビインコウカ,無床診療所,うるま市字石川2381番地1,,26.43423135,127.82919446,(098)964-4133,,,,,,,,,,,耳鼻咽喉科,0,,
472131,0000000262,沖縄県,うるま市,ぐしけん眼科,グシケンガンカ,無床診療所,うるま市字具志川1371番1,,26.34490759,127.87259552,(098)975-1010,,,,,,,,,,,眼科,0,,
472131,0000000263,沖縄県,うるま市,しま小児科内科クリニック,シマショウニカナイカクリニック,無床診療所,うるま市安慶名3丁目23番24号,,26.37345416,127.85185579,(098)972-3788,,,,,,,,,,,小児科;内科;アレルギー科;皮膚科,0,,
472051,0000000264,沖縄県,宜野湾市,みみとはなの和クリニック,ミミトハナノカズクリニック,無床診療所,宜野湾市字宇地泊701番地,,26.27240245,127.72887749,(098)890-0753,,,,,,,,,,,耳鼻咽喉科,0,,
473243,0000000265,沖縄県,読谷村,医療法人そけん小児科,ソケンショウニカ,無床診療所,読谷村字波平2459番地,,26.39471606,127.72431479,(098)958-1544,,,,,,,,,,,小児科;皮膚科,0,,
472051,0000000266,沖縄県,宜野湾市,長濵眼科,ナガハマバンカ,無床診療所,宜野湾市字宇地泊701番地,,26.27240245,127.72887749,(098)870-2266,,,,,,,,,,,眼科,0,,
472131,0000000267,沖縄県,うるま市,具志川厚生園医務室,ウシカワコウセイエンイムシツ,無床診療所,うるま市字天願1983番地,,26.38331702,127.85085012,(098)972-6677,,,,,,,,,,,内科;精神科,0,,
472115,0000000268,沖縄県,沖縄市,安立医院,アダチイイン,無床診療所,沖縄市山内1丁目7番5号,,26.32738518,127.78676209,(098)933-6200,,,,,,,,,,,内科;人工透析内科;消化器内科,0,,
472051,0000000269,沖縄県,宜野湾市,いきいき耳鼻咽喉科クリニック,イキイキジビインコウカクリニック,無床診療所,宜野湾市長田1丁目1番3号,,26.26539552,127.76471932,(098)893-1187,,,,,,,,,,,耳鼻咽喉科,0,,
473111,0000000270,沖縄県,恩納村,恩納クリニック,オンナクリニック,無床診療所,恩納村字恩納6329番地,,26.48833000,127.84686345,(098)966-8115,,,,,,,,,,,内科;循環器科;胃腸科;呼吸器科;小児科,0,,
472115,0000000271,沖縄県,沖縄市,いしはら小児科,イシハラショウニカ,無床診療所,沖縄市美原4丁目27番15号,,26.35108083,127.81855374,(098)934-7666,,,,,,,,,,,小児科;アレルギー科,0,,
473146,0000000272,沖縄県,金武町,きんクリニック,キンクリニック,無床診療所,金武町字金武94番地,,26.45584022,127.92533072,(098)968-2145,,,,,,,,,,,内科;小児科;皮膚科,0,,
473111,0000000273,沖縄県,恩納村,特別養護老人ホーム谷茶の丘　雅（みやび）診療所,トクベツヨウゴロウジンホームタンチャノオカ　マサシ（ミヤビ）シンリョウジョ,無床診療所,恩納村字谷茶1919番地7,,26.45633213,127.82552723,(098)966-2323,,,,,,,,,,,内科;循環器科;胃腸科;呼吸器科,0,,
472051,0000000274,沖縄県,宜野湾市,西平医院,ニシヒライイン,無床診療所,宜野湾市赤道2丁目2番2号,,26.27267843,127.77266555,(098)896-1116,,,,,,,,,,,内科;呼吸器科;消化器科;循環器科;リハビリテーション科,0,,
473243,0000000275,沖縄県,読谷村,ゆんたんざクリニック,ユンタンザクリニック,無床診療所,読谷村字都屋245番地,,26.39281909,127.72806180,(098)956-1236,,,,,,,,,,,内科;小児科;ペインクリニック内科,0,,
472051,0000000276,沖縄県,宜野湾市,サンクリニック,サンクリニック,無床診療所,宜野湾市伊佐2丁目9番地35,,26.28751842,127.75447742,(098)898-3370,,,,,,,,,,,内科;外科;整形外科;胃腸科;リハビリテーション科,0,,
472115,0000000277,沖縄県,沖縄市,なかみねニュークリニック,ナカミネニュークリニック,無床診療所,沖縄市古謝二丁目21番29号,,26.33440220,127.83382772,(098)929-1000,,,,,,,,,,,内科;消化器科,0,,
472051,0000000278,沖縄県,宜野湾市,医療法人新美会　新垣形成外科 ,アラカキケイセイゲカ,無床診療所,宜野湾市字宇地泊729番地,,26.27260245,127.72980795,(098)870-2990,,,,,,,,,,,形成外科;美容外科,0,,
473278,0000000279,沖縄県,北中城村,名城眞治クリニック ,ナシロシンジクリニック ,無床診療所,北中城村字端慶覧646番地,,26.30111005,127.79314862,(098)931-0088,,,,,,,,,,,心療内科;精神科,0,,
472115,0000000280,沖縄県,沖縄市,みはら耳鼻咽喉科,ミハラジビインコウカ,無床診療所,沖縄市美原4丁目10番2号,,26.35049211,127.82480052,(098)929-2088,,,,,,,,,,,耳鼻咽喉科,0,,
472115,0000000281,沖縄県,沖縄市,桃山クリニック,モモヤマクリニック,無床診療所,沖縄市南桃原3丁目1番1号,,26.32119958,127.78401249,(098)930-2233,,,,,,,,,,,内科;胃腸内科,0,,
473243,0000000282,沖縄県,読谷村,よみたん救護園医務室,ヨミタンキュウゴエンイムシツ,無床診療所,読谷村字都屋167番地,,26.39355507,127.72514255,(098)956-4111,,,,,,,,,,,内科,0,,
472131,0000000283,沖縄県,うるま市,医療法人徳洲会　与勝あやはしクリニック　,ヨカツアヤハシクリニック,無床診療所,うるま市与那城屋慶名467番地111,,26.32917955,127.90333697,(098)983-0055,,,,,,,,,,,内科;外科;小児科;泌尿器科;リハビリテーション科;人工透析内科,0,,
473243,0000000284,沖縄県,読谷村,医療法人徳洲会　よみたんクリニック,ヨミタンクリニック,無床診療所,読谷村字長浜1774番地,,26.41447546,127.73201079,(098)958-5775,,,,,,,,,,,内科;外科;小児科;泌尿器科,0,,
473260,0000000285,沖縄県,北谷町,医療法人徳洲会　ハンビークリニック,ハンビークリニック,無床診療所,北谷町北前1丁目21番1号,,26.30167008,127.75830697,(098)926-3000,,,,,,,,,,,内科;外科;整形外科;形成外科;リハビリテーション科,0,,
472051,0000000286,沖縄県,宜野湾市,かりゆしクリニック,カリユシクリニック,無床診療所,宜野湾市嘉数4丁目25番15,,26.26190341,127.72883354,(098)898-0555,,,,,,,,,,,内科（循環器）;小児科;皮膚科,0,,
472115,0000000287,沖縄県,沖縄市,ガキヤ眼科医院,ガキヤガンカイイン,無床診療所,沖縄市胡屋1丁目1番6号,,26.33577638,127.80071923,(098)937-9902,,,,,,,,,,,眼科,0,,
472051,0000000288,沖縄県,宜野湾市,岡こどもクリニック,オカコドモクリニック,無床診療所,宜野湾市字宇地泊772番地1,,26.27373851,127.73192994,(098)942-9255,,,,,,,,,,,小児科,0,,
472051,0000000289,沖縄県,宜野湾市,早川眼科医院,ハヤカワガンカイイン,無床診療所,宜野湾市野嵩2丁目2番2号,,26.28292502,127.77916449,(098)893-8155,,,,,,,,,,,眼科,0,,
472051,0000000290,沖縄県,宜野湾市,光クリニック,ヒカリクリニック,無床診療所,宜野湾市嘉数2丁目2番1号　広栄メディカルビル2階,,26.25512645,127.73960786,(098)898-2233,,,,,,,,,,,内科;消化器内科,0,,
473251,0000000291,沖縄県,嘉手納町,ロクト整形Ｊ２,ロクトセイケイ,無床診療所,嘉手納町字屋良1063番地1,,26.36701989,127.77308713,(098)957-6910,,,,,,,,,,,整形外科;リハビリテーション科,0,,
472115,0000000292,沖縄県,沖縄市,山里整形外科,ヤマザトセイケイゲカ,無床診療所,沖縄市山里1丁目4番15号,,26.32304407,127.79208407,(098)933-1331,,,,,,,,,,,整形外科;形成外科,0,,
473286,0000000293,沖縄県,中城村,今井内科医院,イマイナイカイイン,無床診療所,中城村字南上原620番地1　33街区5画地,,26.25091374,127.77406639,(098)988-9946,,,,,,,,,,,内科;循環器内科,0,,
473111,0000000294,沖縄県,恩納村,啓子メンタルクリニック,ケイコメンタルクリニック,無床診療所,恩納村字真栄田2219番地,,26.43091325,127.75600566,(098)989-4146,,,,,,,,,,,精神科,0,,
472115,0000000295,沖縄県,沖縄市,おくま眼科,オクマガンカ,無床診療所,沖縄市高原7丁目28番1号,,26.31972295,127.82608136,(098)982-2181,,,,,,,,,,,眼科,0,,
472131,0000000296,沖縄県,うるま市,伊波クリニック　 ,イハクリニック,無床診療所,うるま市石川伊波431番地,,26.41906015,127.82052088,(098)964-5735,,,,,,,,,,,内科;小児科;皮膚科;放射線科;ペインクリニック内科,0,,
472131,0000000297,沖縄県,うるま市,みのり内科クリニック,ミノリナイカクリニック,無床診療所,うるま市石川2408番地,,26.43415915,127.82962221,(098)965-7770,,,,,,,,,,,内科;消化器内科;人工透析内科;小児科,0,,
473146,0000000298,沖縄県,金武町,おくまクリニック,オクマクリニック,無床診療所,金武町字金武4790番1,,26.45468466,127.92045617,(098)968-5017,,,,,,,,,,,内科;小児科;外科;整形外科;リハビリテーション科,0,,
472051,0000000299,沖縄県,宜野湾市,古堅ウィメンズクリニック,フルゲンウィメンズクリニック,有床診療所,宜野湾市字大謝名165番地,,26.27127492,127.73467984,(098)890-1600,,,,,,,,,,,産婦人科;皮膚科,0,,
472051,0000000300,沖縄県,宜野湾市,まえだ眼科,マエダガンカ,無床診療所,宜野湾市嘉数2丁目7番15号,,26.25577353,127.73572204,(098)890-5331,,,,,,,,,,,眼科,0,,
472115,0000000301,沖縄県,沖縄市,なおまさクリニック,ナオマサクリニック,無床診療所,沖縄市上地2丁目12番18号,,26.33195996,127.79558358,(098)989-9229,,,,,,,,,,,心療内科;神経科;精神科,0,,
472131,0000000302,沖縄県,うるま市,東山整形外科,アガリヤマセイケイゲカ,無床診療所,うるま市石川東山2丁目30番14号,,26.43506211,127.83878256,(098)963-0333,,,,,,,,,,,整形外科;リハビリテーション科;リウマチ科,0,,
472115,0000000303,沖縄県,沖縄市,医療法人白水会　明陽クリニック,イリョウホウジンシラミズカイ　メイヨウクリニック,無床診療所,沖縄市園田1丁目4番5号,,26.33161841,127.79884169,(098)930-7700,,,,,,,,,,,内科;消化器内科;胃腸内科;老年内科;内視鏡内科,0,,
473243,0000000304,沖縄県,読谷村,美ら浜皮フ科クリニック,チュラハマヒフカクリニック,無床診療所,読谷村字古堅673番地1,,26.36904400,127.74547506,(098)957-1112,,,,,,,,,,,皮膚科,0,,
472051,0000000305,沖縄県,宜野湾市,ひでき皮フ科美容クリニック,ヒデキヒフカビヨウクリニック,無床診療所,宜野湾市志真志1丁目15番23号,,26.25810726,127.76351694,(098)896-1111,,,,,,,,,,,皮膚科;美容皮膚科;内科;小児科,0,,
472115,0000000306,沖縄県,沖縄市,特別養護老人ホーム森城医務室,トクベツヨウゴロウジンホームモリシロイムシツ,無床診療所,沖縄市諸見里3丁目41番30号,,26.32862406,127.79119785,(098)989-3952,,,,,,,,,,,内科,0,,
472115,0000000307,沖縄県,沖縄市,琉和の森医務室,ルカズノモリイムシツ,無床診療所,沖縄市美里6丁目25番38号,,26.35135840,127.80825169,(098)989-9866,,,,,,,,,,,皮膚科;内科,0,,
473243,0000000308,沖縄県,読谷村,特別養護老人ホームちゅらゆんたんざ医務室,チュラユンタンザイムシツ,無床診療所,読谷村字座喜味2742番地3,,26.40519071,127.75766475,(098)989-6369,,,,,,,,,,,内科,0,,
472051,0000000309,沖縄県,宜野湾市,特別養護老人ホーム白浜の里愛誠園　,シラハマノサトアイセイエン,無床診療所,宜野湾市字宇地泊857番地,,26.27209423,127.73226612,(098)943-1199,,,,,,,,,,,内科,0,,
472131,0000000310,沖縄県,うるま市,たまき心療内科クリニック,タマキシンリョウナイカクリニック,無床診療所,うるま市字赤道260番地6,,26.35596943,127.83034159,(098)989-3566,,,,,,,,,,,心療内科;精神科,0,,
472131,0000000311,沖縄県,うるま市,おおみね眼科,オオミネガンカ,無床診療所,うるま市安慶名3丁目39番3号,,26.37154325,127.85196138,(098)974-3733,,,,,,,,,,,眼科,0,,
472115,0000000312,沖縄県,沖縄市,医療法人ヒフミ　桑江皮膚科医院,クワエヒフカイイン,無床診療所,沖縄市上地1丁目13番3号,,26.33279604,127.79793062,(098)933-2056,,,,,,,,,,,皮膚科,0,,
472131,0000000313,沖縄県,うるま市,いわした内科クリニック,イワシタナイカクリニック,無床診療所,うるま市安慶名1丁目2番11号,,26.37464853,127.85420832,(098)982-6666,,,,,,,,,,,内科;胃腸内科;糖尿病内科;循環器内科;呼吸器内科,0,,
472051,0000000314,沖縄県,宜野湾市,じのん整形外科クリニック,ジノンセイケイゲカクリニック,無床診療所,宜野湾市字宇地泊820番地,,26.27229972,127.73078567,(098)943-1115,,,,,,,,,,,整形外科;リハビリテーション科;リウマチ科,0,,
472051,0000000315,沖縄県,宜野湾市,しらはまクリニック,シラハマクリニック,無床診療所,宜野湾市伊佐3丁目9番19号,,26.29070705,127.75517720,(098)898-1671,,,,,,,,,,,皮膚科,0,,
472115,0000000316,沖縄県,沖縄市,医療法人芳醇の会　はた内科クリニック,ハタナイカクリニック,無床診療所,沖縄市美原3丁目22番8号,,26.35124469,127.81746771,(098)987-5201,,,,,,,,,,,内科,0,,
473260,0000000317,沖縄県,北谷町,あゆみ眼科,アユミガンカ,無床診療所,北谷町字桑江110番地,,26.31831869,127.76110038,(098)926-0660,,,,,,,,,,,眼科;小児眼科,0,,
473260,0000000318,沖縄県,北谷町,まちだクリニック,マチダクリニック,無床診療所,北谷町字上勢頭556番地3,,26.32879310,127.77588778,(098)921-7300,,,,,,,,,,,内視鏡内科;外科,0,,
473260,0000000319,沖縄県,北谷町,しんはま耳鼻科・形成外科・しんはま皮ふ科,シンハマジビカケイセイゲカシンハマヒフカ,無床診療所,北谷町伊平2丁目2番10号,,26.32732905,127.76421641,(098)936-4035,,,,,,,,,,,耳鼻咽喉科;形成外科;皮膚科,0,,
472115,0000000320,沖縄県,沖縄市,高原こころクリニック,タカハラココロクリニック,無床診療所,沖縄市高原6丁目4番9号,,26.32045902,127.82770341,(098)989-4002,,,,,,,,,,,心療内科;精神科,0,,
472051,0000000321,沖縄県,宜野湾市,さむら脳神経クリニック,サムラノウシンケイクリニック,無床診療所,宜野湾市嘉数2丁目2番1号　広栄メディカルビル1階,,26.25512645,127.73960786,(098)897-1177,,,,,,,,,,,脳神経外科;内科;小児科;整形外科;精神科;心療内科,0,,
472131,0000000322,沖縄県,うるま市,すながわ内科クリニック,スナガワナイカクリニック,無床診療所,うるま市字江洲600番地5,,26.34835911,127.83460815,(098)975-2525,,,,,,,,,,,内科;糖尿病内科;腎臓内科;呼吸器内科;循環器内科;人工透析内科;リハビリテーション科,0,,
472131,0000000323,沖縄県,うるま市,とくだ心療内科,トクダシンリョウナイカ,無床診療所,うるま市字江洲547番地2,,26.34968392,127.83042510,(098)963-8756,,,,,,,,,,,心療内科;精神科,0,,
473278,0000000324,沖縄県,北中城村,ファミリークリニックきたなかぐすく,ファミリークリニックキタナカグスク,無床診療所,北中城村字喜舎場360番地1,,26.30012127,127.79370139,(098)935-5517,,,,,,,,,,,内科;小児科;リハビリテーション科;整形外科;皮膚科;心療内科,0,,
473138,0000000325,沖縄県,宜野座村,特別養護老人ホームでいご園医務室,デイゴエンイムシツ,無床診療所,宜野座村字惣慶1295番地,,26.47522010,127.97098114,(098)968-8363,,,,,,,,,,,内科;外科;精神科,0,,
472115,0000000326,沖縄県,沖縄市,ヘシキ形成外科クリニック,ヘシキケイセイゲカクリニック,無床診療所,沖縄市泡瀬4丁目40番1号,,26.31493455,127.82703690,(098)930-5454,,,,,,,,,,,形成外科;美容外科;美容皮フ科,0,,
472051,0000000327,沖縄県,宜野湾市,特別養護老人ホーム福寿園医務室,トクベツヨウゴロウジンホームフクジュエンイムシツ,無床診療所,宜野湾市赤道2丁目7番2号,,26.27122575,127.77220177,(098)892-1333,,,,,,,,,,,内科,0,,
473286,0000000328,沖縄県,中城村,みなみクリニック,ミナミクリニック,無床診療所,中城村字南上原1072番地,,26.24471142,127.76836153,(098)943-2321,,,,,,,,,,,内科;呼吸器内科;外科,0,,
472115,0000000329,沖縄県,沖縄市,特別養護老人ホーム知花の里医務室,チバナノサトイムシツ,無床診療所,沖縄市知花5丁目23番16号,,26.36406839,127.81189002,(098)923-5020,,,,,,,,,,,内科,0,,
472115,0000000330,沖縄県,沖縄市,登川クリニック,ノボリカワクリニック,無床診療所,沖縄市登川2丁目24番2号,,26.36637942,127.82379461,(098)937-0123,,,,,,,,,,,内科;糖尿病内科;循環器内科;腎臓内科;人工透析内科,0,,
473286,0000000331,沖縄県,中城村,わくさん内科,ワクサンナイカ,無床診療所,中城村字屋宜597番地13,,26.27119585,127.79155563,(098)895-1900,,,,,,,,,,,内科;消化器内科;呼吸器内科,0,,
473146,0000000332,沖縄県,金武町,ＫＩＮスポーツ・整形クリニック,スポーツセイケイクリニック,無床診療所,金武町字金武10912番地,,26.45838491,127.94491226,(098)968-7700,,,,,,,,,,,整形外科;リハビリテーション科,0,,
473243,0000000333,沖縄県,読谷村,古堅南クリニック,フルゲンミナミクリニック,無床診療所,読谷村字古堅923番2,,26.37096327,127.74570556,(098)921-5677,,,,,,,,,,,泌尿器科;内科,0,,
472051,0000000334,沖縄県,宜野湾市,岩木クリニック,イワキクリニック,無床診療所,宜野湾市真栄原1丁目15番27号,,26.25657091,127.74583508,,,,,,,,,,,,眼科;内科,0,,
473111,0000000335,沖縄県,恩納村,OISTクリニック,クリニック,無床診療所,恩納村字谷茶1919番地1　センター棟B234,,26.46471489,127.82999883,(098)982-3446,,,,,,,,,,,精神科;心療内科,0,,
472115,0000000336,沖縄県,沖縄市,女性内科　オレンジ,ジョセイナイカオレンジ,無床診療所,沖縄市古謝津嘉山町30番22号　武ハウス1号室,,26.34391225,127.82932809,(098)921-3636,,,,,,,,,,,内科,0,,
472115,0000000337,沖縄県,沖縄市,あさとこどもクリニック　,アサトコドモクリニック,無床診療所,沖縄市古謝2丁目19番6号,,26.33329402,127.83576088,(098)921-2121,,,,,,,,,,,小児科,0,,
472131,0000000338,沖縄県,うるま市,なかよし眼科,ナカヨシガンカ,無床診療所,うるま市字宮里763番地1,,26.35173101,127.83469414,(098)974-7111,,,,,,,,,,,眼科,0,,
472115,0000000339,沖縄県,沖縄市,なかむら内科おなかクリニック,ナカムラナイカオナカクリニック,無床診療所,沖縄市比屋根6丁目27番17号　1階,,26.31815342,127.81487127,(098)930-3377,,,,,,,,,,,内科;胃腸内科,0,,
472115,0000000340,沖縄県,沖縄市,いくみ皮ふ科クリニック,イクミヒフカクリニック,無床診療所,沖縄市比屋根6丁目27番17号　2階,,26.31815342,127.81487127,(098)930-3322,,,,,,,,,,,皮膚科;美容皮膚科,0,,
473260,0000000341,沖縄県,北谷町,とうま整形外科クリニック,トウマセイケイゲカクリニック,無床診療所,北谷町桑江1丁目5番39号　2階,,26.32439338,127.77071886,(098)926-6677,,,,,,,,,,,整形外科;リハビリテーション科,0,,
473146,0000000342,沖縄県,金武町,ＫＩＮ放射線治療・健診クリニック,ホウシャセンチリョウケンシンクリニック,無床診療所,金武町字金武10897番地,,26.46027639,127.94483994,(098)968-4664,,,,,,,,,,,内科;眼科;脳神経外科;放射線科;消化器内科;外科;乳腺外科,0,,
472131,0000000343,沖縄県,うるま市,大伴医院,オオトモイイン,無床診療所,うるま市勝連南風原371番地4,,26.34173012,127.87154285,(098)978-5655,,,,,,,,,,,内科;産婦人科;小児科,0,,
472051,0000000344,沖縄県,宜野湾市,クリニック・シンフォニア,クリニックシンフォニア,無床診療所,宜野湾市上原1丁目18番13号　ハーモニーマンション1階,,26.27705041,127.77631502,(080)6493-3289,,,,,,,,,,,精神科;内科,0,,
473260,0000000345,沖縄県,北谷町,こばし内科クリニック,コバシナイカクリニック,無床診療所,北谷町桑江1丁目5番39号　1階,,26.32439338,127.77071886,(098)936-1111,,,,,,,,,,,内科;泌尿器科;皮膚科,0,,
472131,0000000346,沖縄県,うるま市,カヨウ眼科,カヨウガンカ,無床診療所,うるま市石川白浜2丁目13番12号,,26.42267942,127.82514256,(098)965-2020,,,,,,,,,,,眼科,0,,
472131,0000000347,沖縄県,うるま市,うるまこころのクリニック,ウルマココロノクリニック,無床診療所,うるま市字喜屋武546番地1,,26.36016367,127.84328193,(098)923-9999,,,,,,,,,,,精神科;心療内科,0,,
473286,0000000348,沖縄県,中城村,海風クリニック,カイフウクリニック,無床診療所,中城村字南上原1005番地2,,26.24529192,127.76864760,(098)870-3322,,,,,,,,,,,内科;消化器;内視鏡内科;外科;大腸;肛門外科,0,,
473243,0000000349,沖縄県,読谷村,かなさん内科クリニック,カナサンナイカクリニック,無床診療所,読谷村字古堅675番地,,26.36877180,127.74508066,(098)957-1933,,,,,,,,,,,内科;神経内科;リハビリテーション科,0,,
472115,0000000350,沖縄県,沖縄市,ゆいクリニック,ユイクリニック,有床診療所,沖縄市字登川2444番地3,,26.37047620,127.81902265,(098)989-3801,,,,,,,,,,,産婦人科;小児科,0,,
473243,0000000351,沖縄県,読谷村,地域密着型介護老人福祉施設紅華の森医務室,チイキミッチャクガタカイゴロウジンフクシシセツコウカノモリイムシツ,無床診療所,読谷村字座喜味1910番地2,,26.39363567,127.72725071,(098)987-8151,,,,,,,,,,,内科,0,,
472051,0000000352,沖縄県,宜野湾市,ふくやま整形外科,フクヤマセイケイゲカ,無床診療所,宜野湾市長田1丁目28番1号,,26.26246516,127.76206966,(098)894-1234,,,,,,,,,,,整形外科;リハビリテーション科,0,,
472131,0000000353,沖縄県,うるま市,しらはま内科,シラハマナイカ,無床診療所,うるま市石川白浜1丁目2番3号,,26.42749297,127.82741992,(098)965-0800,,,,,,,,,,,内科;呼吸器内科,0,,
472131,0000000354,沖縄県,うるま市,しろま内科クリニック,シロマナイカクリニック,無床診療所,うるま市字喜屋武546番地1,,26.36016367,127.84328193,(098)973-2500,,,,,,,,,,,内科;呼吸器内科,0,,
472115,0000000355,沖縄県,沖縄市,医療法人徳洲会　ソフィアクリニック,ソフィアクリニック,無床診療所,沖縄市安慶田3丁目11番30号　1階,,26.33024663,127.81267956,(098)923-2110,,,,,,,,,,,小児科;内科;外科,0,,
473243,0000000356,沖縄県,読谷村,医療法人高徳会　読谷松永眼科,ヨミタンマツナガガンカ,有床診療所,読谷村字波平256番地1,,26.40583734,127.73006678,(098)958-7271,,,,,,,,,,,眼科,0,,
472051,0000000357,沖縄県,宜野湾市,愛誠園クリニック,アイセイエンクリニック,無床診療所,宜野湾市伊佐3丁目26番8号,,26.29296527,127.75816297,(098)897-8231,,,,,,,,,,,内科,0,,
472051,0000000358,沖縄県,宜野湾市,ねたて内科クリニック,ネタテナイカクリニック,無床診療所,宜野湾市嘉数1丁目22番5号,,26.25892886,127.73773844,(098)890-1500,,,,,,,,,,,内科;脳神経内科;リハビリテーション科,0,,
472051,0000000359,沖縄県,宜野湾市,特別養護老人ホーム愛誠園（医務室）,アイセイエンイムシツ,無床診療所,宜野湾市伊佐3丁目26番8号,,26.29296527,127.75816297,(098)897-8231,,,,,,,,,,,内科,0,,
472115,0000000360,沖縄県,沖縄市,あきら整形外科クリニック,アキラセイケイゲカクリニック,無床診療所,沖縄市古謝2丁目19番5号,,26.33364120,127.83539980,(098)921-3330,,,,,,,,,,,整形外科;リハビリテーション科,0,,
472131,0000000361,沖縄県,うるま市,石川医院,イシカワイイン,無床診療所,うるま市石川2丁目21番5号,,26.42663742,127.82536180,(098)964-3049,,,,,,,,,,,内科;小児科,0,,
473286,0000000362,沖縄県,中城村,なかぐすく皮フ科クリニック,ナカグスクヒフカクリニック,無床診療所,中城村字南上原710番地　41街区12各画地,,26.24888608,127.77129725,(098)917-4509,,,,,,,,,,,皮膚科,0,,
473286,0000000363,沖縄県,中城村,わかば眼科,ワカバガンカ,無床診療所,中城村字南上原710番地　41街区12各画地,,26.24888608,127.77129725,(098)894-8102,,,,,,,,,,,皮膚科,0,,
472115,0000000364,沖縄県,沖縄市,おおやま泌尿器科クリニック,オオヤマヒニョウキカクリニック,無床診療所,沖縄市山里1丁目1番2号　304号室,,26.32383288,127.79235903,(098)931-1577,,,,,,,,,,,泌尿器科,0,,
472115,0000000365,沖縄県,沖縄市,しおひら内科・腎クリニック,シオヒラナイカジンクリニック,無床診療所,沖縄市山里1丁目1番2号　303号室,,26.32383288,127.79235903,(098)930-2112,,,,,,,,,,,内科;腎臓内科,0,,
472115,0000000366,沖縄県,沖縄市,三愛眼科,サンアイガンカ,無床診療所,沖縄市山内1丁目3番28号,,26.32640750,127.78708155,(098)933-3322,,,,,,,,,,,眼科,0,,
473251,0000000367,沖縄県,嘉手納町,野村ハートクリニック,ノムラハートクリニック,無床診療所,嘉手納町字屋良1063番地1,,26.36701989,127.77308713,(098)982-8810,,,,,,,,,,,内科;循環器内科;呼吸器内科;消化器内科;皮膚科;小児科,0,,
472051,0000000368,沖縄県,宜野湾市,のだけ整形外科,ノダケセイケイゲカ,無床診療所,宜野湾市野嵩2丁目1番6号　2、3階,,26.28222505,127.77813128,(098)917-1870,,,,,,,,,,,精神科;神経科;心療内科;内科,0,,
472115,0000000369,沖縄県,沖縄市,ゆうクリニック,ユウクリニック,無床診療所,沖縄市宮里2丁目25番10号　オアシスマンションAYA101,,26.34239287,127.82348410,(098)989-0748,,,,,,,,,,,精神科;心療内科,0,,
472131,0000000370,沖縄県,うるま市,いしかわ脳とこころの診療所,イシカワノウトココロノシンリョウショ,無床診療所,うるま市石川2丁目1番7号　石川中央団地店舗103号,,26.42694298,127.82615616,(098)965-5777,,,,,,,,,,,精神科;心療内科,0,,
473286,0000000371,沖縄県,中城村,南上原こころの発達クリニック,ミナミウエバルココロノハッタツクリニック,無床診療所,中城村字南上原732番地　South hill.f 1階 105号室,,26.24961379,127.77162498,(098)917-6380,,,,,,,,,,,児童精神科;心療内科;精神科,0,,
473243,0000000372,沖縄県,読谷村,ながはまメンタルクリニック,ナガハマメンタルクリニック,無床診療所,読谷村字長浜1275番地1　1階,,26.41729476,127.73729361,(098)923-1890,,,,,,,,,,,心療内科;精神科;内科,0,,
472131,0000000373,沖縄県,うるま市,江洲整形外科クリニック,エスセイケイゲカクリニック,無床診療所,うるま市字江洲598番地4　2階,,26.34840909,127.83330548,(098)979-1515,,,,,,,,,,,整形外科;リハビリテーション科,0,,
472131,0000000374,沖縄県,うるま市,医療法人うるまの杜　カヨウ眼科,カヨウガンカ,無床診療所,うるま市石川白浜2丁目13番12号,,26.42267942,127.82514256,(098)965-2020,,,,,,,,,,,眼科,0,,
473111,0000000375,沖縄県,恩納村,西大條診療所,ニシオオエダシンリョウショ,無床診療所,恩納村字谷茶565番地1,,26.46902295,127.83319289,(098)966-1100,,,,,,,,,,,内科;放射線科,0,,
473260,0000000376,沖縄県,北谷町,もりなが内科・小児科クリニック,モリナガナイカショウニカクリニック,無床診療所,北谷町美浜2丁目7番7号,,26.31962126,127.75846442,(098)926-1234,,,,,,,,,,,小児科;内科;皮膚科,0,,
473278,0000000377,沖縄県,北中城村,愛の村クリニック,アイノムラクリニック,無床診療所,北中城村字島袋1320番地　1階医務室,,26.32336941,127.80730235,(098)933-1166,,,,,,,,,,,内科　,0,,
472115,0000000378,沖縄県,沖縄市,諸見眼科,モロミガンカ,無床診療所,沖縄市園田3丁目8番27号,,26.32712149,127.79394493,(098)933-2255,,,,,,,,,,,眼科,0,,
472131,0000000379,沖縄県,うるま市,ひまわりキッズクリニック,ヒマワリキッズクリニック,無床診療所,うるま市字赤道174番地12（101号室）,,26.35374187,127.82997224,(098)974-2982,,,,,,,,,,,小児科,0,,
472115,0000000380,沖縄県,沖縄市,おくま整形外科,オクマセイケイゲカ,無床診療所,沖縄市美里1丁目26番33号,,26.34168172,127.81783731,(098)938-3478,,,,,,,,,,,整形外科;リハビリテーション科,0,,
472131,0000000381,沖縄県,うるま市,和花クリニック,ワカクリニック,無床診療所,うるま市字江洲135番地5,,26.34430669,127.83170013,(098)923-5818,,,,,,,,,,,内科,0,,
473286,0000000382,沖縄県,中城村,やすらぎクリニック,ヤスラギクリニック,無床診療所,中城村字南上原750番地,,26.25047761,127.77211102,(098)895-2580,,,,,,,,,,,心療内科;精神科;神経科,0,,
473138,0000000383,沖縄県,宜野座村,医療法人ヒフミ　皮膚科往診専門クリニックぎのざ桑の実,ヒフカオウシンセンモンクリニックギノザクワノミ,無床診療所,宜野座村字惣慶1894番地4,,26.48131391,127.96885882,(098)983-2515,,,,,,,,,,,皮膚科,0,,
472131,0000000384,沖縄県,うるま市,あかみち整形外科リハビリクリニック,アカミチセイケイゲカリハビリクリニック,無床診療所,うるま市字赤道630番地,,26.36220769,127.82889986,(098)987-8466,,,,,,,,,,,整形外科;リハビリテーション科,0,,
473286,0000000385,沖縄県,中城村,中部病理診断科,チュウブビョウリシンダンカ,無床診療所,中城村字新垣545番地1,,26.27171209,127.78081767,(098)895-1620,,,,,,,,,,,病理診断科,0,,
472131,0000000386,沖縄県,うるま市,いずみクリニック,イズミクリニック,無床診療所,うるま市字高江洲978番1,,26.35711665,127.83768258,(098)979-0562,,,,,,,,,,,精神科;心療内科;内科,0,,
472131,0000000387,沖縄県,うるま市,かつれん耳鼻科クリニック,カツレンジビカクリニック,無床診療所,うるま市勝連平安名1655番1-1,,26.32457957,127.88994345,(098)989-6381,,,,,,,,,,,耳鼻咽喉科;頭頸部外科,0,,
472115,0000000388,沖縄県,沖縄市,アワセ皮フ科クリニック,アワセヒフカクリニック,無床診療所,沖縄市泡瀬4丁目1番2号　1階,,26.32107293,127.83149747,(098)929-1241,,,,,,,,,,,皮膚科,0,,
473243,0000000389,沖縄県,読谷村,たいら眼科,タイラガンカ,無床診療所,読谷村字座喜味1917番地,,26.39331070,127.72736183,(098)956-0055,,,,,,,,,,,眼科,0,,
472131,0000000390,沖縄県,うるま市,さくらビューティークリニック　沖縄院,サクラビューティークリニックオキナワイン,無床診療所,うるま市字前原幸崎原303番地　イオン具志川店1階,,26.34213503,127.84723735,(098)979-3878,,,,,,,,,,,美容皮膚科,0,,
472115,0000000391,沖縄県,沖縄市,じねんこどもクリニック,ジネンコドモクリニック,無床診療所,沖縄市山里1丁目1番2号　パーチェ山里301,,26.32383288,127.79235903,(098)989-5601,,,,,,,,,,,小児科;内科,0,,
472131,0000000392,沖縄県,うるま市,伊禮内科クリニック,イレイナイカクリニック,無床診療所,うるま市与那城西原763番地1,,26.32859014,127.88549951,(098)978-7332,,,,,,,,,,,内科;消化器内科,0,,
473243,0000000393,沖縄県,読谷村,読谷紅いもクリニック,ヨミタンベニイモクリニック,無床診療所,読谷村字上地176番地2,,26.40414318,127.73599137,(098)958-7255,,,,,,,,,,,脳神経外科;内科;漢方内科,0,,
473260,0000000394,沖縄県,北谷町,ウェルライフクリニック,ウェルライフクリニック,無床診療所,北谷町伊平2丁目15番22号　,,26.32732905,127.76421641,(098)989-9211,,,,,,,,,,,内科,0,,
472131,0000000395,沖縄県,うるま市,琉球こころのクリニック,リュウキュウココロノクリニック,無床診療所,うるま市安慶名3丁目24番5号,,26.37248483,127.85236687,(098)988-5031,,,,,,,,,,,心療内科;精神科,0,,
472115,0000000396,沖縄県,沖縄市,マリン在宅クリニック,マリンザイタククリニック,無床診療所,沖縄市泡瀬2丁目3番17号　BLUESKY　AWASE　Ａ-2号,,26.31966754,127.83269460,(098)989-9114,,,,,,,,,,,内科;外科;皮膚科,0,,
472115,0000000397,沖縄県,沖縄市,まちだ泌尿器科クリニック　,マチダヒニョウキカクリニック,無床診療所,沖縄市美里仲原町28番18号,,26.34365667,127.82622277,(098)921-4145,,,,,,,,,,,泌尿器科,0,,
472115,0000000398,沖縄県,沖縄市,中部ゆくいクリニック,チュブユクイクリニック,無床診療所,沖縄市胡屋6丁目8番6号,,26.32648578,127.80780224,(098)989-8873,,,,,,,,,,,内科,0,,
472115,0000000399,沖縄県,沖縄市,敬和医院　,ケイワイイン,有床診療所,沖縄市字登川566番地,,26.36769045,127.82635548,(098)923-1260,,,,,,,,,,,内科,0,,
473243,0000000400,沖縄県,読谷村,読谷平和こどもクリニック,ヨミタンヘイワコドモクリニック,無床診療所,読谷村字上地34番地,,26.40345159,127.73696910,(098)958-5515,,,,,,,,,,,小児科,0,,
472131,0000000401,沖縄県,うるま市,さとう皮フ科,サトウヒフカ,無床診療所,うるま市字宮里262番地18 　,,26.35521680,127.83498013,(098)989-8628,,,,,,,,,,,皮膚科,0,,
473243,0000000402,沖縄県,読谷村,山貴整形クリニック,ヤマキセイケイクリニック,無床診療所,読谷村字上地34番地,,26.40345159,127.73696910,(098)958-5280,,,,,,,,,,,整形外科;リハビリテーション科,0,,
473286,0000000403,沖縄県,中城村,ひが皮膚科クリニック,ヒガヒフカクリニック,無床診療所,中城村字久場12番地8,,26.28457597,127.81512510,(098)896-7676,,,,,,,,,,,皮膚科;アレルギー科;美容皮膚科,0,,
472051,0000000404,沖縄県,宜野湾市,まみ皮フ科クリニック,マミヒフカクリニック,無床診療所,宜野湾市嘉数2丁目2番1号　広栄メディカルビル2階,,26.25512645,127.73960786,(098)898-4112,,,,,,,,,,,皮膚科;内科;小児科,0,,
472051,0000000405,沖縄県,宜野湾市,ぎのわんメンタルクリニック,ギノワンメンタルクリニック,無床診療所,宜野湾市大謝名1丁目17番31号,,26.26700868,127.73657710,(098)890-7733,,,,,,,,,,,心療内科;精神科,0,,
472051,0000000406,沖縄県,宜野湾市,医療法人一誠会　おかえり在宅クリニック,オカエリザイタククリニック,無床診療所,宜野湾市真栄原1丁目11番10号　1階101,,26.25907063,127.74313799,(098)975-7822,,,,,,,,,,,内科;麻酔科(東賢志);精神科,0,,
472131,0000000407,沖縄県,うるま市,あずさクリニック,アズサクリニック,無床診療所,うるま市字赤道630番地,,26.36220769,127.82889986,(098)975-0055,,,,,,,,,,,内科;糖尿病内科,0,,
473243,0000000408,沖縄県,読谷村,読谷ゆんたくクリニック,ヨミタンユンタククリニック,無床診療所,読谷村字楚辺2410番地1,,26.38733922,127.73540306,(098)923-1592,,,,,,,,,,,内科;漢方内科;心療内科,0,,
473278,0000000409,沖縄県,北中城村,シーサークリニック,シーサークリニック,無床診療所,北中城村字喜舎場1478番地　EMウェルネスリゾート　スパ棟1階,,26.30643742,127.79548435,(080)5935-1677,,,,,,,,,,,ペインクリニック;整形外科;漢方内科,0,,
473260,0000000410,沖縄県,北谷町,絆愛こころクリニック,ハンナココロクリニック,無床診療所,北谷町字桑江688番地2,,26.32439338,127.77071886,(098)936-8811,,,,,,,,,,,精神科;心療内科;内科,0,,
472131,0000000411,沖縄県,うるま市,発達クリニック Can,ハッタツクリニック,無床診療所,うるま市字喜屋武384番地3-2　きゃんメディカルプラザ4B,,26.36024429,127.84826754,(098)973-7711,,,,,,,,,,,小児科;精神科;児童精神科;心療内科;リハビリテーション科,0,,
472131,0000000412,沖縄県,うるま市,いしはらクリニック ,イシハラクリニック,無床診療所,うるま市字喜屋武384番地3-2　きゃんメディカルプラザ1Ａ,,26.36024429,127.84826754,(098)973-0088,,,,,,,,,,,内科;循環器内科;脳神経外科;外科;放射線科,0,,
473243,0000000413,沖縄県,読谷村,当山歯科医院 ,トウヤマシカイイン,無床診療所,読谷村字都屋167番地3,,26.39369952,127.72631190,(098)956-0193,,,,,,,,,,,歯科,0,,
473260,0000000414,沖縄県,北谷町,ちば歯科医院,チバシカイイン,無床診療所,北谷町字上勢頭820番地1,,26.32713475,127.76927718,(098)936-2221,,,,,,,,,,,歯科,0,,
472131,0000000415,沖縄県,うるま市,のは歯科クリニック,ノハシカクリニック,無床診療所,うるま市石川白浜1丁目2番3号,,26.42749297,127.82741992,(098)965-1862,,,,,,,,,,,歯科,0,,
472115,0000000416,沖縄県,沖縄市,比嘉デンタルクリニック,ヒガデンタルクリニック,無床診療所,沖縄市胡屋4丁目6番11号,,26.33256280,127.80071097,(098)933-6800,,,,,,,,,,,歯科,0,,
472115,0000000417,沖縄県,沖縄市,中の町ホワイト歯科医院,ナカノマチホワイトシカイイン,無床診療所,沖縄市上地2丁目9番1号　2階,,26.33176557,127.79727235,(098)933-6874,,,,,,,,,,,歯科,0,,
472051,0000000418,沖縄県,宜野湾市,あらかき歯科クリニック,アラカキシカクリニック,無床診療所,宜野湾市野嵩2丁目34番9号,,26.28749962,127.77844768,(098)893-3883,,,,,,,,,,,歯科;小児歯科;矯正歯科,0,,
472051,0000000419,沖縄県,宜野湾市,仲尾歯科医院,ナカオシカイイン,無床診療所,宜野湾市真栄原1丁目10番5号,,26.25975391,127.74374902,(098)898-6771,,,,,,,,,,,歯科;小児歯科;矯正歯科,0,,
473260,0000000420,沖縄県,北谷町,アイ歯科医院,アイシカイイン,無床診療所,北谷町字桑江620番地10,,26.32144367,127.77156336,(098)936-5506,,,,,,,,,,,歯科;小児歯科;矯正歯科,0,,
472115,0000000421,沖縄県,沖縄市,こうち歯科医院,コウチシカイイン,無床診療所,沖縄市住吉1丁目2番26号　住吉ビル2階,,26.33828748,127.81105732,(098)939-3454,,,,,,,,,,,歯科;小児歯科;矯正歯科,0,,
472115,0000000422,沖縄県,沖縄市,おおにし歯科医院,オオニシシカイイン,無床診療所,沖縄市山内2丁目7番19号,,26.32100239,127.78437914,(098)933-6480,,,,,,,,,,,歯科,0,,
473243,0000000423,沖縄県,読谷村,グリーン歯科医院,グリーンシカイイン,無床診療所,読谷村字喜名477番地1,,26.39924128,127.75715388,(098)958-0932,,,,,,,,,,,歯科;小児歯科;口腔外科,0,,
472115,0000000424,沖縄県,沖縄市,みやくに歯科,ミヤクニシカ,無床診療所,沖縄市照屋2丁目22番27号,,26.33385743,127.81527096,(098)938-0016,,,,,,,,,,,歯科;小児歯科,0,,
472131,0000000425,沖縄県,うるま市,スマイル歯科医院,スマイルシカイイン,無床診療所,うるま市字高江洲1080番地1　2階,,26.35784440,127.84057949,(098)974-3311,,,,,,,,,,,歯科;小児歯科　,0,,
473243,0000000426,沖縄県,読谷村,読谷歯科医院,ヨミタンシカイイン,無床診療所,読谷村字高志保1315番地1,,26.40814550,127.73206654,(098)958-1260,,,,,,,,,,,歯科;小児歯科,0,,
472131,0000000427,沖縄県,うるま市,藏當歯科医院,クラトウシカイイン,無床診療所,うるま市勝連平安名1498番地1,,26.32247708,127.89254871,(098)978-7528,,,,,,,,,,,歯科;小児歯科;矯正歯科,0,,
472115,0000000428,沖縄県,沖縄市,ともよせ歯科,トモヨセシカ,無床診療所,沖縄市松本1丁目4番9号,,26.35679688,127.81324010,(098)939-6480,,,,,,,,,,,歯科,0,,
472131,0000000429,沖縄県,うるま市,パ－ク歯科,パークシカ,無床診療所,うるま市みどり町1丁目1番6号,,26.37915367,127.85653023,(098)974-3663,,,,,,,,,,,歯科　,0,,
472115,0000000430,沖縄県,沖縄市,あさと歯科クリニック,アサトシカクリニック,無床診療所,沖縄市高原1丁目11番9号　名嘉真マンション1階,,26.32747749,127.81415727,(098)939-0648,,,,,,,,,,,歯科;小児歯科,0,,
472131,0000000431,沖縄県,うるま市,石川歯科医院,イシカワシカイイン,無床診療所,うるま市石川2丁目21番5号,,26.42663742,127.82536180,(098)964-5958,,,,,,,,,,,歯科,0,,
472131,0000000432,沖縄県,うるま市,しおみ歯科医院,シオミシカイイン,無床診療所,うるま市字与那城122番地1,,26.32597662,127.88868527,(098)978-7804,,,,,,,,,,,歯科;小児歯科,0,,
472115,0000000433,沖縄県,沖縄市,しま歯科クリニック,シマシカクリニック,無床診療所,沖縄市山内4丁目9番6号,,26.32942651,127.78100686,(098)933-7811,,,,,,,,,,,歯科,0,,
473146,0000000434,沖縄県,金武町,ピッコロ歯科医院,ピッコロシカイイン,無床診療所,金武町字伊芸85番地1,,26.45602256,127.87897892,(098)968-5000,,,,,,,,,,,歯科;口腔外科,0,,
473251,0000000435,沖縄県,嘉手納町,みずがま歯科,ミズガマシカ,無床診療所,嘉手納町字水釜373番地255,,26.35795333,127.74259501,(098)957-3190,,,,,,,,,,,歯科;小児歯科,0,,
473260,0000000436,沖縄県,北谷町,まつしま歯科医院,マツシマシカイイン,無床診療所,北谷町美浜1丁目1番10号,,26.31027777,127.76232845,(098)936-0648,,,,,,,,,,,歯科;小児歯科;矯正歯科;歯科口腔外科,0,,
472115,0000000437,沖縄県,沖縄市,諸見歯科医院,モロミシカイイン,無床診療所,沖縄市諸見里3丁目47番26号,,26.32764353,127.78824809,(098)932-7790,,,,,,,,,,,歯科,0,,
472131,0000000438,沖縄県,うるま市,屋慶名歯科医院,ヤケナシカイイン,無床診療所,うるま市与那城屋慶名1103番地,,26.32311086,127.90821722,(098)978-6289,,,,,,,,,,,歯科,0,,
472051,0000000439,沖縄県,宜野湾市,ラッキーデンタ・ランド歯科クリニック,ラッキーデンタランドシカクリニック,無床診療所,宜野湾市愛知1丁目5番15号　愛知ファッションビル2階,,26.26893140,127.76779391,(098)892-8148,,,,,,,,,,,歯科,0,,
472115,0000000440,沖縄県,沖縄市,医療法人福木会　カムカム歯科医院,カムカムシカイイン,無床診療所,沖縄市東2丁目25番5号,,26.34583700,127.82546447,(098)934-6480,,,,,,,,,,,歯科;小児歯科;矯正歯科,0,,
472051,0000000441,沖縄県,宜野湾市,なかむら歯科医院,ナカムラシカイイン,無床診療所,宜野湾市上原1丁目6番5号　,,26.27786984,127.77781485,(098)892-0990,,,,,,,,,,,歯科;小児歯科,0,,
472131,0000000442,沖縄県,うるま市,ファミリー歯科クリニック,ファミリーシカクリニック,無床診療所,うるま市みどり町5丁目3番11号,,26.37621225,127.85370833,(098)972-4141,,,,,,,,,,,歯科;小児歯科;矯正歯科,0,,
472051,0000000443,沖縄県,宜野湾市,もりや歯科医院,モリヤシカイイン,無床診療所,宜野湾市志真志1丁目6番5号　朝孝ビル1階,,26.25826011,127.76728609,(098)893-2838,,,,,,,,,,,歯科,0,,
472115,0000000444,沖縄県,沖縄市,なかむら歯科,ナカムラシカ,無床診療所,沖縄市室川2丁目33番20号,,26.33164640,127.80859374,(098)934-2993,,,,,,,,,,,歯科;小児歯科,0,,
472115,0000000445,沖縄県,沖縄市,とけし歯科クリニック,トケシシカクリニック,無床診療所,沖縄市美原2丁目18番1号　1階,,26.34529253,127.82006487,(098)939-9858,,,,,,,,,,,歯科,0,,
472131,0000000446,沖縄県,うるま市,与勝ホワイト歯科,ヨカツホワイトシカ,無床診療所,うるま市勝連南風原4025番地1,,26.33204809,127.88389696,(098)978-7860,,,,,,,,,,,歯科,0,,
472115,0000000447,沖縄県,沖縄市,金城歯科医院　,キンジョウシカイイン,無床診療所,沖縄市海邦2丁目1番29号,,26.32912777,127.83540537,(098)939-1868,,,,,,,,,,,歯科;小児歯科,0,,
473260,0000000448,沖縄県,北谷町,へんとな歯科医院,ヘントナシカイイン,無床診療所,北谷町美浜3丁目3番5号,,26.32186825,127.75707554,(098)926-2080,,,,,,,,,,,歯科;小児歯科;歯科口腔外科,0,,
472115,0000000449,沖縄県,沖縄市,とぐち歯科,トグチシカ,無床診療所,沖縄市宮里4丁目2番10号,,26.34202068,127.82366466,(098)939-4618,,,,,,,,,,,歯科,0,,
472051,0000000450,沖縄県,宜野湾市,デイゴ歯科医院,デイゴシカイイン,無床診療所,宜野湾市野嵩4丁目1番13号,,26.28963841,127.78095292,(098)893-8900,,,,,,,,,,,歯科;小児歯科,0,,
472131,0000000451,沖縄県,うるま市,つばさ歯科クリニック,ツバサシカクリニック,無床診療所,うるま市字喜屋武565番地,,26.35974981,127.84259590,(098)974-4649,,,,,,,,,,,歯科;小児歯科;矯正歯科,0,,
472115,0000000452,沖縄県,沖縄市,いしみね歯科クリニック,イシミネシカクリニック,無床診療所,"沖縄市山里2丁目2番9号　1階
",,26.32240803,127.79311735,(098)930-5559,,,,,,,,,,,歯科;小児歯科,0,,
472115,0000000453,沖縄県,沖縄市,へしき歯科・小児歯科,ヘシキシカショウニシカ,無床診療所,沖縄市比屋根2丁目8番12号,,26.31517893,127.82499542,(098)982-2282,,,,,,,,,,,歯科;小児歯科,0,,
472131,0000000454,沖縄県,うるま市,たなか歯科医院,タナカシカイイン,無床診療所,うるま市字田場1817番地1,,26.37200727,127.86011057,(098)974-8888,,,,,,,,,,,歯科,0,,
472051,0000000455,沖縄県,宜野湾市,のだけ歯科クリニック,ノダケシカクリニック,無床診療所,宜野湾市野嵩1丁目9番15号,,26.28049196,127.78143108,(098)894-1718,,,,,,,,,,,歯科,0,,
473260,0000000456,沖縄県,北谷町,ファミリー歯科医院,ファミリーシカイイン,無床診療所,北谷町字桃原7番地6　メゾンラック1階,,26.32082446,127.77825180,(098)936-8414,,,,,,,,,,,歯科;小児歯科,0,,
472115,0000000457,沖縄県,沖縄市,ももやま歯科クリニック,モモヤマシカクリニック,無床診療所,沖縄市山内3丁目9番10号,,26.32599353,127.78239300,(098)930-0150,,,,,,,,,,,歯科;小児歯科,0,,
472051,0000000458,沖縄県,宜野湾市,ともえ歯科クリニック,トモエシカクリニック,無床診療所,宜野湾市大謝名1丁目17番33号　ＢＡＲＮビル,,26.26686146,127.73636324,(098)899-1191,,,,,,,,,,,歯科,0,,
473286,0000000459,沖縄県,中城村,とまり歯科,トマリシカ,無床診療所,中城村字泊478番地1,,26.27765976,127.80900097,(098)895-9500,,,,,,,,,,,歯科,0,,
472051,0000000460,沖縄県,宜野湾市,ライフデンタルクリニック,ライフデンタルクリニック,無床診療所,宜野湾市大山6丁目24番9号　102号室,,26.27658563,127.73827652,(098)890-5322,,,,,,,,,,,歯科,0,,
472115,0000000461,沖縄県,沖縄市,うしお歯科クリニック,ウシオシカクリニック,無床診療所,沖縄市松本2丁目14番30号,,26.35228348,127.81774821,(098)929-2180,,,,,,,,,,,歯科;小児歯科;矯正歯科,0,,
472051,0000000462,沖縄県,宜野湾市,あさひ歯科医院,アサヒシカイイン,無床診療所,宜野湾市我如古2丁目32番18号,,26.25409359,127.75687318,(098)897-6480,,,,,,,,,,,歯科;小児歯科;矯正歯科;歯科口腔外科,0,,
472051,0000000463,沖縄県,宜野湾市,比嘉歯科医院新城診療所,ヒガシカイインアラグスクシンリョウショ,無床診療所,宜野湾市新城1丁目36番1号,,26.28951591,127.77115930,(098)893-7043,,,,,,,,,,,歯科;小児歯科,0,,
472051,0000000464,沖縄県,宜野湾市,佐藤歯科,サトウシカ,無床診療所,宜野湾市真志喜2丁目16番9号,,26.27565235,127.73656281,(098)890-3263,,,,,,,,,,,歯科;小児歯科;矯正歯科;歯科口腔外科,0,,
472051,0000000465,沖縄県,宜野湾市,山川歯科医院,ヤマカワシカイイン,無床診療所,宜野湾市嘉数4丁目26番10号　ヤマカワビルアネックス,,26.26138955,127.72833638,(098)890-3435,,,,,,,,,,,歯科;小児歯科;矯正歯科;歯科口腔外科,0,,
472051,0000000466,沖縄県,宜野湾市,長田歯科医院,ナガタシカイイン,無床診療所,宜野湾市長田3丁目35番9号,,26.26109032,127.76369181,(098)894-0648,,,,,,,,,,,歯科,0,,
472115,0000000467,沖縄県,沖縄市,宮城歯科クリニック,ミヤギシカクリニック,無床診療所,沖縄市山里2丁目7番2号　おおやまビル2階,,26.32256355,127.79215352,(098)933-6474,,,,,,,,,,,歯科;小児歯科;矯正歯科;歯科口腔外科,0,,
472115,0000000468,沖縄県,沖縄市,ヒロ歯科クリニック,ヒロシカクリニック,無床診療所,沖縄市字高原448番地1,,26.32061449,127.82370101,(098)938-5211,,,,,,,,,,,歯科;小児歯科;矯正歯科;歯科口腔外科,0,,
472051,0000000469,沖縄県,宜野湾市,あらまき歯科クリニック,アラマキシカクリニック,無床診療所,宜野湾市真志喜2丁目2番1号　徳ビル2階,,26.27260545,127.73909053,(098)897-9111,,,,,,,,,,,歯科,0,,
473146,0000000470,沖縄県,金武町,ひまわり歯科クリニック,ヒマワリシカクリニック,無床診療所,金武町字金武399番1,,26.45379589,127.92233106,(098)968-5544,,,,,,,,,,,歯科,0,,
472115,0000000471,沖縄県,沖縄市,松川歯科医院　,マツカワシカイイン,無床診療所,沖縄市泡瀬4丁目39番5号　松川コミュニティビル1階,,26.31409299,127.82822013,(098)934-5770,,,,,,,,,,,歯科,0,,
472131,0000000472,沖縄県,うるま市,かわい歯科医院,カワイシカイイン,無床診療所,うるま市みどり町4丁目12番25号　201号室,,26.37682611,127.85506652,(098)973-7506,,,,,,,,,,,歯科,0,,
472131,0000000473,沖縄県,うるま市,わかば歯科医院,ワカバシカイイン,無床診療所,うるま市石川東恩納733番地,,26.41271635,127.82415147,(098)964-4182,,,,,,,,,,,歯科,0,,
472051,0000000474,沖縄県,宜野湾市,生田歯科医院,イクタシカイイン,無床診療所,宜野湾市真栄原3丁目35番3号,,26.26480351,127.74612362,(098)897-4739,,,,,,,,,,,歯科,0,,
472051,0000000475,沖縄県,宜野湾市,太陽歯科医院,タイヨウシカイイン,無床診療所,宜野湾市真志喜2丁目11番1号,,26.27530799,127.73889319,(098)890-6488,,,,,,,,,,,歯科;小児歯科;矯正歯科;口腔外科,0,,
473260,0000000476,沖縄県,北谷町,平田歯科医院,ヒラタシカイイン,無床診療所,北谷町字上勢頭815番地6,,26.32787085,127.77162977,(098)926-4108,,,,,,,,,,,歯科;小児歯科,0,,
473243,0000000477,沖縄県,読谷村,そべ歯科クリニック,ソベシカクリニック,無床診療所,読谷村字楚辺2058番地1,,26.38914727,127.72998398,(098)92-15500,,,,,,,,,,,歯科;小児歯科,0,,
472115,0000000478,沖縄県,沖縄市,歯のお医者さん,ハノオイシャサン,無床診療所,沖縄市美原1丁目20番11号,,26.34897001,127.82383119,(098)929-3333,,,,,,,,,,,歯科;小児歯科;矯正歯科,0,,
472115,0000000479,沖縄県,沖縄市,みきお歯科医院,ミキオシカイイン,無床診療所,沖縄市登川1丁目13番19号,,26.36951242,127.82030314,(098)921-2232,,,,,,,,,,,歯科;小児歯科;矯正歯科,0,,
472115,0000000480,沖縄県,沖縄市,げんき歯科矯正クリニック,ゲンキシカキョウセイクリニック,無床診療所,沖縄市中央1丁目36番13号,,26.33842890,127.80059695,(098)939-8754,,,,,,,,,,,歯科;矯正歯科,0,,
473278,0000000481,沖縄県,北中城村,にこにこ歯科医院,ニコニコシカイイン,無床診療所,北中城村字熱田2047番地,,26.29596651,127.80930019,(098)935-2199,,,,,,,,,,,歯科;小児歯科,0,,
473278,0000000482,沖縄県,北中城村,むらの歯医者さん,ムラノハイシャサン,無床診療所,北中城村字仲順39番地,,26.30143243,127.79920366,(098)935-5720,,,,,,,,,,,歯科;小児歯科;歯科口腔外科,0,,
472115,0000000483,沖縄県,沖縄市,まえかわ歯科医院,マエカワシカイイン,無床診療所,沖縄市美原4丁目2番2号,,26.35028924,127.81837043,(098)921-4618,,,,,,,,,,,歯科;小児歯科,0,,
472115,0000000484,沖縄県,沖縄市,ひらた歯科クリニック,ヒラタシカクリニック,無床診療所,沖縄市美原1丁目11番28号,,26.34748959,127.82310905,(098)921-3351,,,,,,,,,,,歯科,0,,
472115,0000000485,沖縄県,沖縄市,医療法人敬真会　大城歯科医院,オオシロシカイイン,無床診療所,沖縄市照屋5丁目19番6号,,26.32991342,127.81687645,(098)938-3100,,,,,,,,,,,歯科;小児歯科,0,,
472115,0000000486,沖縄県,沖縄市,中頭歯科診療室,ナカガミシカシンリョウシツ,無床診療所,沖縄市知花6丁目25番15号　コンシュル知花2階,,26.36381848,127.81713964,(098)938-2030,,,,,,,,,,,歯科;小児歯科;矯正歯科;歯科口腔外科,0,,
472115,0000000487,沖縄県,沖縄市,カントリー歯科クリニック,カントリーシカクリニック,無床診療所,沖縄市高原6丁目13番6号,,26.31876193,127.82592583,(098)932-8148,,,,,,,,,,,歯科,0,,
472115,0000000488,沖縄県,沖縄市,みんなの歯医者さん,ミンナノハイシャサン,無床診療所,沖縄市胡屋2丁目16番2号,,26.33281285,127.80374130,(098)933-0055,,,,,,,,,,,歯科;小児歯科;矯正歯科;歯科口腔外科,0,,
472051,0000000489,沖縄県,宜野湾市,あずま歯科医院,アズマシカイイン,無床診療所,宜野湾市長田1丁目19番10号,,26.26412338,127.76334726,(098)892-0062,,,,,,,,,,,歯科;小児歯科;矯正歯科,0,,
472115,0000000490,沖縄県,沖縄市,東歯科医院,アズマシカイイン,無床診療所,沖縄市宮里1丁目15番8号,,26.33695439,127.81689857,(098)939-1221,,,,,,,,,,,歯科;小児歯科;矯正歯科;歯科口腔外科,0,,
472051,0000000491,沖縄県,宜野湾市,医療法人照道会　オリーブ歯科医院,オリーブシカイイン,無床診療所,宜野湾市大謝名1丁目2番2号,,26.26886124,127.73440497,(098)898-8241,,,,,,,,,,,歯科;小児歯科;矯正歯科;歯科口腔外科,0,,
473243,0000000492,沖縄県,読谷村,医療法人新崎歯科,イリョウホウジンアラサキシカ,無床診療所,読谷村字大湾473番地,,26.37080240,127.75520767,(098)956-4520,,,,,,,,,,,歯科,0,,
473251,0000000493,沖縄県,嘉手納町,なかお歯科クリニック,ナカオシカクリニック,無床診療所,嘉手納町字水釜379番地12,,26.35968648,127.74162004,(098)957-6480,,,,,,,,,,,歯科;歯科口腔外科,0,,
472131,0000000494,沖縄県,うるま市,ほんだ歯科,ホンダシカ,無床診療所,うるま市字与那城94番地1,,26.32562952,127.89152665,(098)978-7831,,,,,,,,,,,歯科,0,,
472131,0000000495,沖縄県,うるま市,みどり町さくら歯科医院,ミドリマチサクラシカイイン,無床診療所,うるま市みどり町6丁目2番16号,,26.38115070,127.85721069,(098)972-2221,,,,,,,,,,,歯科,0,,
472051,0000000496,沖縄県,宜野湾市,優和デンタルクリニック,ユウワデンタルクリニック,無床診療所,宜野湾市長田1丁目19番10号　玉善ビル2階,,26.26412338,127.76334726,(098)892-9809,,,,,,,,,,,歯科;小児歯科;矯正歯科;口腔外科,0,,
472051,0000000497,沖縄県,宜野湾市,仲村歯科,ナカムラシカ,無床診療所,宜野湾市我如古4丁目5番6号,,26.25717374,127.75066244,(098)897-1182,,,,,,,,,,,歯科;小児歯科,0,,
472051,0000000498,沖縄県,宜野湾市,おさむファミリ－歯科クリニック,オサムファミリーシカクリニック,無床診療所,宜野湾市喜友名1丁目31番2号,,26.28777145,127.76497655,(098)894-0001,,,,,,,,,,,歯科;小児歯科;矯正歯科,0,,
472051,0000000499,沖縄県,宜野湾市,渡瀬歯科,ワタセシカ,無床診療所,宜野湾市真志喜2丁目1番1号,,26.27376092,127.73989874,(098)987-9111,,,,,,,,,,,歯科,0,,
472131,0000000500,沖縄県,うるま市,うるまデンタルクリニック,ウルマデンタルクリニック,無床診療所,うるま市字江洲457番地1　3階,,26.35329741,127.82640310,(098)947-8049,,,,,,,,,,,歯科;小児歯科,0,,
472115,0000000501,沖縄県,沖縄市,かりゆし歯科,カリユシシカ,無床診療所,沖縄市安慶田2丁目24番52号,,26.33293525,127.81222399,(098)939-2773,,,,,,,,,,,歯科;小児歯科;矯正歯科;歯科口腔外科,0,,
473243,0000000502,沖縄県,読谷村,サンセット歯科クリニック,サンセットシカクリニック,無床診療所,読谷村字古堅637番地3,,26.37003562,127.74730824,(098)957-0246,,,,,,,,,,,歯科;小児歯科;矯正歯科;歯科口腔外科,0,,
473260,0000000503,沖縄県,北谷町,ユニバーサル矯正歯科クリニック,ユニバーサルキョウセイシカクリニック,無床診療所,北谷町美浜2丁目3番1号　サンライズ1階,,26.31390793,127.75985069,(098)979-5087,,,,,,,,,,,歯科;小児歯科;矯正歯科;歯科口腔外科,0,,
472051,0000000504,沖縄県,宜野湾市,医療法人健歯会　わかばの森歯科医院,ワカバノモリシカイイン,無床診療所,宜野湾市赤道1丁目1番1号,,26.27453664,127.77375982,(098)892-0788,,,,,,,,,,,歯科;小児歯科;矯正歯科;歯科口腔外科,0,,
472115,0000000505,沖縄県,沖縄市,なかわか歯科医院,ナカワカシカイイン,無床診療所,沖縄市古謝津嘉山町28番7号,,26.34396778,127.82782542,(098)929-2300,,,,,,,,,,,歯科;小児歯科;矯正歯科;歯科口腔外科,0,,
472051,0000000506,沖縄県,宜野湾市,パワー２”歯科,パワー２”シカ,無床診療所,宜野湾市我如古3丁目12番17号　シティーライツ我如古103号,,26.25460179,127.75269293,(098)890-3376,,,,,,,,,,,歯科;小児歯科;歯科口腔外科,0,,
472051,0000000507,沖縄県,宜野湾市,あいち歯科クリニック,アイチシカクリニック,無床診療所,宜野湾市愛知1丁目2番15号　2階,,26.26993967,127.76894933,(098)893-2300,,,,,,,,,,,歯科;小児歯科;矯正歯科;歯科口腔外科,0,,
472115,0000000508,沖縄県,沖縄市,しょきた歯科医院　,ショキタシカイイン,無床診療所,沖縄市泡瀬4丁目23番10号,,26.31710384,127.82986991,(098)929-2333,,,,,,,,,,,歯科,0,,
473260,0000000509,沖縄県,北谷町,砂辺スマイル歯科医院,スナベスマイルシカイイン,無床診療所,北谷町字宮城1番地105,,26.32817568,127.74590674,(098)926-4618,,,,,,,,,,,歯科;小児歯科;歯科口腔外科,0,,
473111,0000000510,沖縄県,恩納村,大久保歯科,オオクボシカ,無床診療所,恩納村字瀬良垣469番地,,26.50715117,127.87621310,(098)982-3151,,,,,,,,,,,歯科;小児歯科,0,,
473243,0000000511,沖縄県,読谷村,医療法人健歯会　ふるげん歯科クリニック,フルゲンシカクリニック,無床診療所,読谷村字古堅656番地4,,26.36773028,127.74704443,(098)956-8740,,,,,,,,,,,歯科;小児歯科;矯正歯科;歯科口腔外科,0,,
472131,0000000512,沖縄県,うるま市,医療法人花の城会　愛の里歯科診療所,アイノサトシカシンリョウショ,無床診療所,うるま市字江洲522番地19,,26.35113378,127.82986121,(098)974-8571,,,,,,,,,,,歯科;小児歯科;矯正歯科;歯科口腔外科,0,,
472131,0000000513,沖縄県,うるま市,あおば歯科クリニック,アオバシカクリニック,無床診療所,うるま市字安慶名385番地2,,26.36986563,127.85144479,(098)972-4618,,,,,,,,,,,歯科;小児歯科,0,,
472115,0000000514,沖縄県,沖縄市,村山歯科クリニック,ムラヤマシカクリニック,無床診療所,沖縄市高原4丁目20番37号,,26.31873126,127.82022079,(098)930-6655,,,,,,,,,,,歯科;小児歯科,0,,
472131,0000000515,沖縄県,うるま市,銀座歯科医院,ギンザシカイイン,無床診療所,うるま市石川1丁目4番2号,,26.42829285,127.82573947,(098)964-2045,,,,,,,,,,,歯科;小児歯科;矯正歯科;口腔外科,0,,
472131,0000000516,沖縄県,うるま市,幸一デンタルオフィス,コウイチデンタルオフィス,無床診療所,うるま市石川1丁目47番26号,,26.43261758,127.82885567,(098)965-7171,,,,,,,,,,,歯科;小児歯科;歯科口腔外科,0,,
472131,0000000517,沖縄県,うるま市,エース歯科クリニック,エースシカクリニック,無床診療所,うるま市石川東恩納62番地2,,26.41039722,127.82790127,(098)965-6336,,,,,,,,,,,歯科,0,,
473286,0000000518,沖縄県,中城村,医療法人社団恵仁会　エンジェル歯科,エンジェルシカ,無床診療所,中城村字津覇640番地2,,26.24537289,127.78155764,(098)942-3773,,,,,,,,,,,歯科;小児歯科;矯正歯科,0,,
473243,0000000519,沖縄県,読谷村,医療法人健歯会　珀美歯科,イリョウホウジンケンハカイ　ヒャクミシカ,無床診療所,読谷村字古堅675番地,,26.36877180,127.74508066,(098)956-7199,,,,,,,,,,,歯科;小児歯科;矯正歯科;歯科口腔外科,0,,
472131,0000000520,沖縄県,うるま市,なかま歯科室,ナカマシカシツ,無床診療所,うるま市字江洲598番地4,,26.34840909,127.83330548,(098)979-1020,,,,,,,,,,,歯科;小児歯科;矯正歯科;歯科口腔外科,0,,
472115,0000000521,沖縄県,沖縄市,ちむわざ歯科,チムワザシカ,無床診療所,沖縄市高原5丁目3番7号　高江第3ビル1階,,26.32380865,127.82570910,(098)934-4618,,,,,,,,,,,歯科;小児歯科;矯正歯科;歯科口腔外科,0,,
472115,0000000522,沖縄県,沖縄市,たけしま歯科・小児歯科,タケシマシカショウニシカ,無床診療所,沖縄市知花1丁目25番11号,,26.36039940,127.81910902,(098)939-4211,,,,,,,,,,,歯科;小児歯科;矯正歯科;歯科口腔外科,0,,
472131,0000000523,沖縄県,うるま市,野原歯科医院,ノハラシカイン,無床診療所,うるま市字平良川97番地8,,26.36516052,127.85033667,(098)975-1888,,,,,,,,,,,歯科,0,,
472051,0000000524,沖縄県,宜野湾市,なかざと歯科医院,ナカザトシカイイン,無床診療所,宜野湾市字宇地泊701番地　Ｎ．Ｄビル2階,,26.27240245,127.72887749,(098)898-3118,,,,,,,,,,,歯科,0,,
472115,0000000525,沖縄県,沖縄市,コザ歯科クリニック,コザシカクリニック,無床診療所,沖縄市山内4丁目14番7号,,26.33147634,127.78205673,(098)930-2118,,,,,,,,,,,歯科;矯正歯科,0,,
472131,0000000526,沖縄県,うるま市,３０ミオ　矯正歯科,ミオキョウセイシカ,無床診療所,うるま市字江洲549番地1,,26.34998111,127.83001956,(098)973-4188,,,,,,,,,,,矯正歯科,0,,
473251,0000000527,沖縄県,嘉手納町,上運天歯科矯正歯科,カミウンテンシカキョウセイシカ,無床診療所,嘉手納町字嘉手納290番地4　2階,,26.36311982,127.75526895,(098)956-4618,,,,,,,,,,,歯科;小児歯科;矯正歯科,0,,
472051,0000000528,沖縄県,宜野湾市,ホワイト歯科,ホワイトシカ,無床診療所,宜野湾市宜野湾3丁目2番26号,,26.26037362,127.75892555,(098)892-4876,,,,,,,,,,,歯科;小児歯科;矯正歯科;口腔外科,0,,
472051,0000000529,沖縄県,宜野湾市,あら歯科医院,アラシカイイン,無床診療所,宜野湾市野嵩2丁目2番3号,,26.28279726,127.77903396,(098)893-3000,,,,,,,,,,,歯科,0,,
472051,0000000530,沖縄県,宜野湾市,しらゆり歯科,シラユリシカ,無床診療所,宜野湾市志真志1丁目1番2号,,26.25955158,127.76409740,(098)898-5583,,,,,,,,,,,歯科;小児歯科;矯正歯科,0,,
473260,0000000531,沖縄県,北谷町,あおぞら歯科,アオゾラシカ,無床診療所,北谷町美浜3丁目6番5号　2階,,26.32479014,127.75498113,(098)936-8111,,,,,,,,,,,歯科;小児歯科,0,,
472051,0000000532,沖縄県,宜野湾市,てぃーだ歯科,ティーダシカ,無床診療所,宜野湾市普天間2丁目14番1号　サンフティーマ2階,,26.28967165,127.77764764,(098)943-1857,,,,,,,,,,,歯科;小児外科;歯科口腔外科,0,,
472115,0000000533,沖縄県,沖縄市,あきの歯科医院,アキノシカイイン,無床診療所,沖縄市宮里2丁目25番3号,,26.34290114,127.82314523,(098)938-4000,,,,,,,,,,,歯科,0,,
472115,0000000534,沖縄県,沖縄市,SMILE DESIGN 美里歯科医院,ミサトシカイイン,無床診療所,沖縄市美原4丁目4番2号,,26.34911714,127.81873155,(098)937-2021,,,,,,,,,,,歯科;小児歯科;矯正歯科;歯科口腔外科,0,,
472051,0000000535,沖縄県,宜野湾市,マリーナ歯科クリニック,マリーナシカクリニック,無床診療所,宜野湾市字大謝名222番地　ルビア1階,,26.27048612,127.73571868,(098)943-6533,,,,,,,,,,,歯科;小児歯科;歯科口腔外科,0,,
472131,0000000536,沖縄県,うるま市,仲真歯科医院,ナカマシカイイン,無床診療所,うるま市字喜屋武694番地3,,26.35657522,127.84837039,(098)923-0112,,,,,,,,,,,歯科;小児歯科;矯正歯科;口腔外科,0,,
472131,0000000537,沖縄県,うるま市,医療法人社団秋桜会　ファーストデンタルクリニックうるま,ファーストデンタルクリニックウルマ,無床診療所,うるま市安慶名1丁目2番18号,,26.37436523,127.85395557,(098)973-8010,,,,,,,,,,,歯科;小児歯科;矯正歯科;口腔外科,0,,
473260,0000000538,沖縄県,北谷町,ピース デンタル クリニック,ピースデンタルクリニック,無床診療所,北谷町字桑江468番地3,,26.32556268,127.76961333,(098)926-4180,,,,,,,,,,,歯科;小児歯科,0,,
473286,0000000539,沖縄県,中城村,グレイス　デンタル　クリニック,グレイシデンタルクリニック,無床診療所,中城村字南上原364番地1,,26.25752132,127.76888599,(098)895-6868,,,,,,,,,,,歯科;小児歯科;歯科口腔外科,0,,
473260,0000000540,沖縄県,北谷町,ヤラ　デンタルクリニック,ヤラデンタルクリニック,無床診療所,北谷町北谷2丁目17番6号　ＲＹＯ　ＭＡＮＳＩＯＮ　103号室,,26.30471710,127.76038443,(098)936-7515,,,,,,,,,,,歯科;小児歯科;矯正歯科;歯科口腔外科,0,,
472131,0000000541,沖縄県,うるま市,金城歯科医院,キンジョウシカイイン,無床診療所,うるま市喜仲1丁目7番19号,,26.35736399,127.84592062,(098)974-5177,,,,,,,,,,,歯科;小児歯科,0,,
472051,0000000542,沖縄県,宜野湾市,エンゼル歯科,エンゼルシカ,無床診療所,宜野湾市字宇地泊265番地1,,26.27161368,127.73110789,(098)897-8839,,,,,,,,,,,歯科;小児歯科;矯正歯科,0,,
473286,0000000543,沖縄県,中城村,つばさデンタルクリニック,ツバサデンタルクリニック,無床診療所,中城村字南上原967番地　1階,,26.24599189,127.77045021,(098)988-9188,,,,,,,,,,,歯科;小児歯科;歯科口腔外科,0,,
472051,0000000544,沖縄県,宜野湾市,いすの木デンタルクリニック,イスノキデンタルクリニック,無床診療所,宜野湾市新城1丁目5番12号,,26.28706620,127.77415361,(098)892-0027,,,,,,,,,,,歯科;小児歯科;矯正歯科;歯科口腔外科,0,,
472131,0000000545,沖縄県,うるま市,スマート歯科クリニック,スマートシカクリニック,無床診療所,うるま市字具志川3008番地1,,26.35983933,127.86964861,(098)974-8311,,,,,,,,,,,歯科,0,,
472115,0000000546,沖縄県,沖縄市,ライズデンタルクリニック,ライズデンタルクリニック,無床診療所,沖縄市園田1丁目15番24号,,26.33069900,127.79690296,(098)930-6480,,,,,,,,,,,歯科;小児歯科;歯科口腔外科,0,,
472131,0000000547,沖縄県,うるま市,スター歯科クリニック,スターシカクリニック,無床診療所,うるま市字豊原下口原750番地,,26.34851502,127.85122295,(098)923-2188,,,,,,,,,,,歯科;小児歯科;歯科口腔外科,0,,
472131,0000000548,沖縄県,うるま市,なごみ歯科クリニック,ナゴミシカクリニック,無床診療所,うるま市石川東山1丁目21番13号,,26.43516759,127.83614664,(098)964-3300,,,,,,,,,,,歯科;小児歯科,0,,
473138,0000000549,沖縄県,宜野座村,あすなろ歯科医院,アスナロシカイイン,無床診療所,宜野座村字惣慶1827番地2,,26.48058354,127.97328622,(098)968-2313,,,,,,,,,,,歯科,0,,
472115,0000000550,沖縄県,沖縄市,そら歯科クリニック,ソラシカクリニック,無床診療所,沖縄市字松本887番地2　1階,,26.35225301,127.82257287,(098)938-1882,,,,,,,,,,,歯科;小児歯科;歯科口腔外科,0,,
473260,0000000551,沖縄県,北谷町,OCCデンタルクリニック,デンタルクリニック,無床診療所,北谷町字宮城1番地26,,26.32398450,127.74977604,,,,,,,,,,,,歯科,0,,
472051,0000000552,沖縄県,宜野湾市,パール歯科,パールシカ,無床診療所,宜野湾市赤道1丁目3番1号,,26.27371445,127.77259329,(098)892-0147,,,,,,,,,,,歯科;小児歯科;矯正歯科;歯科口腔外科,0,,
473286,0000000553,沖縄県,中城村,中城みなみ歯科,ナカグスクミナミシカ,無床診療所,中城村字南上原835番地1　サンヴェスタ102号,,26.24771123,127.77264720,(098)955-6850,,,,,,,,,,,歯科;小児歯科,0,,
473286,0000000554,沖縄県,中城村,さおり歯科クリニック,サオリシカクリニック,無床診療所,中城村字南上原556番地,,26.25221089,127.77537733,(098)917-0840,,,,,,,,,,,歯科;小児歯科;歯科口腔外科,0,,
472115,0000000555,沖縄県,沖縄市,玉城歯科医院,タマキシカイイン,無床診療所,沖縄市高原5丁目1番18号　2階,,26.32480295,127.82345098,(098)939-9887,,,,,,,,,,,歯科;小児歯科;口腔外科,0,,
473260,0000000556,沖縄県,北谷町,沖縄ホワイトデンタルクリニック,オキナワホワイトデンタルクリニック,無床診療所,北谷町字上勢頭813番地2　デザインマンション龍101,,26.32840411,127.77069370,(098)989-3780,,,,,,,,,,,歯科;小児歯科;矯正歯科;歯科口腔外科,0,,
472051,0000000557,沖縄県,宜野湾市,セルージュデンタルクリニック,セルージュデンタルクリニック,無床診療所,宜野湾市我如古1丁目34番5号,,26.25738214,127.75485376,(098)943-5430,,,,,,,,,,,歯科;小児歯科;矯正歯科,0,,
473260,0000000558,沖縄県,北谷町,フェイスデンタルオフィス,フェイスデンタルオフィス,無床診療所,北谷町伊平1丁目3番1号,,26.32732905,127.76421641,(098)936-7577,,,,,,,,,,,歯科;小児歯科;矯正歯科;歯科口腔外科,0,,
473286,0000000559,沖縄県,中城村,うえばる歯科医院,ウエバルシカイイン,無床診療所,中城村字南上原1058番地4,,26.24257550,127.76746168,(098)870-3456,,,,,,,,,,,歯科,0,,
472115,0000000560,沖縄県,沖縄市,まぁる歯科医院,マァルシカイイン,無床診療所,沖縄市知花1丁目27番20号,,26.35867735,127.81934516,(098)989-7530,,,,,,,,,,,歯科;小児歯科,0,,
472115,0000000561,沖縄県,沖縄市,ひまわり歯科,ヒマワリシカ,無床診療所,沖縄市知花6丁目1番36号,,26.36224358,127.81346773,(098)989-1355,,,,,,,,,,,歯科;小児歯科;歯科口腔外科,0,,
472115,0000000562,沖縄県,沖縄市,医療法人堅勇会　Takeshima Dental Office,タケシマデンタルオフィス,無床診療所,沖縄市知花6丁目8番21号,,26.36098826,127.82120608,(098)975-8241,,,,,,,,,,,歯科;小児歯科;矯正歯科;歯科口腔外科,0,,
472115,0000000563,沖縄県,沖縄市,くでけん歯科,クデケンシカ,無床診療所,沖縄市美里5丁目8番28号,,26.34895870,127.81155707,(098)938-7782,,,,,,,,,,,歯科;小児歯科,0,,
473278,0000000564,沖縄県,北中城村,ライカムデンタルクリニック,ライカムデンタルクリニック,無床診療所,北中城村字ライカム1番地　イオンモール沖縄ライカム2階,,26.31418948,127.79620625,(098)923-5511,,,,,,,,,,,歯科;小児歯科;口腔外科;矯正歯科,0,,
473260,0000000565,沖縄県,北谷町,比嘉デンタルクリニック,ヒガデンタルクリニック,無床診療所,北谷町伊平2丁目1番1号,,26.32732905,127.76421641,(098)926-6480,,,,,,,,,,,歯科;小児歯科;歯科口腔外科,0,,
473260,0000000566,沖縄県,北谷町,ハンビー歯科クリニック,ハンビーシカクリニック,無床診療所,北谷町北前1丁目19番9号,,26.30007302,127.75912642,(098)926-1818,,,,,,,,,,,歯科;小児歯科;矯正歯科;歯科口腔外科,0,,
473138,0000000567,沖縄県,宜野座村,まつだ歯科医院,マツダシカイイン,無床診療所,宜野座村字松田636番地1,,26.49099139,127.98987867,(098)968-8881,,,,,,,,,,,歯科;小児歯科;矯正歯科;歯科口腔外科,0,,
472115,0000000568,沖縄県,沖縄市,K デンタルオフィス,デンタルオフィス,無床診療所,沖縄市古謝2丁目20番1号,,26.33425779,127.83482208,(098)923-5889,,,,,,,,,,,歯科;小児歯科;矯正歯科;口腔外科,0,,
472115,0000000569,沖縄県,沖縄市,北美歯科クリニック,キタミシカクリニック,無床診療所,沖縄市字登川701番地1,,26.37047351,127.82681091,(098)921-1814,,,,,,,,,,,歯科;小児歯科;矯正歯科;歯科口腔外科,0,,
472115,0000000570,沖縄県,沖縄市,照屋歯科医院,テルヤシカイイン,無床診療所,沖縄市久保田3丁目1番12号,,26.31962777,127.79380905,(098)930-6588,,,,,,,,,,,歯科;小児歯科;矯正歯科;口腔外科,0,,
473243,0000000571,沖縄県,読谷村,アイランド・デンタル・リゾート・クリニック　,アイランドデンタルリゾートクリニック,無床診療所,読谷村字大湾356番地　1階,,26.37474091,127.75566586,(098)956-8811,,,,,,,,,,,歯科;小児歯科;矯正歯科;口腔外科,0,,
472131,0000000572,沖縄県,うるま市,医療法人右納の会　ちねん歯科医院,チネンシカイイン,無床診療所,うるま市字大田867番地10,,26.34533529,127.87136233,(098)973-7555,,,,,,,,,,,歯科;小児歯科;矯正歯科;歯科口腔外科,0,,
473278,0000000573,沖縄県,北中城村,さんいくデンタルクリニック,サンイクデンタルクリニック,無床診療所,北中城村字島袋705番地7,,26.32592735,127.80140552,(098)923-0925,,,,,,,,,,,歯科;小児歯科;矯正歯科;歯科口腔外科,0,,
473260,0000000574,沖縄県,北谷町,北谷歯科クリニック,チャタンシカクリニック,無床診療所,北谷町字宮城1番地37　サンエー北谷はまがわ店内,,26.32414563,127.75098427,(098)936-1222,,,,,,,,,,,歯科;小児歯科;矯正歯科;歯科口腔外科,0,,
472115,0000000575,沖縄県,沖縄市,イオンタウン　あわせ歯科,イオンタウンアワセシカ,無床診療所,沖縄市泡瀬4丁目5番7号　泡瀬店1階,,26.32119511,127.83000596,(098)987-8120,,,,,,,,,,,歯科;小児歯科;矯正歯科;歯科口腔外科,0,,
472131,0000000576,沖縄県,うるま市,ふたば歯科クリニック,フタバシカクリニック,無床診療所,うるま市字高江洲1029番地3　上原マートビル2階,,26.35746939,127.83741870,(098)974-9993,,,,,,,,,,,歯科;小児歯科;矯正歯科;歯科口腔外科,0,,
473286,0000000577,沖縄県,中城村,しもデンタルクリニック,シモデンタルクリニック,無床診療所,中城村字南上原770番地2　ハピネスハイツ102,,26.25038878,127.77380254,(098)895-3318,,,,,,,,,,,歯科;小児歯科,0,,
472051,0000000578,沖縄県,宜野湾市,あつみ歯科医院,アツミシカイイン,無床診療所,宜野湾市大謝名1丁目15番14号,,26.26878910,127.73803801,(098)987-6288,,,,,,,,,,,歯科;小児歯科,0,,
472051,0000000579,沖縄県,宜野湾市,Dental Clinic 88,デンタルクリニック,無床診療所,宜野湾市伊佐2丁目21番13号　大栄マンションⅡ　101,,26.28744618,127.75368861,(098)890-1188,,,,,,,,,,,歯科,0,,
472051,0000000580,沖縄県,宜野湾市,はごろもファミリー歯科 ,ハゴロモファミリーシカ,無床診療所,宜野湾市真志喜2丁目13番13号　コーポ徳本1階,,26.27485797,127.73636009,(098)898-2804,,,,,,,,,,,歯科;小児歯科;歯科口腔外科,0,,
473278,0000000581,沖縄県,北中城村,のんたん歯科クリニック,ノンタンシカクリニック,無床診療所,北中城村字仲順39番地　1階,,26.30143243,127.79920366,(098)935-5720,,,,,,,,,,,歯科;小児歯科;歯科口腔外科,0,,
472051,0000000582,沖縄県,宜野湾市,中澤歯科医院,ナカザワシカイイン,無床診療所,宜野湾市志真志4丁目36番5号　2階,,26.25739605,127.75602590,(098)897-7389,,,,,,,,,,,歯科;小児歯科;矯正歯科;歯科口腔外科,0,,
473278,0000000583,沖縄県,北中城村,しまぶく歯科,シマブクシカ,無床診療所,北中城村字島袋602番地2,,26.32108337,127.80134731,(098)911-3533,,,,,,,,,,,歯科;小児歯科;矯正歯科;口腔外科,0,,
473260,0000000584,沖縄県,北谷町,北谷パレスデンタルクリニック,チャタンパレスデンタルクリニック,無床診療所,北谷町伊平2丁目6番30号,,26.32732905,127.76421641,(098)923-1931,,,,,,,,,,,歯科;小児歯科;矯正歯科;歯科口腔外科,0,,
472131,0000000585,沖縄県,うるま市,アロハ・デンタルクリニック,アロハデンタルクリニック,無床診療所,うるま市字江洲386番地,,26.35239751,127.82731971,(098)988-5639,,,,,,,,,,,歯科;小児歯科;歯科口腔外科,0,,
472051,0000000586,沖縄県,宜野湾市,うえむら歯科医院,ウエムラシカイイン,無床診療所,宜野湾市字我如古380番地1,,26.25937348,127.74762093,(098)898-6480,,,,,,,,,,,歯科;小児歯科;歯科口腔外科,0,,
472051,0000000587,沖縄県,宜野湾市,大山歯科クリニック,オオヤマシカクリニック,無床診療所,宜野湾市大山4丁目2番5号　3階,,26.28132439,127.75016420,(098)897-9182,,,,,,,,,,,歯科;小児歯科;歯科口腔外科,0,,
472051,0000000588,沖縄県,宜野湾市,じのん矯正歯科クリニック,ジノンキョウセイシカクリニック,無床診療所,宜野湾市字大謝名172番地,,26.27075830,127.73454655,(098)917-2304,,,,,,,,,,,歯科;矯正歯科,0,,
472115,0000000589,沖縄県,沖縄市,くろしま歯科クリニック,クロシマシカクリニック,無床診療所,沖縄市中央1丁目24番8号　2階,,26.33706233,127.79910543,(098)934-9217,,,,,,,,,,,歯科;小児歯科;矯正歯科,0,,
472115,0000000590,沖縄県,沖縄市,室川ファミリー歯科,ムロカワファミリーシカ,無床診療所,沖縄市室川2丁目1番10号,,26.33749582,127.80790479,(098)938-5115,,,,,,,,,,,歯科;小児歯科,0,,
472115,0000000591,沖縄県,沖縄市,米須歯科医院,ヨネスシカイイン,無床診療所,沖縄市松本4丁目18番2号　2階,,26.35706360,127.81841750,(098)939-6123,,,,,,,,,,,歯科;小児歯科;矯正歯科;歯科口腔外科,0,,
472051,0000000592,沖縄県,宜野湾市,Ｍ'ｓデンタルクリニック,デンタルクリニック,無床診療所,宜野湾市神山1丁目5番65号　1階,,26.26592048,127.76459986,(098)893-8049,,,,,,,,,,,歯科,0,,
473146,0000000593,沖縄県,金武町,はりえ歯科口腔クリニック,ハリエシカコウクウクリニック,無床診療所,金武町字金武57番地,,26.45493753,127.92602793,(098)968-4180,,,,,,,,,,,歯科;小児歯科;歯科口腔外科,0,,
473243,0000000594,沖縄県,読谷村,はじめ歯科クリニック,ハジメシカクリニック,無床診療所,読谷村字伊良皆361番地1,,26.38177343,127.75030214,(098)921-9051,,,,,,,,,,,歯科;小児歯科;歯科口腔外科,0,,
472051,0000000595,沖縄県,宜野湾市,サン歯科こども歯科クリニック,サンシカコドモシカクリニック,無床診療所,宜野湾市伊佐3丁目8番14号　グランメール101号室,,26.29103207,127.75705759,(098)942-8131,,,,,,,,,,,矯正歯科,0,,
472115,0000000596,沖縄県,沖縄市,照屋歯科医院,テルヤシカイイン,無床診療所,沖縄市久保田3丁目11番1号　プラザハウス2階,,26.31873897,127.79380351,(098)930-6588,,,,,,,,,,,歯科;小児歯科;矯正歯科;口腔外科歯科,0,,
473243,0000000597,沖縄県,読谷村,よみたんハート歯科,ヨミタンハートシカ,無床診療所,読谷村字伊良皆267番地3,,26.38299285,127.75464903,(098)956-2225,,,,,,,,,,,歯科;小児歯科;歯科口腔外科,0,,
472115,0000000598,沖縄県,沖縄市,歯ならび矯正クリニック　キュア＆ケア,ハナラビキョウセイクリニックキュアアンドケア,無床診療所,沖縄市山里2丁目3番9号,,26.32138591,127.79301738,(098)930-4187,,,,,,,,,,,矯正歯科,0,,
473251,0000000599,沖縄県,嘉手納町,知花歯科医院,チバナシカイイン,無床診療所,嘉手納町字嘉手納281番地　2階,,26.36464746,127.75557445,(098)956-2550,,,,,,,,,,,歯科,0,,
472115,0000000600,沖縄県,沖縄市,ナオミデンタルクリニック,ナオミデンタルクリニック,無床診療所,沖縄市宮里4丁目19番6号　レジデンスキング103,,26.34289285,127.82547561,(098)989-1128,,,,,,,,,,,歯科,0,,
473251,0000000601,沖縄県,嘉手納町,医療法人山内矯正歯科クリニック,イリョウホウジンヤマウチキョウセイシカクリニック,無床診療所,嘉手納町字嘉手納281番地　3階,,26.36464746,127.75557445,(098)957-1818,,,,,,,,,,,矯正歯科,0,,
472051,0000000602,沖縄県,宜野湾市,サンエー宜野湾コンベンションシティ　オレンジ歯科　えがおとママとこどもの予防の歯医者さん,サンエーギノワンコンベンションシティオレンジシカエガオトママトコドモノヨボウノハイシャサン,無床診療所,宜野湾市字宇地泊558番地10,,26.27488557,127.72983006,(098)957-1818,,,,,,,,,,,歯科;小児歯科;矯正歯科;歯科口腔外科,0,,
472131,0000000603,沖縄県,うるま市,アールデンタル,アールデンタル,無床診療所,うるま市石川白浜2丁目9番12号　,,26.42454318,127.82600352,(098)965-3456,,,,,,,,,,,歯科;小児歯科;歯科口腔外科,0,,
473278,0000000604,沖縄県,北中城村,レーヴ歯科クリニック,レーヴシカクリニック,無床診療所,北中城村字ライカム540番地,,26.31115648,127.79755346,(098)932-5002,,,,,,,,,,,歯科;小児歯科;歯科口腔外科,0,,
473243,0000000605,沖縄県,読谷村,読谷ファミリー歯科,ヨミタンファミリーシカ,無床診療所,読谷村字上地176番地2,,26.40414318,127.73599137,(098)989-5402,,,,,,,,,,,歯科;小児歯科;矯正歯科;歯科口腔外科,0,,
472131,0000000606,沖縄県,うるま市,なぎさ歯科医院　,ナギサシカイイン,無床診療所,うるま市字塩屋402番地1 ,,26.34837631,127.85784996,(098)974-6606,,,,,,,,,,,歯科;小児歯科;歯科口腔外科,0,,
473111,0000000607,沖縄県,恩納村,海風予防訪問歯科クリニック,ウミカゼヨボウホウモンシカクリニック,無床診療所,恩納村字冨着576番地1　2階,,26.45310408,127.80664549,(098)979-7177,,,,,,,,,,,歯科;小児歯科;矯正歯科;歯科口腔外科,0,,
472115,0000000608,沖縄県,沖縄市,みはら歯科クリニック,ミハラシカクリニック,無床診療所,沖縄市美原4丁目1番15号,,26.35178076,127.81806765,(098)923-5938,,,,,,,,,,,歯科;小児歯科;歯科口腔外科,0,,
473278,0000000609,沖縄県,北中城村,のぞみ歯科クリニック,ノゾミシカクリニック,無床診療所,北中城村字島袋1222番1,,26.32102781,127.80036962,(098)930-0444,,,,,,,,,,,歯科;小児歯科;矯正歯科,0,,
472051,0000000610,沖縄県,宜野湾市,L's Dental Office,エルズデンタルオフィス,無床診療所,宜野湾市真志喜625番地3　L's　Credo　Bldg.　401号,,26.27065004,127.73777407,(098)988-4707,,,,,,,,,,,歯科;矯正歯科;歯科口腔外科,0,,
472115,0000000611,沖縄県,沖縄市,サクラデンタルクリニック,サクラデンタルクリニック,無床診療所,沖縄市美原4丁目7番9号,,26.34946161,127.82238128,(098)989-9986,,,,,,,,,,,歯科;小児歯科;矯正歯科;歯科口腔外科,0,,
472115,0000000612,沖縄県,沖縄市,コザ　おとな・こども歯科　,コザオトナコドモシカ,無床診療所,沖縄市胡屋4丁目14番28号,,26.33002414,127.79995276,(098)989-4801,,,,,,,,,,,歯科;小児歯科;矯正歯科;歯科口腔外科,0,,
472107,0000000613,沖縄県,糸満市,勝連病院,カツレンビョウイン,病院,糸満市真栄平1026番地,,26.11583017,127.71456602,(098)997-3104,,,,,,,,,,,内科;精神科;心療内科;リハビリテーション科,0,,
472107,0000000614,沖縄県,糸満市,南山病院,ミナミヤマビョウイン,病院,糸満市字賀数406-1,,26.15194970,127.69223716,(098)994-3660,,,,,,,,,,,内科;精神科;心療内科;歯科,0,,
473502,0000000615,沖縄県,南風原町,医療法人社団輔仁会　嬉野が丘サマリヤ人病院,イリョウホウジンシャダンホジンカイ　ウレシノガオカサマリヤジンビョウイン,病院,南風原町字新川460番地,,26.21029994,127.72818009,(098)889-1328,,,,,,,,,,,"内科;精神科;心療内科;歯科
",0,,
473502,0000000616,沖縄県,南風原町,久田病院,クダビョウイン,病院,南風原町字大名275番地,,26.20978064,127.73165757,(098)889-3206,,,,,,,,,,,内科;神経内科;心療内科;精神科;老年精神科,0,,
473626,0000000617,沖縄県,八重瀬町,医療法人徳洲会　南部徳洲会病院,イリョウホウジントクシュウカイ　ナンブトクシュウカイビョウイン,病院,八重瀬町字外間171番地1,,26.17838660,127.71562533,(098)998-3221,,,,,,,,,,,内科;呼吸器内科;循環器内科;小児科;外科;整形外科;眼科;小児外科;皮膚科;泌尿器科;産婦人科;肛門外科;放射線科;救急科;リハビリテーション科;脳神経外科;呼吸器外科;麻酔科;消化器科;気管食道科;心臓血管外科;歯科口腔外科;歯科;耳鼻咽喉科;病理診断科;形成外科;消化器外科,0,,
472107,0000000618,沖縄県,糸満市,医療法人晴明会　糸満晴明病院,イリョウホウジンセイメイカイ　イトマンハレアキラビョウイン,病院,糸満市字大度520番地,,26.09886201,127.70760315,(098)997-2011,,,,,,,,,,,精神科;心療内科;歯科,0,,
473502,0000000619,沖縄県,南風原町,沖縄県立精和病院,オキナワケンリツセイワビョウイン,病院,南風原町字新川260,,26.20726693,127.72774978,(098)889-1390,,,,,,,,,,,内科;精神科;心療内科;歯科;リハビリテーション科,0,,
473502,0000000620,沖縄県,南風原町,博愛病院,ハクアイビョウイン,病院,南風原町字新川485-1,,26.21135537,127.72801058,(098)889-4830,,,,,,,,,,,内科;精神科;心療内科,0,,
472123,0000000621,沖縄県,豊見城市,とよみ生協病院,トヨミセイキョウビョウイン,病院,豊見城市字真玉橋593番1,,26.19307338,127.68732131,(098)850-7955,,,,,,,,,,,内科;外科;リハビリテーション科;婦人科;小児科;整形外科;皮膚科,0,,
472107,0000000622,沖縄県,糸満市,ウェルネス西崎病院,ウェルネスニシザキビョウイン,病院,糸満市字糸満2041-5,,26.13489175,127.67012483,(098)994-2582,,,,,,,,,,,内科;胃腸科,0,,
473502,0000000623,沖縄県,南風原町,医療法人信和会 　沖縄第一病院,イリョウホウジンノブカズカイ 　オキナワダイイチビョウイン,病院,南風原町字兼城642-1,,26.19491273,127.72597584,(098)888-1151,,,,,,,,,,,内科;消化器内科;循環器内科;呼吸器内科;小児科;外科;整形外科;泌尿器科;肛門外科;放射線科;耳鼻咽喉科;リハビリテーション科;腎臓内科;人工透析内科;脳神経外科;麻酔科;心臓血管外科,0,,
473481,0000000624,沖縄県,与那原町,与那原中央病院,ヨナハラチュウオウビョウイン,病院,与那原町字与那原2905番地,,26.20278176,127.74855384,(098)945-8101,,,,,,,,,,,内科;外科;整形外科;呼吸器科;消化器科;循環器科;肛門科;眼科;皮膚科;泌尿器科;麻酔科;放射線科;リハビリテーション科;歯科;歯科口腔外科,0,,
473294,0000000625,沖縄県,西原町,琉球大学病院,リュウキュウダイガクビョウイン,病院,西原町字上原207番地,,26.24173927,127.75974009,(098)895-3331,,,,,,,,,,,内科;外科;心臓血管外科;整形外科;脳神経外科;形成外科;精神科;小児科;皮膚科;泌尿器科;産科;婦人科;眼科;耳鼻咽喉科;リハビリテーション科;放射線科;病理診断科;救急科;歯科口腔外科;神経科;呼吸器科;消化器科;循環器科;麻酔科,0,,
473294,0000000626,沖縄県,西原町,アドベンチストメディカルセンター,アドベンチストメディカルセンター,病院,西原町字幸地868番地,,26.22938719,127.74071969,(098)946-2833,,,,,,,,,,,内科;小児科;外科;婦人科;皮膚科;歯科;矯正歯科;小児歯科;整形外科;歯科口腔外科;緩和医療科,0,,
472123,0000000627,沖縄県,豊見城市,医療法人おもと会　大浜第二病院,イリョウホウジンオモトカイ　オオハマダイニビョウイン,病院,豊見城市字渡嘉敷150番地,,26.17271214,127.68348773,(098)851-0103,,,,,,,,,,,内科;リハビリテーション科,0,,
472107,0000000628,沖縄県,糸満市,西崎病院,イリザキビョウイン,病院,糸満市字座波371番地1,,26.14811649,127.68773755,(098)992-0055,,,,,,,,,,,内科;外科;整形外科;皮膚科;リハビリテーション科;泌尿器科;脳神経外科;小児科;胃腸科;こう門科;耳鼻咽喉科;腎臓内科;美容皮膚科,0,,
473502,0000000629,沖縄県,南風原町,沖縄県立南部医療センター・こども医療センター,オキナワケンリツナンブイリョウセンター・コドモイリョウセンター,病院,南風原町字新川118番1,,26.20439773,127.72371703,(098)888-0123,,,,,,,,,,,内科;呼吸器内科;消化器内科;循環器内科;神経内科;外科;呼吸器外科;消化器外科;気管食道外科;心臓血管外科;脳神経外科;小児外科;整形外科;形成外科;精神科;リュウマチ科;小児科;皮膚科;泌尿器科;産科;婦人科;眼科;耳鼻咽喉科;リハビリテ－ション科;放射線科;病理診断科;救急科;歯科口腔外科;麻酔科;その他管理規定で定める診療科目（腎臓内科;血液;腫瘍内科;感染症内科;糖尿病;代謝内科;乳腺外科;小児循環器内科;小児心臓血管外科;小児腎臓内科;小児神経内科;小児血液;腫瘍内科;小児内分泌;代謝内科;小児脳神経外科;小児整形外科;小児形成外科;小児精神科;小児泌尿器科;小児眼科;小児耳鼻咽喉科;新生児内科;小児放射線科;小児麻酔科）,0,,
472158,0000000630,沖縄県,南城市,医療法人真徳会 　沖縄メディカル病院 ,イリョウホウジンマコトトクカイ 　オキナワメディカルビョウイン ,病院,南城市佐敷字津波古西原2310番地,,26.18304820,127.77504999,(098)947-3555,,,,,,,,,,,内科;呼吸器内科;循環器内科;消化器内科;外科;整形外科;皮膚科;耳鼻いんこう科;リハビリテーション科;放射線科,0,,
472085,0000000631,沖縄県,浦添市,牧港中央病院,マキミナトチュウオウビョウイン,病院,浦添市字牧港1199番地,,26.26782468,127.71519536,(098)877-0575,,,,,,,,,,,"内科;循環器内科;心臓血管外科;人工透析内科;消化器内科;外科;
リハビリテーション科;麻酔科;腎臓内科;呼吸器内科;血管外科",0,,
472085,0000000632,沖縄県,浦添市,嶺井第一病院,ミネイダイイチビョウイン,病院,浦添市字大平466番地,,26.24275172,127.71077425,(098)877-5806,,,,,,,,,,,耳鼻咽喉科;脳神経外科;内科;神経内科;整形外科;リハビリテーション科;放射線科;漢方内科;泌尿器科,0,,
472085,0000000633,沖縄県,浦添市,社会医療法人仁愛会　 浦添総合病院,シャカイイリョウホウジンジンアイカイ　 ウラソエソウゴウビョウイン,病院,浦添市伊祖四丁目16番1号,,26.25454277,127.72312031,(098)878-0231,,,,,,,,,,,内科;循環器内科;呼吸器内科;消化器内科;消化器外科;小児科;外科;乳腺外科;肛門外科;整形外科;産科;婦人科;眼科;耳鼻咽喉科;脳神経外科;麻酔科;放射線科;形成外科;アレルギー科;リハビリテーション科;歯科;歯科口腔外科;心臓血管外科;呼吸器外科;食道外科;神経内科;腎臓内科;病理診断科;救急科;腎;泌尿器科,0,,
472085,0000000634,沖縄県,浦添市,医療法人八重瀬会　　同仁病院,イリョウホウジンヤエセカイ　　ドウジンビョウイン,病院,浦添市城間1-37-12,,26.25593103,127.70819623,(098)876-2212,,,,,,,,,,,内科;小児科;外科;整形外科;泌尿器科;皮膚科;歯科;歯科口腔外科;リハビリテーション科;麻酔科;形成外科;循環器内科;呼吸器内科;消化器内科;消化器外科;肛門外科;腎臓内科;放射線科;精神科,0,,
472085,0000000635,沖縄県,浦添市,平安病院,ヒラヤスビョウイン,病院,浦添市字経塚346,,26.23519451,127.72422356,(098)877-6467,,,,,,,,,,,精神科;心療内科;内科;小児科,0,,
473618,0000000636,沖縄県,久米島町,公立久米島病院,コウリツクメジマビョウイン,病院,久米島町字嘉手苅572-3,,26.34207828,126.76502426,(098)985-5555,,,,,,,,,,,内科;小児科;外科;産婦人科;整形外科;耳鼻咽喉科;皮膚科;眼科;精神科;泌尿器科;循環器内科;神経内科;糖尿病内科;リハビリテーション科,0,,
472085,0000000637,沖縄県,浦添市,嶺井リハビリ病院,ミネイリハビリビョウイン,病院,浦添市牧港3丁目1番10号,,26.26006742,127.72761148,(098)874-0100,,,,,,,,,,,内科;呼吸器内科;リハビリテーション科,0,,
472085,0000000638,沖縄県,浦添市,沖縄療育園,オキナワリョウイクエン,病院,浦添市経塚714番地,,26.23697493,127.72542340,(098)877-3478,,,,,,,,,,,内科;小児科;整形外科,0,,
472123,0000000639,沖縄県,豊見城市,豊見城中央病院 ,トミグスクチュウオウビョウイン ,病院,豊見城市字上田25番地,,26.17582784,127.67609581,(098)851-0501,,,,,,,,,,,内科;呼吸器内科;循環器内科;消化器内科;糖尿病;内分泌内科;脳神経内科;外科;整形外科;脳神経外科;精神科;皮膚科;泌尿器科;耳鼻咽喉科;リハビリテーション科;放射線科;歯科;麻酔科;緩和ケア内科;眼科,0,,
472123,0000000640,沖縄県,豊見城市,友愛医療センター ,ユウアイイリョウセンター ,病院,豊見城市字与根50番地5,,26.17090997,127.65425179,(098)850-3811,,,,,,,,,,,内科;呼吸器内科;消化器内科;循環器内科;腎臓内科;脳神経内科;膠原病内科;リウマチ科;精神科;糖尿病;代謝内科;外科;乳腺外科;呼吸器外科;消化器外科;内視鏡外科;血管外科;心臓血管外科;移植外科;小児科;整形外科;緩和ケア外科;産婦人科;産婦人科（不妊治療）;耳鼻咽喉科;眼科;皮膚科;腎;泌尿器外科;脳神経外科;形成外科;美容外科;美容皮膚科;顎顔面外科;麻酔科;放射線科;リハビリテーション科;救急科;病理診断科;歯科,0,,
472107,0000000641,沖縄県,糸満市,医療法人崇穂会　兼島医院,イリョウホウジンタカシホカイ　カネシマイイン,有床診療所,糸満市字糸満1505番地2,,26.12573419,127.67417474,(098)992-4850,,,,,,,,,,,内科;外科;消化器内科;消化器外科;皮膚科;肛門外科;整形外科;泌尿器科;腎臓内科,0,,
472107,0000000642,沖縄県,糸満市,くでけん小児科,クデケンショウニカ,無床診療所,糸満市西崎6-11-8,,26.14361608,127.66912750,(098)994-2099,,,,,,,,,,,小児科,0,,
472107,0000000643,沖縄県,糸満市,健孝クリニック,ケンタカシクリニック,無床診療所,糸満市字潮平714-2,,26.14632160,127.67273564,(098)994-1177,,,,,,,,,,,内科;皮膚科,0,,
472107,0000000644,沖縄県,糸満市,南部整形外科,ナンブセイケイゲカ,無床診療所,糸満市字潮平714-2,,26.14632160,127.67273564,(098)994-1155,,,,,,,,,,,整形外科,0,,
472107,0000000645,沖縄県,糸満市,医療法人水晶会　安里眼科,イリョウホウジンスイショウカイ　アサトガンカ,有床診療所,糸満市字潮平722,,26.14625497,127.67310507,(098)994-1882,,,,,,,,,,,眼科,0,,
472107,0000000646,沖縄県,糸満市,耳鼻咽喉科かおる医院,ジビインコウカカオルイイン,無床診療所,糸満市字潮平705番地4,,26.14551886,127.67208568,(098)994-1133,,,,,,,,,,,耳鼻咽喉科;小児科,0,,
472107,0000000647,沖縄県,糸満市,ハートフルクリニック,ハートフルクリニック,無床診療所,糸満市字武富169-2,,26.16555171,127.69334534,(098)994-7436,,,,,,,,,,,内科;小児科;皮膚科;循環器科;神経内科;外科,0,,
473294,0000000648,沖縄県,西原町,太田小児科医院,オオタショウニカイイン,無床診療所,西原町字小橋川164番1,,26.22607151,127.76388205,(098)946-5081,,,,,,,,,,,小児科;児童精神科,0,,
473294,0000000649,沖縄県,西原町,医療法人和み会　城間医院,イリョウホウジンナゴミカイ　シロマイイン,無床診療所,西原町字翁長240-7,,26.22887373,127.75383821,(098)945-4551,,,,,,,,,,,内科;精神科;神経科,0,,
473294,0000000650,沖縄県,西原町,のびのび整形外科,ノビノビセイケイゲカ,無床診療所,西原町棚原1丁目21番8,,26.24188356,127.75379330,(098)946-5717,,,,,,,,,,,整形外科;リハビリテーション科;内科;放射線科,0,,
472123,0000000651,沖縄県,豊見城市,かでな内科医院,カデナナイカイイン,無床診療所,豊見城市字豊見城753-2,,26.18307454,127.68247270,(098)850-5266,,,,,,,,,,,内科;胃腸科;循環器科;呼吸器科;小児科,0,,
472123,0000000652,沖縄県,豊見城市,とよみクリニック,トヨミクリニック,無床診療所,豊見城市字真玉橋123番地,,26.19415123,127.69558718,(098)856-5700,,,,,,,,,,,"内科;呼吸器科;消化器科;循環器科;小児科;皮膚科
",0,,
472123,0000000653,沖縄県,豊見城市,垣花整形外科医院,カキノハナセイケイゲカイイン,無床診療所,豊見城市字豊見城1007-30,,26.18914309,127.68100822,(098)850-4160,,,,,,,,,,,"整形外科;リハビリテーション科
",0,,
472123,0000000654,沖縄県,豊見城市,軽費老人ホームおなが園診療所,ケイヒロウジンホームオナガエンシンリョウジョ,無床診療所,豊見城市字翁長141,,26.15857917,127.67366045,(098)850-5233,,,,,,,,,,,内科,0,,
472123,0000000655,沖縄県,豊見城市,特別養護老人ホーム良長園内診療所,トクベツヨウゴロウジンホームリョウチョウエンナイシンリョウジョ,無床診療所,豊見城市字金良88,,26.17945315,127.70351278,(098)850-1200,,,,,,,,,,,内科,0,,
473626,0000000656,沖縄県,八重瀬町,特別養護老人ホーム転生園内診療所,トクベツヨウゴロウジンホームテンセイエンナイシンリョウジョ,無床診療所,八重瀬町字安里670,,26.12262716,127.72801735,(098)998-7652,,,,,,,,,,,内科,0,,
472158,0000000657,沖縄県,南城市,特別養護老人ホーム小谷園医務室,トクベツヨウゴロウジンホームオコクエンイムシツ,無床診療所,南城市佐敷字小谷238番1,,26.17342932,127.76339032,(098)947-0990,,,,,,,,,,,内科,0,,
473481,0000000658,沖縄県,与那原町,特別養護老人ホーム 「与那原日の出園」診療所,トクベツヨウゴロウジンホーム 「ヨナハラヒノデエン」シンリョウジョ,無床診療所,与那原町字与那原3782番1,,26.19773539,127.76357237,(098)946-5138,,,,,,,,,,,内科,0,,
472158,0000000659,沖縄県,南城市,医療法人　みなみ耳鼻咽喉科医院,イリョウホウジン　ミナミジビインコウカイイン,無床診療所,南城市大里字仲間1112-5,,26.17495390,127.74747219,(098)946-7033,,,,,,,,,,,耳鼻咽喉科,0,,
473502,0000000660,沖縄県,南風原町,のはら小児科医院,ノハラショウニカイイン,無床診療所,南風原町字兼城258番地,,26.19662096,127.73106690,(098)888-2111,,,,,,,,,,,小児科,0,,
473502,0000000661,沖縄県,南風原町,沖縄県南部保健所,オキナワケンナンブホケンジョ,無床診療所,南風原町字宮平212番地,,26.19903195,127.73889101,(098)889-6351,,,,,,,,,,,内科;歯科,0,,
473502,0000000662,沖縄県,南風原町,沖縄県総合精神保健福祉センター,オキナワケンソウゴウセイシンホケンフクシセンター,無床診療所,南風原町字宮平212,,26.19903195,127.73889101,(098)888-1443,,,,,,,,,,,精神科,0,,
473502,0000000663,沖縄県,南風原町,医療法人　上里整形外科,イリョウホウジン　ウエザトセイケイゲカ,無床診療所,南風原町字兼城401,,26.19658474,127.72443143,(098)888-2227,,,,,,,,,,,整形外科;リハビリテーション科,0,,
473502,0000000664,沖縄県,南風原町,一般財団法人　 沖縄県健康づくり財団附属診療所,イッパンザイダンホウジン　 オキナワケンケンコウヅクリザイダンフゾクシンリョウジョ,無床診療所,南風原町字宮平212番地,,26.19903195,127.73889101,(098)889-6474,,,,,,,,,,,内科;婦人科;小児科;循環器科;消化器科;呼吸器科;外科;皮膚科,0,,
473502,0000000665,沖縄県,南風原町,一日橋医院,イッニッパシイイン,無床診療所,南風原町字兼城497-1,,26.19681519,127.71931802,(098)889-7387,,,,,,,,,,,外科;内科;整形外科;皮膚科,0,,
473502,0000000666,沖縄県,南風原町,医療法人江南会  はえばる皮ふ科医院,イリョウホウジンカンナムカイ  ハエバルヒフカイイン,無床診療所,南風原町字兼城725,,26.19003553,127.73078127,(098)889-7557,,,,,,,,,,,"皮膚科
宛先不明（業務従事者届）のため返送　H26.12.22",0,,
473502,0000000667,沖縄県,南風原町,医療法人江南会   はえばる眼科医院,イリョウホウジンカンナムカイ   ハエバルガンカイイン,無床診療所,南風原町字兼城725,,26.19003553,127.73078127,(098)889-7555,,,,,,,,,,,"眼科
宛先不明（業務従事者届）のため返送　H26.12.22",0,,
473502,0000000668,沖縄県,南風原町,てるや整形外科,テルヤセイケイゲカ,無床診療所,南風原町字津嘉山1595,,26.18385268,127.71262251,(098)888-3636,,,,,,,,,,,"整形外科
",0,,
473626,0000000669,沖縄県,八重瀬町,東風平第一医院,コチンダダイイチイイン,無床診療所,八重瀬町字友寄42番地,,26.17033737,127.72103351,(098)998-6987,,,,,,,,,,,内科;外科;胃腸科;リハビリテーション科,0,,
473626,0000000670,沖縄県,八重瀬町,特別養護老人ホームときわ苑医務室,トクベツヨウゴロウジンホームトキワソノイムシツ,無床診療所,八重瀬町字当銘378番地1,,26.15171649,127.69872824,(098)998-8899,,,,,,,,,,,内科,0,,
472158,0000000671,沖縄県,南城市,特別養護老人ホーム しらゆりの園,トクベツヨウゴロウジンホーム シラユリノエン,無床診療所,南城市知念字久手堅275-1,,26.17127297,127.82618545,(098)948-7060,,,,,,,,,,,内科;精神科,0,,
472158,0000000672,沖縄県,南城市,沖縄刑務所医務課診療所,オキナワケイムショイムカシンリョウジョ,有床診療所,南城市知念字具志堅330,,26.16100099,127.80415983,(098)948-1096,,,,,,,,,,,内科;外科;歯科,0,,
472158,0000000673,沖縄県,南城市,沖縄県立南部医療センター・こども医療センター病院附属久高診療所,オキナワケンリツナンブイリョウセンター・コドモイリョウセンタービョウインフゾククダカシンリョウジョ,無床診療所,南城市知念字久高231-2,,26.15556278,127.88760352,(098)948-1319,,,,,,,,,,,内科;外科;小児科,0,,
473502,0000000674,沖縄県,南風原町,はえばる耳鼻咽喉科,ハエバルジビインコウカ,有床診療所,南風原町字新川163番地,,26.20325349,127.72725012,(098)888-4970,,,,,,,,,,,耳鼻咽喉科,0,,
473294,0000000675,沖縄県,西原町,しらかわ内科,シラカワナイカ,無床診療所,西原町棚原1丁目20番10,,26.24178914,127.75478490,(098)944-3550,,,,,,,,,,,内科;小児科,0,,
473481,0000000676,沖縄県,与那原町,野原整形外科,ノハラセイケイゲカ,無床診療所,与那原町字上与那原341-2,,26.20015156,127.75181763,(098)946-1010,,,,,,,,,,,整形外科;リハビリテーション科,0,,
472107,0000000677,沖縄県,糸満市,かみや母と子のクリニック,カミヤハハトコノクリニック,有床診療所,糸満市字阿波根1552番地2,,26.15158791,127.67259947,(098)995-3511,,,,,,,,,,,産婦人科;小児科,0,,
472107,0000000678,沖縄県,糸満市,かみやクリニック,カミヤクリニック,無床診療所,糸満市字阿波根1552-2,,26.15158791,127.67259947,(098)995-3377,,,,,,,,,,,整形外科;皮膚科;内科;リハビリテーション科,0,,
472107,0000000679,沖縄県,糸満市,特別養護老人ホームいとまんシャトー,トクベツヨウゴロウジンホームイトマンシャトー,無床診療所,糸満市字大里927番2,,26.13535621,127.69174279,(098)995-2425,,,,,,,,,,,内科,0,,
472123,0000000680,沖縄県,豊見城市,特別養護老人ホームすみれ医務室,トクベツヨウゴロウジンホームスミレイムシツ,無床診療所,豊見城市字渡嘉敷150,,26.17271214,127.68348773,(098)851-0100,,,,,,,,,,,内科,0,,
472107,0000000681,沖縄県,糸満市,障害者支援施設　ソフィア医務室,ショウガイシャシエンシセツ　ソフィアイムシツ,無床診療所,糸満市字阿波根1029番地10,,26.15193813,127.67793255,(098)948-7631,,,,,,,,,,,内科,0,,
472107,0000000682,沖縄県,糸満市,医療法人徳洲会　ひめゆりクリニック,イリョウホウジントクシュウカイ　ヒメユリクリニック,無床診療所,糸満市字伊原107-1,,26.09473670,127.68473850,(098)997-3702,,,,,,,,,,,内科;外科;小児科;皮膚科;循環器科;整形外科,0,,
473294,0000000683,沖縄県,西原町,あいわクリニック,アイワクリニック,無床診療所,西原町字池田766番地2,,26.22044093,127.74389759,(098)946-5558,,,,,,,,,,,内科;小児科;リハビリテーション科,0,,
472123,0000000684,沖縄県,豊見城市,医療法人あすなろきっず　 しろま小児科医院,イリョウホウジンアスナロキッズ　 シロマショウニカイイン,無床診療所,豊見城市字豊見城294-2　暁ハイツ2Ｆ,,26.18415459,127.67600895,(098)856-8811,,,,,,,,,,,小児科,0,,
473294,0000000685,沖縄県,西原町,琉球大学保健管理センター,リュウキュウダイガクホケンカンリセンター,無床診療所,西原町字千原1番地,,26.24742496,127.76483670,(098)895-8144,,,,,,,,,,,外科;精神科;内科,0,,
473481,0000000686,沖縄県,与那原町,ながみね内科,ナガミネナイカ,無床診療所,与那原町字与那原1121番地,,26.21054237,127.75958032,(098)882-0777,,,,,,,,,,,循環器科;呼吸器科;消化器科;内科,0,,
472107,0000000687,沖縄県,糸満市,沖縄偕生園　医務室,オキナワカイセイエン　イムシツ,無床診療所,糸満市字小波蔵321番地,,26.10734934,127.66876435,(098)852-4100,,,,,,,,,,,内科,0,,
472123,0000000688,沖縄県,豊見城市,おなが眼科医院,オナガガンカイイン,無床診療所,豊見城市字豊見城437-2,,26.18242441,127.67869513,(098)850-6165,,,,,,,,,,,眼科,0,,
473481,0000000689,沖縄県,与那原町,医療法人あおぞら会　あおぞら小児科,イリョウホウジンアオゾラカイ　アオゾラショウニカ,無床診療所,与那原町字上与那原340-1,,26.20033210,127.75210647,(098)946-1955,,,,,,,,,,,内科;小児科;整形外科;皮膚科;眼科;耳鼻咽喉科;精神科,0,,
472123,0000000690,沖縄県,豊見城市,いしかわ眼科クリニック,イシカワガンカクリニック,有床診療所,豊見城市字高安317番地1,,26.17526473,127.68619845,(098)851-2200,,,,,,,,,,,眼科,0,,
472123,0000000691,沖縄県,豊見城市,しいな整形外科,シイナセイケイゲカ,無床診療所,豊見城市字高安317-1,,26.17526473,127.68619845,(098)850-0417,,,,,,,,,,,整形外科;リハビリテーション科,0,,
473294,0000000692,沖縄県,西原町,にしはら耳鼻咽喉科,ニシハラジビインコウカ,無床診療所,西原町字小波津3-6,,26.22696285,127.75536597,(098)944-1055,,,,,,,,,,,耳鼻咽喉科,0,,
472123,0000000693,沖縄県,豊見城市,社会医療法人友愛会豊見城中央病院附属豊崎クリニック ,シャカイイリョウホウジンユウアイカイトミグスクチュウオウビョウインフゾクトヨサキクリニック ,無床診療所,豊見城市字豊崎1番412,,26.16035588,127.66019949,(098)840-5151,,,,,,,,,,,放射線科,0,,
472123,0000000694,沖縄県,豊見城市,空と海とクリニック,ソラトウミトクリニック,無床診療所,豊見城市宜保2丁目7-7,,26.17881360,127.67596224,(098)840-2000,,,,,,,,,,,内科;小児科;消化器科;呼吸器科;リハビリテーション科,0,,
472107,0000000695,沖縄県,糸満市,てるや眼科クリニック,テルヤガンカクリニック,無床診療所,糸満市字糸満1266-1,,26.12592018,127.66991666,(098)992-0800,,,,,,,,,,,眼科,0,,
473294,0000000696,沖縄県,西原町,SAKU整形クリニック,サクセイケイクリニック,無床診療所,西原町字小波津3-5,,26.22673787,127.75524375,(098)882-0001,,,,,,,,,,,リウマチ科;外科;整形外科;リハビリテーション科,0,,
473294,0000000697,沖縄県,西原町,にしはら皮フ科,ニシハラカワフカ,無床診療所,西原町字小波津3番5,,26.22673787,127.75524375,(098)946-0112,,,,,,,,,,,皮膚科,0,,
473294,0000000698,沖縄県,西原町,しんざと内科,シンザトナイカ,無床診療所,西原町字小波津3-5,,26.22673787,127.75524375,(098)946-5500,,,,,,,,,,,内科;呼吸器科;消化器科;循環器科;アレルギー科;リウマチ科;小児科,0,,
472123,0000000699,沖縄県,豊見城市,田仲医院,タナカイイン,無床診療所,豊見城市宜保2丁目1-9,,26.17762497,127.67775119,(098)850-7474,,,,,,,,,,,内科,0,,
472123,0000000700,沖縄県,豊見城市,もりクリニック,モリクリニック,無床診療所,豊見城市宜保2丁目1番地5,,26.17714440,127.67687902,(098)856-1500,,,,,,,,,,,内科;小児科;皮膚科;呼吸器科;消化器科;循環器科,0,,
472107,0000000701,沖縄県,糸満市,みなみしまクリニック,ミナミシマクリニック,無床診療所,糸満市字潮平787番地17,,26.15097122,127.67143285,(098)840-3730,,,,,,,,,,,内科,0,,
472123,0000000702,沖縄県,豊見城市,高橋クリニック,タカハシクリニック,無床診療所,豊見城市字与根8番地15,,26.17304336,127.65758222,(098)851-1971,,,,,,,,,,,内科;呼吸器科;胃腸科;循環器科;小児科;外科;整形外科;皮膚科;こう門科,0,,
472107,0000000703,沖縄県,糸満市,aｍ皮膚科クリニック,アムヒフカクリニック,無床診療所,糸満市字潮平787番5,,26.15082122,127.67132730,(098)995-1212,,,,,,,,,,,皮膚科,0,,
473294,0000000704,沖縄県,西原町,うるま婦人寮診療所,ウルマフジンリョウシンリョウジョ,無床診療所,西原町字兼久110-2,,26.21701413,127.76620729,(098)945-6151,,,,,,,,,,,内科,0,,
472158,0000000705,沖縄県,南城市,みなみ野クリニック　,ミナミノクリニック　,無床診療所,南城市大里字平良2584番地2,,26.18057283,127.74791630,(098)945-8811,,,,,,,,,,,脳神経外科;内科;心療内科;外科;整形外科;リハビリテーション科;精神科,0,,
473502,0000000706,沖縄県,南風原町,吉クリニック,ヨシクリニック,無床診療所,南風原町字神里495,,26.17287329,127.72764097,(098)888-5552,,,,,,,,,,,内科,0,,
472123,0000000707,沖縄県,豊見城市,"なかそね整形外科リハビリクリニック	","ナカソネセイケイゲカリハビリクリニック	",無床診療所,豊見城市字豊見城444番2,,26.18296316,127.67747290,(098)851-0255,,,,,,,,,,,整形外科;リハビリテーション科;リウマチ科,0,,
473626,0000000708,沖縄県,八重瀬町,東風平クリニック,コチンダクリニック,無床診療所,八重瀬町字伊覇254番地3　メゾンあらかき1Ｆ,,26.15709956,127.72166170,(098)998-6636,,,,,,,,,,,内科;小児科,0,,
472158,0000000709,沖縄県,南城市,特別養護老人ホーム東雲の丘　医務室,トクベツヨウゴロウジンホームシノノメノオカ　イムシツ,無床診療所,南城市大里字大城1392番地,,26.16741603,127.76511824,(098)946-2051,,,,,,,,,,,内科,0,,
472107,0000000710,沖縄県,糸満市,医療法人水平会　豆の木クリニック,イリョウホウジンスイヘイカイ　マメノキクリニック,無床診療所,糸満市字潮平764番地1,,26.14933801,127.67162175,(098)995-3030,,,,,,,,,,,内科;腎臓内科（人工透析）,0,,
472123,0000000711,沖縄県,豊見城市,とくとくクリニック,トクトククリニック,無床診療所,豊見城市字豊見城444番地2,,26.18296316,127.67747290,(098)851-0277,,,,,,,,,,,循環器科;内科,0,,
473294,0000000712,沖縄県,西原町,玄米クリニック,ゲンマイクリニック,無床診療所,西原町字翁長834番地　トムズエンタープライズビル2Ｆ,,26.23618133,127.75371296,(098)944-6663,,,,,,,,,,,内科;循環器科,0,,
472123,0000000713,沖縄県,豊見城市,上地耳鼻咽喉科,ウエチジビインコウカ,無床診療所,豊見城市字我那覇476番地1,,26.17664708,127.67452634,(098)850-8787,,,,,,,,,,,耳鼻咽喉科,0,,
473481,0000000714,沖縄県,与那原町,まつだクリニック,マツダクリニック,無床診療所,与那原町字与那原3678番地,,26.19966570,127.76091969,(098)944-7400,,,,,,,,,,,整形外科;リハビリテーション科;婦人科,0,,
472123,0000000715,沖縄県,豊見城市,うえず内科クリニック,ウエズナイカクリニック,無床診療所,豊見城市宜保2丁目7番地1,,26.17815256,127.67584285,(098)891-6688,,,,,,,,,,,内科;リウマチ科;腎臓内科;糖尿病内科;脂質代謝内科,0,,
473502,0000000716,沖縄県,南風原町,比嘉胃腸科内科,ヒガイチョウカナイカ,無床診療所,南風原字照屋362番地,,26.19114371,127.72855086,(098)882-7000,,,,,,,,,,,胃腸科;内科,0,,
473502,0000000717,沖縄県,南風原町,ウィメンズメンタルクリニック　みなみ,ウィメンズメンタルクリニック　ミナミ,無床診療所,南風原町字新川507番1,,26.21324405,127.72794934,(098)889-3739,,,,,,,,,,,"心療内科;精神科
",0,,
473294,0000000718,沖縄県,西原町,特別養護老人ホーム守礼の里診療所,トクベツヨウゴロウジンホームシュレイノサトシンリョウジョ,無床診療所,西原町字掛保久346番地,,26.23343492,127.77318660,(098)945-0028,,,,,,,,,,,内科,0,,
472158,0000000719,沖縄県,南城市,大里こどもクリニック,オオサトコドモクリニック,無床診療所,南城市大里字平良2545番地1,,26.17798696,127.74771090,(098)882-8111,,,,,,,,,,,小児科,0,,
472107,0000000720,沖縄県,糸満市,障害者支援施設　更生ソフィア　医務室,ショウガイシャシエンシセツ　コウセイソフィア　イムシツ,無床診療所,糸満市字阿波根1021,,26.15208815,127.67854363,(098)994-1717,,,,,,,,,,,内科;整形外科,0,,
472123,0000000721,沖縄県,豊見城市,みやぎ内科,ミヤギナイカ,無床診療所,豊見城市字翁長869,,26.16158966,127.66796047,(098)988-6100,,,,,,,,,,,内科;消化器科,0,,
473626,0000000722,沖縄県,八重瀬町,中村内科胃腸科,ナカムラナイカイチョウカ,無床診療所,八重瀬町字具志頭154番地9,,26.12369163,127.74861002,(098)840-7778,,,,,,,,,,,内科;胃腸科,0,,
473294,0000000723,沖縄県,西原町,南西石油　医務室,ナンセイセキユ　イムシツ,無床診療所,西原町字小那覇858番地,,26.22683298,127.77960305,(098)945-3335,,,,,,,,,,,内科,0,,
473502,0000000724,沖縄県,南風原町,沖縄県小児保健協会附属クリニック,オキナワケンショウニホケンキョウカイフゾククリニック,無床診療所,南風原町字新川218-11,,26.20578929,127.72596672,(098)963-8462,,,,,,,,,,,小児科;心療内科;眼科;耳鼻咽頭科;精神科;皮膚科;歯科,0,,
472123,0000000725,沖縄県,豊見城市,社会医療法人友愛会　豊見城中央病院附属健康管理センター,シャカイイリョウホウジンユウアイカイ　トミグスクチュウオウビョウインフゾクケンコウカンリセンター,無床診療所,豊見城市字豊崎3番49,,26.16004709,127.65228301,(098)852-2000,,,,,,,,,,,内科;乳腺外科;婦人科,0,,
472123,0000000726,沖縄県,豊見城市,渡名喜眼科,トナキガンカ,無床診療所,豊見城市字名嘉地220番地4,,26.17411872,127.66373490,(098)891-6234,,,,,,,,,,,眼科,0,,
473502,0000000727,沖縄県,南風原町,心のクリニック　さくら,ココロノクリニック　サクラ,無床診療所,南風原町字与那覇283番地,,26.20041515,127.73886870,(098)851-7888,,,,,,,,,,,心療内科;精神科,0,,
472107,0000000728,沖縄県,糸満市,がじまる診療所,ガジマルシンリョウジョ,無床診療所,糸満市西崎2丁目26番6号,,26.14038548,127.66260008,(098)851-3347,,,,,,,,,,,内科;小児科,0,,
472107,0000000729,沖縄県,糸満市,みんなのクリニック,ミンナノクリニック,無床診療所,糸満市字真栄里2029-11,,26.12116777,127.67062505,(098)840-3733,,,,,,,,,,,内科;胃腸内科,0,,
472158,0000000730,沖縄県,南城市,南城眼科,ナンジョウガンカ,無床診療所,南城市玉城字堀川695-1,,26.12987211,127.76248091,(098)949-1680,,,,,,,,,,,眼科,0,,
473481,0000000731,沖縄県,与那原町,よなみね眼科,ヨナミネガンカ,無床診療所,与那原町字東浜94番地1,,26.20522897,127.75734467,(098)944-1351,,,,,,,,,,,眼科,0,,
473294,0000000732,沖縄県,西原町,ハートライフクリニック ,ハートライフクリニック ,無床診療所,西原町字掛保久288番地,,26.23622906,127.77230044,(098)882-0810,,,,,,,,,,,内科;糖尿病内科;小児科,0,,
472123,0000000733,沖縄県,豊見城市,朋友クリニック,ホウユウクリニック,無床診療所,豊見城市字上田1-17,,26.17571706,127.68034576,(098)840-2288,,,,,,,,,,,脳神経外科;神経内科;リハビリテーション科;放射線科;内科;整形外科;外科;心療内科;小児科,0,,
472123,0000000734,沖縄県,豊見城市,松岡医院,マツオカイイン,無床診療所,豊見城市字高嶺395番地56,,26.16722659,127.69678657,(098)850-7977,,,,,,,,,,,内科;循環器科,0,,
472158,0000000735,沖縄県,南城市,南城つはこクリニック ,ナンジョウツハコクリニック ,無床診療所,南城市佐敷津波古433番地　コート山城1階,,26.18403976,127.77446665,(098)947-3722,,,,,,,,,,,内科;外科;心療内科;精神科,0,,
472123,0000000736,沖縄県,豊見城市,なかまクリニック,ナカマクリニック,無床診療所,豊見城市字豊見城372-1,,26.18286583,127.67529521,(098)858-1998-,,,,,,,,,,,精神科;心療内科;内科;神経科,0,,
472158,0000000737,沖縄県,南城市,ふじた眼科,フジタガンカ,無床診療所,南城市佐敷字津波古249番地　1階,,26.18380085,127.77274735,(098)943-8700,,,,,,,,,,,眼科,0,,
473502,0000000738,沖縄県,南風原町,みやぐに皮フ科,ミヤグニカワフカ,無床診療所,南風原町字津嘉山1490番地　メディカルプラザつかざん3Ｆ　,,26.18992140,127.70838913,(098)888-4112,,,,,,,,,,,皮膚科,0,,
473502,0000000739,沖縄県,南風原町,わんぱくクリニック,ワンパククリニック,無床診療所,南風原町字津嘉山1490番地,,26.18992140,127.70838913,(098)888-1234,,,,,,,,,,,小児科,0,,
473502,0000000740,沖縄県,南風原町,南風内科クリニック,ミナミカゼナイカクリニック,無床診療所,南風原町字津嘉山1490番地　メディカルプラザつかざん3階,,26.18992140,127.70838913,(098)888-2121,,,,,,,,,,,内科;呼吸器内科;心療内科;小児科;婦人科;外科;整形外科;皮膚科;耳鼻咽喉科;眼科,0,,
472123,0000000741,沖縄県,豊見城市,伊佐内科クリニック,イサナイカクリニック,無床診療所,豊見城市字真玉橋285-1　とよみメディカルビル4Ｆ,,26.19016550,127.69003529,(098)851-8828,,,,,,,,,,,内科;循環器内科;神経内科,0,,
473502,0000000742,沖縄県,南風原町,つかやま内科,ツカヤマナイカ,無床診療所,南風原町字津嘉山1674,,26.18363325,127.71285027,(098)888-6610,,,,,,,,,,,内科,0,,
473502,0000000743,沖縄県,南風原町,発達・神経クリニック　プロップ,ハッタツ・シンケイクリニック　プロップ,無床診療所,南風原町字新川215番地3,,26.20400063,127.72713896,(098)987-1233,,,,,,,,,,,精神科;小児科;内科,0,,
472158,0000000744,沖縄県,南城市,クリニックつきしろ（５条関係　往診のみ）,クリニックツキシロ（５ジョウカンケイ　オウシンノミ）,無床診療所,南城市字つきしろ1232番地11,,26.15906191,127.79173310,,,,,,,,,,,,内科;心療内科;神経内科;精神科,0,,
472085,0000000745,沖縄県,浦添市,浦添中央医院,ウラソエチュウオウイイン,無床診療所,浦添市安波茶1-21-27,,26.24641000,127.71907635,(098)877-1611,,,,,,,,,,,胃腸科;外科;整形外科;皮膚科;泌尿器科;内科;小児科,0,,
472085,0000000746,沖縄県,浦添市,末吉内科外科胃腸科医院,スエヨシナイカゲカイチョウカイイン,有床診療所,浦添市内間4丁目1番18号,,26.23880465,127.70510807,(098)878-2271,,,,,,,,,,,胃腸科;外科;整形外科;皮膚科;泌尿器科;肛門科;リハビリテーション科;麻酔科;内科,0,,
472085,0000000747,沖縄県,浦添市,丸勝中央クリニック,マルマサルチュウオウクリニック,有床診療所,浦添市大平1-28-1,,26.24793736,127.71027133,(098)878-5500,,,,,,,,,,,外科;整形外科;胃腸内科;皮膚科;肛門外科,0,,
472085,0000000748,沖縄県,浦添市,内科小児科なかざとクリニック,ナイカショウニカナカザトクリニック,無床診療所,浦添市城間3-2-2,,26.25689223,127.71304589,(098)875-1126,,,,,,,,,,,内科;循環器科;呼吸器科;消化器科;小児科;皮膚科;リハビリテーション科,0,,
472085,0000000749,沖縄県,浦添市,たから小児科医院,タカラショウニカイイン,無床診療所,浦添市大平1丁目36番5号,,26.24708185,127.70933253,(098)878-8777,,,,,,,,,,,小児科;内科;耳鼻咽喉科;精神科;泌尿器科;皮膚科,0,,
472085,0000000750,沖縄県,浦添市,バークレー整形外科スポーツクリニック,バークレーセイケイゲカスポーツクリニック,無床診療所,浦添市当山2丁目2番11-201号,,26.25268774,127.73839693,(098)879-8666,,,,,,,,,,,整形外科;外科;内科;リハビリテーション科,0,,
472085,0000000751,沖縄県,浦添市,なかそね内科循環器科,ナカソネナイカジュンカンキカ,無床診療所,浦添市内間4-1-2,,26.23807970,127.70462758,(098)874-1155,,,,,,,,,,,内科;循環器科;呼吸器科;消化器科,0,,
473545,0000000752,沖縄県,座間味村,沖縄県立南部医療センター・こども医療センター附属阿嘉診療所,オキナワケンリツナンブイリョウセンター・コドモイリョウセンターフゾクアカシンリョウジョ,無床診療所,座間味村阿嘉68,,26.19034247,127.28162306,(098)987-2002,,,,,,,,,,,内科;外科;小児科,0,,
473553,0000000753,沖縄県,粟国村,特別養護老人ホームあぐに,トクベツヨウゴロウジンホームアグニ,無床診療所,粟国村字東1796番地,,26.58422486,127.23119185,(098)988-2082,,,,,,,,,,,内科;外科,0,,
472085,0000000754,沖縄県,浦添市,ティーダこどもクリニック,ティーダコドモクリニック,無床診療所,浦添市城間4丁目3番10-1号,,26.25592847,127.71459582,(098)873-2020,,,,,,,,,,,小児科;内科;心療内科;アレルギー科;整形外科;皮膚科,0,,
472085,0000000755,沖縄県,浦添市,医療法人　豊誠会　牧港クリニック,イリョウホウジン　ユタカマコトカイ　マキミナトクリニック,有床診療所,浦添市牧港4-24-7,,26.26495868,127.72861676,(098)871-1500,,,,,,,,,,,麻酔科;ペインクリニック内科;整形外科;リハビリテーション科,0,,
473553,0000000756,沖縄県,粟国村,沖縄県立南部医療センター・こども医療センター附属粟国診療所,オキナワケンリツナンブイリョウセンター・コドモイリョウセンターフゾクアグニシンリョウジョ,無床診療所,粟国村字東573,,26.58179451,127.22778662,(098)988-2003,,,,,,,,,,,内科;外科;小児科,0,,
472085,0000000757,沖縄県,浦添市,池村クリニック,イケムラクリニック,無床診療所,浦添市伊祖3丁目13番8号,,26.25623420,127.72011770,(098)869-5762,,,,,,,,,,,外科;胃腸科;肛門科;内科,0,,
472085,0000000758,沖縄県,浦添市,医療法人　エイチ・エス・アール　名嘉村クリニック,イリョウホウジン　エイチ・エス・アール　ナカムラクリニック,有床診療所,浦添市伊祖4丁目2番1-201号,,26.25397050,127.72043161,(098)870-6600,,,,,,,,,,,内科;呼吸器科;循環器科;精神科;消化器科;小児科;リハビリテーション科;アレルギー科;呼吸器外科,0,,
472085,0000000759,沖縄県,浦添市,浦添協同クリニック,ウラソエキョウドウクリニック,無床診療所,浦添市宮城3丁目1番5号　サンハイツN201号,,26.24628463,127.70750211,(098)870-8060,,,,,,,,,,,内科;小児科;外科,0,,
472085,0000000760,沖縄県,浦添市,みどり耳鼻咽喉科,ミドリジビインコウカ,無床診療所,浦添市宮城4丁目2番1号,,26.24479304,127.70596337,(098)874-7070,,,,,,,,,,,耳鼻咽喉科,0,,
472085,0000000761,沖縄県,浦添市,東産婦人科クリニック ,ヒガシサンフジンカクリニック ,無床診療所,浦添市安波茶1丁目30番17号,,26.24812648,127.71806526,(098)878-9367,,,,,,,,,,,産科;婦人科,0,,
472085,0000000762,沖縄県,浦添市,かじまやークリニック,カジマヤークリニック,無床診療所,浦添市字前田997,,26.23766939,127.72856759,(098)871-0818,,,,,,,,,,,内科;小児科;リハビリテーション科,0,,
472085,0000000763,沖縄県,浦添市,浦西医院,ウラニシイイン,無床診療所,浦添市当山2丁目9-3,,26.24866031,127.73775267,(098)878-7070,,,,,,,,,,,内科;小児科;皮膚科;外科,0,,
472085,0000000764,沖縄県,浦添市,浦添セレブクリニック胃腸科・内科,ウラソエセレブクリニックイチョウカ・ナイカ,無床診療所,浦添市城間2-7-1-101,,26.25538400,127.71234321,(098)871-0123,,,,,,,,,,,胃腸科;内科,0,,
472085,0000000765,沖縄県,浦添市,みゆき小児科,ミユキショウニカ,無床診療所,浦添市前田3丁目3番8-103号,,26.24494398,127.73810830,(098)878-5828,,,,,,,,,,,小児科,0,,
472085,0000000766,沖縄県,浦添市,徳山内科医院,トクヤマナイカイイン,無床診療所,浦添市大平1-1-11,,26.24932353,127.71573204,(098)875-8700,,,,,,,,,,,内科;リウマチ科;小児科,0,,
472085,0000000767,沖縄県,浦添市,補聴相談のひろば,ホチョウソウダンノヒロバ,無床診療所,浦添市仲間1-2-6,,26.24830987,127.72020401,(098)879-3952,,,,,,,,,,,耳鼻咽喉科,0,,
472085,0000000768,沖縄県,浦添市,医療法人清心会　徳山クリニック,イリョウホウジンチョンシンカイ　トクヤマクリニック,無床診療所,浦添市牧港2丁目46番12-102号,,26.26532803,127.72591420,(098)942-1001,,,,,,,,,,,内科;循環器内科;リウマチ科;腎臓内科;人工透析内科,0,,
472085,0000000769,沖縄県,浦添市,ロクト整形外科クリニック,ロクトセイケイゲカクリニック,無床診療所,浦添市牧港2丁目46番12-202号,,26.26532803,127.72591420,(098)878-6910,,,,,,,,,,,整形外科;リハビリテーション科,0,,
472085,0000000770,沖縄県,浦添市,医療法人菜の花会　佐久田脳神経外科．外科,イリョウホウジンナノハナカイ　サクタノウシンケイゲカ．ゲカ,無床診療所,浦添市牧港2丁目46番12号,,26.26532803,127.72591420,(098)870-7677,,,,,,,,,,,脳神経外科;外科;内科;リハビリテーション科;放射線科,0,,
473618,0000000771,沖縄県,久米島町,特別養護老人ホーム　くめしま,トクベツヨウゴロウジンホーム　クメシマ,無床診療所,久米島町字兼城1464番5,,26.35457944,126.76417081,(098)985-4569,,,,,,,,,,,,0,,
473545,0000000772,沖縄県,座間味村,沖縄県立南部医療センター・こども医療センター附属座間味診療所,オキナワケンリツナンブイリョウセンター・コドモイリョウセンターフゾクザマミシンリョウジョ,無床診療所,座間味村字座間味441-1,,26.22967717,127.30282846,(098)987-2024,,,,,,,,,,,内科;外科;小児科,0,,
473537,0000000773,沖縄県,渡嘉敷村,沖縄県立南部医療センター・こども医療センター附属渡嘉敷診療所,オキナワケンリツナンブイリョウセンター・コドモイリョウセンターフゾクトカシキシンリョウジョ,無床診療所,渡嘉敷村字渡嘉敷277,,26.19697660,127.36567139,(098)987-2028,,,,,,,,,,,内科;外科;小児科,0,,
473561,0000000774,沖縄県,渡名喜村,沖縄県立南部医療センター・こども医療センター附属渡名喜診療所,オキナワケンリツナンブイリョウセンター・コドモイリョウセンターフゾクトナキシンリョウジョ,無床診療所,渡名喜村1916-1,,26.37154695,127.14079697,(098)989-2003,,,,,,,,,,,内科;外科;小児科,0,,
473570,0000000775,沖縄県,南大東村,沖縄県立南部医療センター・こども医療センター附属南大東診療所,オキナワケンリツナンブイリョウセンター・コドモイリョウセンターフゾクミナミダイトウシンリョウジョ,無床診療所,南大東村字在所183-4,,25.82942742,131.23196839,(098)022-2850,,,,,,,,,,,内科;外科;小児科,0,,
473588,0000000776,沖縄県,北大東村,沖縄県立南部医療センター・こども医療センター附属北大東診療所,オキナワケンリツナンブイリョウセンター・コドモイリョウセンターフゾクキタダイトウシンリョウジョ,無床診療所,北大東村字中野209-10　,,25.94479165,131.29825236,(098)023-4005,,,,,,,,,,,内科;外科;小児科,0,,
472085,0000000777,沖縄県,浦添市,げんか耳鼻咽喉科,ゲンカジビインコウカ,無床診療所,浦添市伊祖2-3-1　2Ｆ,,26.25320926,127.71432370,(098)876-9500,,,,,,,,,,,耳鼻咽喉科;気管食道科,0,,
472085,0000000778,沖縄県,浦添市,山本クリニック,ヤマモトクリニック,無床診療所,浦添市伊祖2丁目30番7-101号,,26.25331768,127.71746794,(098)879-3303,,,,,,,,,,,心療内科;神経科;精神科,0,,
472085,0000000779,沖縄県,浦添市,くに整形外科,クニセイケイゲカ,無床診療所,浦添市沢岻2丁目2番15号,,26.23380832,127.71725746,(098)877-2660,,,,,,,,,,,整形外科;リハビテーション科;麻酔科;内科,0,,
472085,0000000780,沖縄県,浦添市,社会医療法人仁愛会　浦添総合病院健診センター,シャカイイリョウホウジンジンアイカイ　ウラソエソウゴウビョウインケンシンセンター,無床診療所,浦添市伊祖3丁目42番15号,,26.25853961,127.72172031,(098)878-0231,,,,,,,,,,,内科;婦人科;歯科,0,,
472085,0000000781,沖縄県,浦添市,かみやま皮フ科,カミヤマカワフカ,無床診療所,浦添市牧港4丁目2番18号　2Ｆ,,26.26375876,127.72693641,(098)878-4112,,,,,,,,,,,皮膚科;美容皮膚科,0,,
472085,0000000782,沖縄県,浦添市,あかみねクリニック,アカミネクリニック,無床診療所,浦添市沢岻2-1-1,,26.23392501,127.71838793,(098)873-0071,,,,,,,,,,,内科;胃腸科;消化器科;小児科;皮膚科;リハビリテーション科,0,,
472085,0000000783,沖縄県,浦添市,みやざと内科クリニック,ミヤザトナイカクリニック,無床診療所,浦添市宮城2-17-1,,26.24752617,127.70704655,(098)875-7000,,,,,,,,,,,内科;呼吸器内科;消化器内科;循環器内科;アレルギー科;リウマチ科;腎臓内科（人工透析）,0,,
472085,0000000784,沖縄県,浦添市,ちねん眼科,チネンガンカ,無床診療所,浦添市前田1丁目12番7号,,26.24281915,127.73692513,(098)875-1010,,,,,,,,,,,眼科,0,,
472085,0000000785,沖縄県,浦添市,なかむら小児クリニック,ナカムラショウニクリニック,無床診療所,浦添市宮城4丁目15番8号,,26.24555678,127.70374681,(098)873-3900,,,,,,,,,,,小児科,0,,
472085,0000000786,沖縄県,浦添市,バークレー内科,バークレーナイカ,無床診療所,浦添市当山2丁目2番11号　バークレーズメディカルモール3Ｆ,,26.25268774,127.73839693,(098)875-0890,,,,,,,,,,,内科;呼吸器科;消化器科;循環器科;小児科;外科;整形外科;皮膚科,0,,
472085,0000000787,沖縄県,浦添市,下地内科,シモジナイカ,無床診療所,浦添市宮城4丁目2番1号,,26.24479304,127.70596337,(098)874-7007,,,,,,,,,,,内科;呼吸器内科;アレルギー科,0,,
472085,0000000788,沖縄県,浦添市,かりまた内科医院,カリマタナイカイイン,有床診療所,浦添市内間4丁目23番21号,,26.24118490,127.70229983,(098)878-5126,,,,,,,,,,,内科;小児科;呼吸器科;循環器科;胃腸科;放射線科;リハビリテーション科;アレルギー科;リウマチ科,0,,
472085,0000000789,沖縄県,浦添市,ぐるんぱ小児科,グルンパショウニカ,無床診療所,浦添市当山2-2-11　4階,,26.25268774,127.73839693,(098)871-1737,,,,,,,,,,,小児科;内科;産科,0,,
473618,0000000790,沖縄県,久米島町,球美の島診療所,タマビノシマシンリョウジョ,無床診療所,久米島町字真我里78,,26.33346877,126.79468632,(098)896-8036,,,,,,,,,,,内科;外科,0,,
472085,0000000791,沖縄県,浦添市,みやぎ内科循環器科ファミリークリニック,ミヤギナイカジュンカンキカファミリークリニック,無床診療所,浦添市伊祖2丁目3番地6-1,,26.25388696,127.71405148,(098)871-3088,,,,,,,,,,,内科;循環器内科;消化器内科;呼吸器内科;小児科;皮膚科,0,,
472085,0000000792,沖縄県,浦添市,ひがハートクリニック,ヒガハートクリニック,無床診療所,浦添市港川2丁目23番2号,,26.26470829,127.71488163,(098)875-4810,,,,,,,,,,,循環器内科;内科,0,,
472085,0000000793,沖縄県,浦添市,稲福内科医院,イナフクナイカイイン,無床診療所,浦添市字経塚633番地　メディカルKプラザ1Ｆ,,26.23751365,127.72178755,(098)988-4556,,,,,,,,,,,内科;神経内科;整形外科;小児科;皮膚科,0,,
472085,0000000794,沖縄県,浦添市,かもめクリニック,カモメクリニック,無床診療所,浦添市字経塚633番地　メディカルKプラザ3Ｆ,,26.23751365,127.72178755,(098)988-0326,,,,,,,,,,,精神科;心療内科;内科,0,,
472085,0000000795,沖縄県,浦添市,向井わらびークリニック,ムカイワラビークリニック,無床診療所,浦添市字経塚633番地　メディカルプラザ4Ｆ,,26.23751365,127.72178755,(098)894-3646,,,,,,,,,,,小児科;内科;皮膚科,0,,
472085,0000000796,沖縄県,浦添市,バークレーレディースクリニック,バークレーレディースクリニック,有床診療所,浦添市当山2-2-11　バ-クレ-ズメディカルモール5Ｆ,,26.25268774,127.73839693,(098)873-1135,,,,,,,,,,,産科;婦人科,0,,
472085,0000000797,沖縄県,浦添市,高宮城皮フ科,タカミヤギカワフカ,無床診療所,浦添市字経塚676-1　101号,,26.23776371,127.72447901,,,,,,,,,,,,皮膚科;アレルギー科,0,,
473618,0000000798,沖縄県,久米島町,特別養護老人ホーム　球美の杜　医務室,トクベツヨウゴロウジンホーム　タマビノモリ　イムシツ,無床診療所,久米島町字嘉手苅533番地1,,26.34135612,126.76348832,(098)985-3900,,,,,,,,,,,内科;外科,0,,
472085,0000000799,沖縄県,浦添市,バークレーいむろ心のクリニック,バークレーイムロココロノクリニック,無床診療所,浦添市当山2丁目2番11号　バ-クレ-ズメディカルモール3階,,26.25268774,127.73839693,(098)877-7700,,,,,,,,,,,心療内科;精神科,0,,
472085,0000000800,沖縄県,浦添市,とぐち耳鼻咽喉科,トグチジビインコウカ,無床診療所,浦添市牧港4丁目2番18号　ザ・イイトウク1Ｆ,,26.26375876,127.72693641,(098)873-3387,,,,,,,,,,,耳鼻咽喉科,0,,
472085,0000000801,沖縄県,浦添市,しみず胃腸内科21,シミズイチョウナイカ21,無床診療所,浦添市宮城6丁目1番15号　浦添メディカルプラザ3Ｆ,,26.24661244,127.70941587,(098)879-0021,,,,,,,,,,,内科;消化器内科;胃腸内科;内視鏡内科,0,,
472085,0000000802,沖縄県,浦添市,砂辺　腎・泌尿器科,スナベ　ジン・ヒニョウキカ,無床診療所,浦添市伊祖2丁目2番5号,,26.25257041,127.71409040,(098)943-7773,,,,,,,,,,,泌尿器科;内科,0,,
472085,0000000803,沖縄県,浦添市,大田クリニック,オオタクリニック,無床診療所,浦添市字経塚745番地7　経塚駅前医療モール2階,,26.23545563,127.72585121,(098)871-1234,,,,,,,,,,,心療内科;精神科,0,,
473294,0000000804,沖縄県,西原町,ゆいゆい内科クリニック,ユイユイナイカクリニック,無床診療所,西原町字我謝786-11,,26.21310605,127.76124396,(098)946-0055,,,,,,,,,,,内科;糖尿病内科,0,,
472123,0000000805,沖縄県,豊見城市,愛ホームクリニック（５条関係　往診のみ）,アイホームクリニック（５ジョウカンケイ　オウシンノミ）,無床診療所,豊見城市字上田565番地,,26.17521992,127.68074302,(098)943-5788,,,,,,,,,,,内科;小児科;皮膚科,0,,
472085,0000000806,沖縄県,浦添市,Naoko女性クリニック,ナオコジョセイクリニック,無床診療所,浦添市字経塚745番地7　経塚駅前医療モール2Ｆ,,26.23545563,127.72585121,(098)988-9811,,,,,,,,,,,婦人科;漢方内科,0,,
473626,0000000807,沖縄県,八重瀬町,やえせ整形外科 ,ヤエセセイケイゲカ ,無床診療所,八重瀬町字伊覇258番地2,,26.15792171,127.72200052,(098)851-4888,,,,,,,,,,,整形外科;リハビリテーション科,0,,
473626,0000000808,沖縄県,八重瀬町,やえせ眼科　,ヤエセガンカ　,無床診療所,八重瀬町字伊覇65番27,,26.15946326,127.72168940,(098)998-1188,,,,,,,,,,,眼科,0,,
472123,0000000809,沖縄県,豊見城市,さくもと泌尿器科・皮フ科,サクモトヒニョウキカ・カワフカ,無床診療所,豊見城市宜保5丁目1番地1,,26.18009152,127.68087029,(098)851-0022,,,,,,,,,,,泌尿器科;皮膚科,0,,
472085,0000000810,沖縄県,浦添市,マンマ家クリニック,マンマケクリニック,無床診療所,浦添市字経塚633番地　メディカルＫプラザ2階,,26.23751365,127.72178755,(098)988-4141,,,,,,,,,,,乳腺;甲状腺科;外科,0,,
472085,0000000811,沖縄県,浦添市,医療法人ガレンの会　浦添さかい眼科,イリョウホウジンガレンノカイ　ウラソエサカイガンカ,無床診療所,浦添市宮城6丁目1番21号　2階,,26.24610688,127.70790764,(098)988-1376,,,,,,,,,,,眼科,0,,
473626,0000000812,沖縄県,八重瀬町,沖縄こどもとおとなの整形外科,オキナワコドモトオトナノセイケイゲカ,無床診療所,八重瀬町字東風平1209番地,,26.15645793,127.71915089,(098)840-7770,,,,,,,,,,,整形外科;小児整形外科;リハビリテーション科,0,,
472123,0000000813,沖縄県,豊見城市,ぐしこどもクリニック,グシコドモクリニック,無床診療所,豊見城市宜保2丁目6番地4,,26.17708044,127.67559016,(098)850-3102,,,,,,,,,,,小児科,0,,
472085,0000000814,沖縄県,浦添市,てぃーら整形外科,ティーラセイケイゲカ,無床診療所,浦添市屋富祖3丁目34番2号　メディカルプラザたろう2Ｆ,,26.25212289,127.70419104,(098)874-7766,,,,,,,,,,,整形外科;リハビリテーション科;ペインクリニック整形外科,0,,
472085,0000000815,沖縄県,浦添市,なしろハルンクリニック,ナシロハルンクリニック,無床診療所,浦添市屋富祖3丁目34番2号　メディカルプラザたろう3Ｆ,,26.25212289,127.70419104,(098)877-7777,,,,,,,,,,,泌尿器科;皮膚科;内科,0,,
472158,0000000816,沖縄県,南城市,特別養護老人ホーム　朝日の家　医務室,トクベツヨウゴロウジンホーム　アサヒノイエ　イムシツ,無床診療所,南城市玉城字喜良原526番地,,26.15985297,127.77212075,(098)948-7631,,,,,,,,,,,内科,0,,
472107,0000000817,沖縄県,糸満市,糸満協同診療所,イトマンキョウドウシンリョウジョ,無床診療所,糸満市潮崎町2丁目1-10,,26.12371471,127.66737519,(098)992-3920,,,,,,,,,,,内科;整形外科,0,,
472123,0000000818,沖縄県,豊見城市,かかず耳鼻咽喉科クリニック,カカズジビインコウカクリニック,無床診療所,豊見城市字真玉橋285番地1　とよみメディカルビル3F ,,26.19016550,127.69003529,(098)856-3317,,,,,,,,,,,耳鼻咽喉科,0,,
473626,0000000819,沖縄県,八重瀬町,空の森クリニック,ソラノモリクリニック,有床診療所,八重瀬町字屋宜原229番1,,26.16529614,127.72441667,(098)998-0011,,,,,,,,,,,産婦人科;内科;麻酔科;泌尿器科,0,,
472085,0000000820,沖縄県,浦添市,特別養護老人ホーム　第二ありあけの里　医務室,トクベツヨウゴロウジンホーム　ダイニアリアケノサト　イムシツ,無床診療所,浦添市仲西2丁目4番21号,,26.24528446,127.70033870,(098)875-2800,,,,,,,,,,,内科,0,,
473481,0000000821,沖縄県,与那原町,なかだ内科クリニック,ナカダナイカクリニック,無床診療所,与那原町字東浜93-3,,26.20494014,127.75878346,,,,,,,,,,,,内科;循環器内科,0,,
472085,0000000822,沖縄県,浦添市,牧港眼科,マキミナトガンカ,無床診療所,浦添市牧港4丁目2番20号,,26.26352822,127.72700308,(098)879-2114,,,,,,,,,,,眼科,0,,
472158,0000000823,沖縄県,南城市,しらゆりの園地域密着型特別養護老人ホームおおざと医務室,シラユリノエンチイキミッチャクガタトクベツヨウゴロウジンホームオオザトイムシツ,無床診療所,南城市大里字古堅820番地1,,26.19299372,127.74058291,,,,,,,,,,,,内科,0,,
473294,0000000824,沖縄県,西原町,いちょう内科あしとみ,イチョウナイカアシトミ,無床診療所,西原町字内間345-2,,26.23086840,127.76913145,(098)944-4444,,,,,,,,,,,内科;小児科;皮膚科;消化器内科,0,,
472085,0000000825,沖縄県,浦添市,まちなと内科在宅クリニック　,マチナトナイカザイタククリニック　,無床診療所,浦添市牧港2丁目46番8号,,26.26509748,127.72534481,(098)875-8888,,,,,,,,,,,内科;老年内科;呼吸器内科;循環器内科,0,,
473502,0000000826,沖縄県,南風原町,つかざん腎クリニック,ツカザンジンクリニック,無床診療所,南風原町字津嘉山1490番地　メディカルプラザつかざん4F,,26.18992140,127.70838913,(098)888-3200,,,,,,,,,,,内科;人工透析内科,0,,
472158,0000000827,沖縄県,南城市,ロコモクリニック南城,ロコモクリニックナンジョウ,無床診療所,南城市玉城字船越949-4,,26.15441133,127.75212824,(098)949-1155,,,,,,,,,,,整形外科;リハビリテーション科;内科,0,,
473294,0000000828,沖縄県,西原町,しろま眼科クリニック,シロマガンカクリニック,無床診療所,西原町字小橋川154番地13,,26.22573267,127.76460423,,,,,,,,,,,,眼科,0,,
472085,0000000829,沖縄県,浦添市,さくだ内科クリニック,サクダナイカクリニック,無床診療所,浦添市字経塚585番地1,,26.23349179,127.72097387,(098)878-2500,,,,,,,,,,,内科;糖尿病内科;腎臓内科;人工透析内科;リウマチ科,0,,
472085,0000000830,沖縄県,浦添市,まちなと小児（こども）クリニック,マチナトショウニ（コドモ）クリニック,無床診療所,浦添市牧港2丁目46-12　メディカルプラザ牧港4階,,26.26532803,127.72591420,(098)942-1110,,,,,,,,,,,小児科,0,,
472085,0000000831,沖縄県,浦添市,南斗クリニック,ミナミトクリニック,無床診療所,浦添市城間3丁目3番7号,,26.25794490,127.71260145,(098)988-3208,,,,,,,,,,,心療内科;精神科;内科,0,,
472085,0000000832,沖縄県,浦添市,楠見耳鼻咽喉科,クスミジビインコウカ,無床診療所,浦添市字前田1149番地14,,26.23913043,127.73074515,(098)875-7111,,,,,,,,,,,耳鼻咽喉科;形成外科,0,,
472085,0000000833,沖縄県,浦添市,具志堅循環器・内科,グシケンジュンカンキ・ナイカ,無床診療所,浦添市字前田1152番地1,,26.23950263,127.73132565,(098)875-0007,,,,,,,,,,,内科;循環器内科,0,,
472107,0000000834,沖縄県,糸満市,よしかわ整形クリニック,ヨシカワセイケイクリニック,無床診療所,糸満市字真栄里2031-4,,26.12114831,127.67023062,(098)995-2525,,,,,,,,,,,整形外科;リハビリテーション科;内科;小児科;皮膚科,0,,
472085,0000000835,沖縄県,浦添市,たつや整形外科,タツヤセイケイゲカ,無床診療所,浦添市宮城6丁目1番15号　浦添メディカルプラザ2Ｆ,,26.24661244,127.70941587,(098)878-2525,,,,,,,,,,,整形外科;リハビリテーション科,0,,
473502,0000000836,沖縄県,南風原町,介護老人福祉施設　嬉の里「医務室」,カイゴロウジンフクシシセツ　ウレシノサト「イムシツ」,無床診療所,南風原町字新川538番地,,26.21168600,127.73214073,(098)888-0591,,,,,,,,,,,内科;精神科,0,,
473626,0000000837,沖縄県,八重瀬町,耳鼻咽喉科やえせクリニック,ジビインコウカヤエセクリニック,無床診療所,八重瀬町字伊覇304番地,,26.16190476,127.72378077,(098)998-1212,,,,,,,,,,,耳鼻いんこう科,0,,
472085,0000000838,沖縄県,浦添市,城間クリニック,シロマクリニック,無床診療所,浦添市字前田564-1,,26.23914435,127.73188673,(098)878-8213,,,,,,,,,,,"心療内科;精神科;内科;神経内科
",0,,
472085,0000000839,沖縄県,浦添市,みやざと整形クリニック経塚駅前,ミヤザトセイケイクリニックキョウヅカエキマエ,無床診療所,浦添市字経塚745番地7　経塚駅前医療モール1階,,26.23545563,127.72585121,(098)879-8800,,,,,,,,,,,整形外科;リハビリテーション科;ペインクリニック外科,0,,
472123,0000000840,沖縄県,豊見城市,医療法人ゆたか　ゆたか泌尿器科,イリョウホウジンユタカ　ユタカヒニョウキカ,無床診療所,豊見城市字宜保282番3,,26.17646102,127.67493467,(098)851-1145,,,,,,,,,,,泌尿器科;皮膚科;性感染症内科;小児科;外科;内科,0,,
472085,0000000841,沖縄県,浦添市,医療法人　蒼海の会　まえだクリニック,イリョウホウジン　ソウカイノカイ　マエダクリニック,無床診療所,浦添市前田1-48-8　浦西ガーデンビル1Ｆ,,26.23811128,127.73792797,(098)917-5542,,,,,,,,,,,精神科;心療内科;内科;外科,0,,
472085,0000000842,沖縄県,浦添市,宮良クリニック,ミヤラクリニック,無床診療所,浦添市伊祖2丁目3番1号　サンチャイルドめぐみ2　202号,,26.25320926,127.71432370,,,,,,,,,,,,乳腺外科;外科,0,,
472123,0000000843,沖縄県,豊見城市,Fクリニック沖縄,エフクリニックオキナワ,無床診療所,豊見城市字名嘉地228-1,,26.17417165,127.66565156,(098)850-5577,,,,,,,,,,,婦人科;漢方内科,0,,
473502,0000000844,沖縄県,南風原町,つかざんクリニック,ツカザンクリニック,無床診療所,南風原町字津嘉山1315-1,,26.19403764,127.71289666,(098)888-6789,,,,,,,,,,,内科;胃腸内科;肝臓内科,0,,
473502,0000000845,沖縄県,南風原町,那覇内視鏡クリニック,ナハナイシキョウクリニック,無床診療所,南風原町字新川217-4　2Ｆ,,26.20394229,127.72679733,(098)940-6060,,,,,,,,,,,内科;消化器内科,0,,
473502,0000000846,沖縄県,南風原町,えびす耳鼻科,エビスジビカ,無床診療所,南風原町字与那覇283番地　メディカルプラザはえばる3Ｆ,,26.20041515,127.73886870,(098)987-0033,,,,,,,,,,,耳鼻咽喉科,0,,
472085,0000000847,沖縄県,浦添市,キンザー前クリニック,キンザーマエクリニック,無床診療所,浦添市宮城1丁目29番1号　1階,,26.25059518,127.70231064,(098)963-9010,,,,,,,,,,,内科;糖尿病;代謝内科,0,,
472085,0000000848,沖縄県,浦添市,新里眼科医院,シンザトガンカイイン,無床診療所,浦添市宮城5-7-5,,26.24341530,127.70364412,,,,,,,,,,,,眼科,0,,
473294,0000000849,沖縄県,西原町,とうま内科　,トウマナイカ　,有床診療所,西原町字幸地973番地3,,26.22733446,127.73608955,(098)946-3799,,,,,,,,,,,内科,0,,
473626,0000000850,沖縄県,八重瀬町,緑クリニック,ミドリクリニック,無床診療所,八重瀬町字宜次721-11,,26.17743392,127.71854728,(098)835-7722,,,,,,,,,,,内科;皮膚科;心療内科;老年内科;リハビリテーション科;小児科;胃腸内科,0,,
472107,0000000851,沖縄県,糸満市,糸満南小児科・内科診療所,イトマンミナミショウニカ・ナイカシンリョウジョ,無床診療所,糸満市潮崎町3丁目23番地5,,26.11963997,127.66500597,,,,,,,,,,,,小児科;内科,0,,
472085,0000000852,沖縄県,浦添市,特別養護老人ホーム　ありあけの里　医務室,トクベツヨウゴロウジンホーム　アリアケノサト　イムシツ,無床診療所,浦添市字前田997,,26.23766939,127.72856759,,,,,,,,,,,,内科,0,,
473481,0000000853,沖縄県,与那原町,中村内科クリニック,ナカムラナイカクリニック,無床診療所,与那原町字与那原3068-1,,26.20111815,127.75298692,(098)945-2587,,,,,,,,,,,内科;循環器内科;リハビリテーション科,0,,
472107,0000000854,沖縄県,糸満市,沖縄少年院医務課診療所,オキナワショウネンインイムカシンリョウジョ,無床診療所,糸満市字真栄平1300番地,,26.11022234,127.71542997,(098)997-5100,,,,,,,,,,,小児科;外科,0,,
472085,0000000855,沖縄県,浦添市,比嘉眼科,ヒガガンカ,有床診療所,浦添市城間4-34-20,,26.26010863,127.71310413,(098)876-2515,,,,,,,,,,,眼科,0,,
472123,0000000856,沖縄県,豊見城市,又吉皮フ科,マタヨシカワフカ,無床診療所,豊見城市字真玉橋285番地1　とよみメディカルビル5Ｆ,,26.19016550,127.69003529,(098)996-2525,,,,,,,,,,,皮膚科,0,,
472123,0000000857,沖縄県,豊見城市,とよむファミリークリニック,トヨムファミリークリニック,無床診療所,豊見城市長堂375-6,,26.18547190,127.70729241,,,,,,,,,,,,内科;消化器内科;外科;整形外科,0,,
472085,0000000858,沖縄県,浦添市,医療法人八重瀬会　浦添医院,イリョウホウジンヤエセカイ　ウラソエイイン,無床診療所,浦添市大平3-16-10　南棟1，2階,,26.24357408,127.71707657,(098)878-7381,,,,,,,,,,,内科;外科;整形外科,0,,
472158,0000000859,沖縄県,南城市,あかし内科クリニック,アカシナイカクリニック,無床診療所,南城市知念字久原693番地　エスペランサ華満進1Ｆ,,26.18696810,127.80728905,(098)947-3331,,,,,,,,,,,内科;胃腸内科,0,,
472123,0000000860,沖縄県,豊見城市,とよみ眼科 ,トヨミガンカ ,無床診療所,豊見城市字真玉橋285-1-2階,,26.19016550,127.69003529,(098)987-4004,,,,,,,,,,,眼科,0,,
472107,0000000861,沖縄県,糸満市,たまき耳鼻咽喉科クリニック,タマキジビインコウカクリニック,無床診療所,糸満市字真栄里1432番地1,,26.12085670,127.67146944,(098)995-3387,,,,,,,,,,,耳鼻いんこう科,0,,
472123,0000000862,沖縄県,豊見城市,かかず内科クリニック,カカズナイカクリニック,無床診療所,豊見城市字根差部589-5,,26.18778522,127.68797461,(098)851-8774,,,,,,,,,,,内科;消化器内科,0,,
473502,0000000863,沖縄県,南風原町,サニー眼科,サニーガンカ,無床診療所,南風原町字津嘉山1490番　メディカルプラザつかざん1Ｆ,,26.18992140,127.70838913,,,,,,,,,,,,眼科,0,,
473626,0000000864,沖縄県,八重瀬町,やえせ子どもクリニック,ヤエセコドモクリニック,無床診療所,八重瀬町字伊覇54番地3　2F-1,,26.15793837,127.71986744,(098)998-1234,,,,,,,,,,,小児科,0,,
473502,0000000865,沖縄県,南風原町,ありがとう子供クリニック,アリガトウコドモクリニック,無床診療所,南風原町字津嘉山440-5,,26.19123798,127.71416064,(098)851-7000,,,,,,,,,,,小児科,0,,
472107,0000000866,沖縄県,糸満市,ノアーズ・ガーデン診療所,ノアーズ・ガーデンシンリョウジョ,無床診療所,糸満市字大度1255番地,,26.10417293,127.71726885,(098)851-7323,,,,,,,,,,,児童精神科,0,,
472123,0000000867,沖縄県,豊見城市,とよさき眼科,トヨサキガンカ,無床診療所,豊見城市豊崎3番-35他　3階,,26.15635572,127.65074713,,,,,,,,,,,,眼科,0,,
472085,0000000868,沖縄県,浦添市,うみそら眼科　,ウミソラガンカ　,無床診療所,浦添市西洲三丁目1番1号　サンエー浦添西海岸PARCO CITY　3階,,26.26202462,127.69851886,,,,,,,,,,,,眼科,0,,
472085,0000000869,沖縄県,浦添市,アイビーホームケアクリニック　 　,アイビーホームケアクリニック　 　,無床診療所,浦添市西原6-30-10　アイビ-テラス浦西Ｂ03,,26.24496640,127.74575492,(098)917-1110,,,,,,,,,,,内科,0,,
473502,0000000870,沖縄県,南風原町,医療法人社団新穂会　南の風皮フ科,イリョウホウジンシャダンニイボカイ　ミナミノカゼカワフカ,無床診療所,南風原町字与那覇283番地　メディカルプラザはえばる1Ｆ,,26.20041515,127.73886870,(098)987-4346,,,,,,,,,,,皮膚科;小児皮膚科,0,,
472085,0000000871,沖縄県,浦添市,耳鼻咽喉科　頭頸部外科　さきはまクリニック,ジビインコウカ　トウケイブゲカ　サキハマクリニック,無床診療所,浦添市経塚585-1　2F,,26.23349179,127.72097387,(098)873-3300,,,,,,,,,,,耳鼻咽喉科;頭頸部外科,0,,
472107,0000000872,沖縄県,糸満市,南部クリニック ,ナンブクリニック ,無床診療所,糸満市西崎町5丁目8番10,,26.14410428,127.65426699,(098)840-8221,,,,,,,,,,,内科;外科,0,,
472123,0000000873,沖縄県,豊見城市,こころとからだ　つながるクリニック,ココロトカラダ　ツナガルクリニック,無床診療所,豊見城市豊崎1-18　　1F,,26.15742557,127.65997462,(098)996-5205,,,,,,,,,,,心療内科;精神科,0,,
472085,0000000874,沖縄県,浦添市,発達相談クリニックそえ～る,ハッタツソウダンクリニックソエ～ル,無床診療所,浦添市牧港4丁目5番10号　浦添市障がい福祉関連複合施設4階,,26.26448649,127.72817237,,,,,,,,,,,,精神科;小児科,0,,
472158,0000000875,沖縄県,南城市,精神内科訪問診療所,セイシンナイカホウモンシンリョウジョ,無床診療所,南城市大里字大城2392番地5　101号室,,26.17594006,127.75649358,(098)946-1696,,,,,,,,,,,精神科;内科,0,,
473502,0000000876,沖縄県,南風原町,医療法人社団悠翔会　くくるホームケアクリニック南風原,イリョウホウジンシャダンハルトカイ　ククルホームケアクリニックハエバラ,無床診療所,南風原町字宮平87番地,,26.19634605,127.73479156,(098)882-7250,,,,,,,,,,,内科;精神科;緩和ケア内科;麻酔科,0,,
472123,0000000877,沖縄県,豊見城市,とよさきこどもクリニック,トヨサキコドモクリニック,無床診療所,豊見城市字渡橋名289番地62の2,,26.16218962,127.66799934,(098)851-0020,,,,,,,,,,,小児科,0,,
473626,0000000878,沖縄県,八重瀬町,やえせ心のクリニック,ヤエセココロノクリニック,無床診療所,八重瀬町字東風平1200番10,,26.15630239,127.71953419,(098)876-2515,,,,,,,,,,,精神科;心療内科,0,,
472123,0000000879,沖縄県,豊見城市,とよさきメンタルクリニック,トヨサキメンタルクリニック,無床診療所,豊見城市渡橋名289番地62,,26.16240903,127.66792988,(098)996-2969,,,,,,,,,,,心療内科;精神科,0,,
472107,0000000880,沖縄県,糸満市,いとまん在宅診療所,イトマンザイタクシンリョウジョ,無床診療所,糸満市与座412-149,,26.13690066,127.69683957,,,,,,,,,,,,内科;小児科,0,,
472085,0000000881,沖縄県,浦添市,くららクリニック,クララクリニック,無床診療所,浦添市大平一丁目23番13号　1階,,26.24875122,127.71162678,(098)876-9811,,,,,,,,,,,心療内科;内科;精神科;皮膚科,0,,
473502,0000000882,沖縄県,南風原町,沖縄県医師会,オキナワケンイシカイ,無床診療所,南風原町字新川218-9,,26.20509215,127.72625841,,,,,,,,,,,,内科（新型コロナウイルス感染症拡大防止のため;PCR検査を実施する。）,0,,
472085,0000000883,沖縄県,浦添市,浦添伊祖皮膚科,ウラソエイソヒフカ,無床診療所,浦添市伊祖二丁目1番3号　3F,,26.25150107,127.71449319,(098)875-1177,,,,,,,,,,,皮膚科,0,,
472085,0000000884,沖縄県,浦添市,サンパーク胃腸内科クリニック,サンパークイチョウナイカクリニック,無床診療所,浦添市伊祖2-1-3　メディカルプレイス伊祖5F,,26.25150107,127.71449319,,,,,,,,,,,,内科;胃腸内科;消化器内科,0,,
472085,0000000885,沖縄県,浦添市,ありんクリニック小児科,アリンクリニックショウニカ,無床診療所,浦添市伊祖二丁目1番3号　4階,,26.25150107,127.71449319,(098)874-2020,,,,,,,,,,,小児科,0,,
472085,0000000886,沖縄県,浦添市,さくがわクリニック,サクガワクリニック,無床診療所,浦添市前田1-11-1 サンシャト-レ前田 1F,,26.24333572,127.73507526,,,,,,,,,,,,放射線科;整形外科,0,,
472123,0000000887,沖縄県,豊見城市,KEN整形クリニック,ケンセイケイクリニック,無床診療所,豊見城市翁長864-8 N'sビル3Ｆ,,26.16093954,127.66558829,,,,,,,,,,,,整形外科;リハビリテーション科,0,,
473626,0000000888,沖縄県,八重瀬町,にこにこ内科・外科クリニック,ニコニコナイカ・ゲカクリニック,無床診療所,八重瀬町字伊覇54-3　2F-2,,26.15793837,127.71986744,(098)987-4932,,,,,,,,,,,内科;外科,0,,
473294,0000000889,沖縄県,西原町,貴クリニック,キクリニック,無床診療所,西原町小那覇266-1 3F,,26.22402455,127.76600976,,,,,,,,,,,,形成外科;美容外科;皮膚科,0,,
473294,0000000890,沖縄県,西原町,こころ耳鼻咽喉科,ココロジビインコウカ,無床診療所,西原町字小那覇266番1　メディカルプラザにしはらハート4F,,26.22402455,127.76600976,(098)988-3363,,,,,,,,,,,耳鼻咽喉科;頭頸部外科;小児科,0,,
473294,0000000891,沖縄県,西原町,KAZUクリニック,カズクリニック,無床診療所,西原町字小那覇266番1　メディカルプラザにしはらハート2F,,26.22402455,127.76600976,,,,,,,,,,,,整形外科;リハビリテーション科,0,,
473294,0000000892,沖縄県,西原町,国島病理診断科クリニック,クニシマビョウリシンダンカクリニック,無床診療所,西原町棚原1-10-19,,26.24403616,127.75509313,,,,,,,,,,,,病理診断科,0,,
472085,0000000893,沖縄県,浦添市,幸喜内科　糖尿病・甲状腺クリニック,コウキナイカ　トウニョウビョウ・コウジョウセンクリニック,無床診療所,浦添市前田二丁目1517番,,26.24455499,127.73310315,,,,,,,,,,,,内科;糖尿病内科;内分泌内科;代謝内科;脂質代謝内科;小児科,0,,
472107,0000000894,沖縄県,糸満市,きのしたこどもクリニック,キノシタコドモクリニック,無床診療所,糸満市字真栄里2030番3,,26.12137051,127.66986675,(098)995-1100,,,,,,,,,,,小児科,0,,
472123,0000000895,沖縄県,豊見城市,ブランクリニック　沖縄院,ブランクリニック　オキナワイン,無床診療所,豊見城市豊崎3番35　イ-アス沖縄豊崎,,26.15635572,127.65074713,,,,,,,,,,,,美容皮膚科,0,,
472123,0000000896,沖縄県,豊見城市,とみしろ内科,トミシロナイカ,無床診療所,豊見城市字宜保266-4,,26.17648335,127.67651797,,,,,,,,,,,,循環器内科;内科;放射線科,0,,
472085,0000000897,沖縄県,浦添市,新型コロナウイルスワクチン巡回診療所,シンガタコロナウイルスワクチンジュンカイシンリョウジョ,無床診療所,浦添市仲間1丁目8番1号,,26.24909590,127.71977623,(098)875-2100,,,,,,,,,,,,0,,
472107,0000000898,沖縄県,糸満市,あはごん歯科,アハゴンシカ,無床診療所,糸満市字潮平771-2　花城アパート1Ｆ,,26.14973803,127.67236339,(098)994-6480,,,,,,,,,,,歯科;小児歯科,0,,
472107,0000000899,沖縄県,糸満市,い歯科医院,イシカイイン,無床診療所,糸満市字潮平606-1,,26.14404676,127.67278567,(098)994-1827,,,,,,,,,,,歯科,0,,
472107,0000000900,沖縄県,糸満市,上原歯科クリニック,ウエハラシカクリニック,無床診療所,糸満市西崎6-15-2,,26.14332722,127.66938583,(098)992-2888,,,,,,,,,,,歯科,0,,
472107,0000000901,沖縄県,糸満市,大城歯科,オオシロシカ,無床診療所,糸満市西崎2-43-3,,26.14219656,127.66527492,(098)994-7808,,,,,,,,,,,歯科,0,,
472107,0000000902,沖縄県,糸満市,ファミリー歯科クリニック,ファミリーシカクリニック,無床診療所,糸満市西崎町3-493,,26.14966287,127.66933293,(098)992-1818,,,,,,,,,,,歯科;小児歯科;矯正歯科;歯科口腔外科,0,,
472107,0000000903,沖縄県,糸満市,ふてんま歯科クリニック,フテンマシカクリニック,無床診療所,糸満市西崎町6-19-3　西崎21プラザ2F,,26.14717397,127.66556090,(098)994-8941,,,,,,,,,,,歯科,0,,
472107,0000000904,沖縄県,糸満市,フレンド歯科医院,フレンドシカイイン,無床診療所,糸満市西崎2-7-14　グランドハイム西崎1F,,26.14392697,127.66477490,(098)994-4618,,,,,,,,,,,歯科,0,,
473294,0000000905,沖縄県,西原町,あらかわ歯科,アラカワシカ,無床診療所,西原町字我謝241-66,,26.21426428,127.76152722,(098)944-1555,,,,,,,,,,,歯科;小児歯科,0,,
473294,0000000906,沖縄県,西原町,石川歯科医院,イシカワシカイイン,無床診療所,西原町字嘉手苅78-1,,26.22682985,127.76702067,(098)945-6214,,,,,,,,,,,歯科;小児歯科;矯正歯科,0,,
473294,0000000907,沖縄県,西原町,平良歯科クリニック,タイラシカクリニック,無床診療所,西原町字小那覇639,,26.22184142,127.76601819,(098)945-7748,,,,,,,,,,,歯科;小児歯科,0,,
473294,0000000908,沖縄県,西原町,備瀬歯科医院,ビセシカイイン,無床診療所,西原町字兼久4-2,,26.21760290,127.76373801,(098)946-0689,,,,,,,,,,,歯科;小児歯科;矯正歯科,0,,
473294,0000000909,沖縄県,西原町,南歯科医院,ミナミシカイイン,無床診療所,西原町字翁長240-5,,26.22814604,127.75432987,(098)946-3574,,,,,,,,,,,歯科,0,,
472123,0000000910,沖縄県,豊見城市,豊見城歯科クリニック,トミグスクシカクリニック,無床診療所,豊見城市字高嶺359-1,,26.16661832,127.69332033,(098)850-5051,,,,,,,,,,,歯科,0,,
472123,0000000911,沖縄県,豊見城市,竹尾歯科医院,タケオシカイイン,無床診療所,豊見城市字高嶺393-5,,26.16723492,127.69584502,(098)856-3569,,,,,,,,,,,歯科,0,,
472123,0000000912,沖縄県,豊見城市,ざは歯科クリニック ,ザハシカクリニック ,無床診療所,豊見城市字高安413-1　大漁マンション2Ｆ,,26.17652544,127.68260396,(098)850-3038,,,,,,,,,,,歯科,0,,
472123,0000000913,沖縄県,豊見城市,おおみ歯科医院,オオミシカイイン,無床診療所,豊見城市字豊見城673-5,,26.17934998,127.68132036,(098)856-5187,,,,,,,,,,,歯科;小児歯科;矯正歯科,0,,
472123,0000000914,沖縄県,豊見城市,ハッピー歯科小児歯科,ハッピーシカショウニシカ,無床診療所,豊見城市字豊見城80,,26.18707943,127.68001127,(098)850-0648,,,,,,,,,,,歯科;小児歯科,0,,
473502,0000000915,沖縄県,南風原町,けん歯科クリニック,ケンシカクリニック,無床診療所,南風原町字津嘉山1597-3,,26.18431929,127.71258358,(098)889-0011,,,,,,,,,,,歯科,0,,
473502,0000000916,沖縄県,南風原町,高橋歯科医院,タカハシシカイイン,無床診療所,南風原町字兼城563-1,,26.19524041,127.72167624,(098)889-5655,,,,,,,,,,,歯科;小児歯科,0,,
473502,0000000917,沖縄県,南風原町,つかざん歯科,ツカザンシカ,無床診療所,南風原町字津嘉山1567,,26.18532473,127.71140308,(098)889-6838,,,,,,,,,,,歯科,0,,
473502,0000000918,沖縄県,南風原町,ムーミン歯科,ムーミンシカ,無床診療所,南風原町字津嘉山1709-3　フラッシュユキ1F,,26.18155849,127.71496963,(098)888-2728,,,,,,,,,,,歯科,0,,
473502,0000000919,沖縄県,南風原町,医療法人明歯会　みなみ歯科医院,イリョウホウジンアキラハカイ　ミナミシカイイン,無床診療所,南風原町字宮平248番5,,26.19871804,127.73602183,(098)888-1482,,,,,,,,,,,歯科;小児歯科;矯正歯科,0,,
472158,0000000920,沖縄県,南城市,船越歯科医院,フナコシシカイイン,無床診療所,南城市玉城字船越980　城マンション1F,,26.15192821,127.75227554,(098)949-7878,,,,,,,,,,,歯科;小児歯科,0,,
472158,0000000921,沖縄県,南城市,松山歯科,マツヤマシカ,無床診療所,南城市佐敷字津波古1006,,26.17977349,127.77420299,(098)947-3537,,,,,,,,,,,歯科;小児歯科;矯正歯科,0,,
473481,0000000922,沖縄県,与那原町,よなばる中央歯科,ヨナバルチュウオウシカ,無床診療所,与那原町字与那原77　上原ビル2F,,26.20026564,127.76087244,(098)945-5588,,,,,,,,,,,歯科,0,,
473481,0000000923,沖縄県,与那原町,ひまわり歯科医院,ヒマワリシカイイン,無床診療所,与那原町字与那原1107番地,,26.20160428,127.75568945,(098)945-6480,,,,,,,,,,,歯科,0,,
472158,0000000924,沖縄県,南城市,おおざと歯科医院,オオザトシカイイン,無床診療所,南城市大里字平良2505-1,,26.17902854,127.74798860,(098)945-4108,,,,,,,,,,,歯科;小児歯科,0,,
473626,0000000925,沖縄県,八重瀬町,ナガシマ歯科医院,ナガシマシカイイン,無床診療所,八重瀬町字具志頭342-9,,26.12063062,127.74336611,(098)998-1088,,,,,,,,,,,歯科,0,,
472158,0000000926,沖縄県,南城市,コマカ歯科クリニック,コマカシカクリニック,無床診療所,南城市知念字久手堅長堂原327-1番地,,26.17013419,127.82601051,(098)948-3108,,,,,,,,,,,歯科,0,,
473626,0000000927,沖縄県,八重瀬町,上地歯科医院,ウエチシカイイン,無床診療所,八重瀬町字宜次706-4,,26.17549245,127.71868904,(098)998-2355,,,,,,,,,,,歯科;小児歯科;矯正歯科;歯科口腔外科,0,,
472123,0000000928,沖縄県,豊見城市,ゆがふ歯科クリニック,ユガフシカクリニック,無床診療所,豊見城市字豊見城469-1　コーポめーばる1F,,26.18287156,127.67847842,(098)853-6209,,,,,,,,,,,歯科;歯科口腔外科;小児歯科,0,,
472107,0000000929,沖縄県,糸満市,まえざと歯科,マエザトシカ,無床診療所,糸満市字真栄里2058-2 　リーブル沖縄1階,,26.11998448,127.66880851,(098)995-0542,,,,,,,,,,,歯科;小児歯科;矯正歯科,0,,
473294,0000000930,沖縄県,西原町,まちだ歯科クリニック,マチダシカクリニック,無床診療所,西原町字翁長504,,26.23709775,127.74756338,(098)944-2700,,,,,,,,,,,歯科,0,,
473294,0000000931,沖縄県,西原町,さわふじ歯科,サワフジシカ,無床診療所,西原町字呉屋93-1,,26.22592416,127.75875465,(098)946-5188,,,,,,,,,,,歯科;小児歯科;矯正歯科,0,,
472158,0000000932,沖縄県,南城市,アトール歯科,アトールシカ,無床診療所,南城市大里字仲間1155番地,,26.17411509,127.74717504,(098)944-5610,,,,,,,,,,,歯科,0,,
472107,0000000933,沖縄県,糸満市,しおひら歯科医院,シオヒラシカイイン,無床診療所,糸満市字潮平619-2,,26.14524392,127.67295787,(098)992-1110,,,,,,,,,,,歯科,0,,
472107,0000000934,沖縄県,糸満市,かみや歯科クリニック,カミヤシカクリニック,無床診療所,糸満市字潮平798-4,,26.15263223,127.67158282,(098)994-2000,,,,,,,,,,,歯科;歯科口腔外科,0,,
472158,0000000935,沖縄県,南城市,トモヨセ歯科,トモヨセシカ,無床診療所,南城市大里字仲間1162-2,,26.17383453,127.74585019,(098)944-6480,,,,,,,,,,,歯科,0,,
472107,0000000936,沖縄県,糸満市,サンプラザ糸満歯科クリニック,サンプラザイトマンシカクリニック,無床診療所,糸満市字兼城400番地,,26.13943876,127.67299127,(098)992-0311,,,,,,,,,,,歯科,0,,
472107,0000000937,沖縄県,糸満市,かしわ歯科,カシワシカ,無床診療所,糸満市字糸満1473-2　1F,,26.12612859,127.67371643,(098)992-4171,,,,,,,,,,,歯科,0,,
473294,0000000938,沖縄県,西原町,サンユー歯科,サンユーシカ,無床診療所,西原町字小橋川154-5　玉那覇ビル1Ｆ,,26.22564658,127.76484034,(098)944-6990,,,,,,,,,,,歯科,0,,
472123,0000000939,沖縄県,豊見城市,ねま歯科クリニック,ネマシカクリニック,無床診療所,豊見城市宜保二丁目6番地7　豊和マンション1F,,26.17739986,127.67583458,(098)850-0207,,,,,,,,,,,歯科;小児歯科;歯科口腔外科,0,,
473626,0000000940,沖縄県,八重瀬町,こちんだ歯科クリニック,コチンダシカクリニック,無床診療所,八重瀬町字東風平391-1　101号,,26.15415812,127.72135349,(098)998-8715,,,,,,,,,,,歯科;小児歯科,0,,
472107,0000000941,沖縄県,糸満市,アサヒ歯科医院,アサヒシカイイン,無床診療所,糸満市字糸満1278-2　1Ｆ,,26.12558965,127.67015832,(098)994-0900,,,,,,,,,,,歯科,0,,
472123,0000000942,沖縄県,豊見城市,真玉橋歯科医院,マダンバシシカイイン,無床診療所,豊見城市真玉橋147,,26.192295,127.693565,(098)856-0345,,,,,,,,,,,歯科;小児歯科;矯正歯科,0,,
472123,0000000943,沖縄県,豊見城市,寺西歯科医院,テラニシシカイイン,無床診療所,豊見城市字豊見城419-1,,26.18298251,127.67589518,(098)891-6480,,,,,,,,,,,歯科;小児歯科,0,,
472107,0000000944,沖縄県,糸満市,かなばやし歯科,カナバヤシシカ,無床診療所,糸満市賀数469番地　ニューワールド101,,26.15089138,127.69010124,(098)992-6480,,,,,,,,,,,歯科;小児歯科,0,,
472158,0000000945,沖縄県,南城市,ふさとデンタルクリニック,フサトデンタルクリニック,無床診療所,南城市玉城字富里8番地,,26.14390152,127.76785504,(098)948-7778,,,,,,,,,,,歯科,0,,
472123,0000000946,沖縄県,豊見城市,トヨミ歯科,トヨミシカ,無床診療所,豊見城市字根差部710番地　マックスバリューとよみ店,,26.18989604,127.68799938,(098)850-5108,,,,,,,,,,,歯科,0,,
473502,0000000947,沖縄県,南風原町,よなみね歯科クリニック,ヨナミネシカクリニック,無床診療所,南風原町字宮平59-2　1-1,,26.19767924,127.73416375,(098)800-7005,,,,,,,,,,,歯科;小児歯科;矯正歯科,0,,
472123,0000000948,沖縄県,豊見城市,医療法人社団恵仁会　きらら歯科クリニック,イリョウホウジンシャダンケイジンカイ　キララシカクリニック,無床診療所,豊見城市宜保2丁目7番地7　オアシス光2階,,26.17881360,127.67596224,(098)840-5557,,,,,,,,,,,歯科;小児歯科;矯正歯科,0,,
472123,0000000949,沖縄県,豊見城市,とよみデンタルクリニック　,トヨミデンタルクリニック　,無床診療所,豊見城市字平良95番地1,,26.16960146,127.69342584,(098)891-6408,,,,,,,,,,,歯科;小児歯科;口腔外科,0,,
473502,0000000950,沖縄県,南風原町,医療法人社団恵仁会　あっぷる歯科クリニック,イリョウホウジンシャダンケイジンカイ　アップルシカクリニック,無床診療所,南風原町字津嘉山1467番3,,26.18909096,127.70951131,(098)889-1182,,,,,,,,,,,歯科;小児歯科,0,,
472123,0000000951,沖縄県,豊見城市,金城歯科クリニック,キンジョウシカクリニック,無床診療所,豊見城市字根差部419,,26.19010165,127.69151850,(098)856-0136,,,,,,,,,,,歯科;小児歯科;口腔外科,0,,
472123,0000000952,沖縄県,豊見城市,豊崎デンタルクリニック,トヨサキデンタルクリニック,無床診療所,豊見城市字豊崎1-423,,26.15708390,127.65936076,(098)856-2238,,,,,,,,,,,歯科;小児歯科;矯正歯科,0,,
472123,0000000953,沖縄県,豊見城市,しおはま歯科医院,シオハマシカイイン,無床診療所,豊見城市字豊見城368-1　1Ｆ,,26.18364631,127.67583123,(098)851-1234,,,,,,,,,,,歯科;矯正歯科;小児歯科;歯科口腔外科,0,,
472158,0000000954,沖縄県,南城市,南城歯科クリニック,ナンジョウシカクリニック,無床診療所,南城市玉城字堀川788番地,,26.13020542,127.76292809,(098)948-4855,,,,,,,,,,,歯科;小児歯科;矯正歯科;歯科口腔外科,0,,
472107,0000000955,沖縄県,糸満市,やすだ歯科医院,ヤスダシカイイン,無床診療所,糸満市字糸満1922,,26.13045612,127.67571067,(098)852-3301,,,,,,,,,,,歯科;小児歯科,0,,
472158,0000000956,沖縄県,南城市,しんかい歯科,シンカイシカ,無床診療所,南城市佐敷字新開1-111,,26.17643494,127.77541417,(098)947-1455,,,,,,,,,,,歯科,0,,
472107,0000000957,沖縄県,糸満市,あおば歯科医院,アオバシカイイン,無床診療所,糸満市字福地165-1,,26.09866405,127.67658066,(098)997-4019,,,,,,,,,,,歯科,0,,
472158,0000000958,沖縄県,南城市,ふたば歯科医院,フタバシカイイン,無床診療所,南城市佐敷字新開1-143,,26.17644603,127.77458089,(098)947-4550,,,,,,,,,,,歯科,0,,
472123,0000000959,沖縄県,豊見城市,オレンジ歯科クリニック,オレンジシカクリニック,無床診療所,豊見城市字高嶺364-1　コモンズ栄Ａ-1,,26.16739049,127.69375360,(098)856-6480,,,,,,,,,,,歯科,0,,
473481,0000000960,沖縄県,与那原町,マリンタウン東浜総合歯科,マリンタウンヒガシハマソウゴウシカ,無床診療所,与那原町字東浜22番4,,26.20679005,127.76253308,(098)871-9933,,,,,,,,,,,歯科;小児歯科;矯正歯科;歯科口腔外科,0,,
473626,0000000961,沖縄県,八重瀬町,ちゅら歯科 　,チュラシカ 　,無床診療所,八重瀬町字伊覇309番地,,26.16285191,127.72466675,(098)998-0648,,,,,,,,,,,"歯科;小児歯科
歯科口腔外科;矯正歯科（第４日曜又は第５日曜のみ　９：３０～１４：３０）",0,,
473481,0000000962,沖縄県,与那原町,"iデンタルクリニック
","アイデンタルクリニック
",無床診療所,与那原町字東浜80-3,,26.20713157,127.75853892,(098)944-4007,,,,,,,,,,,歯科;小児歯科;（歯科）口腔外科,0,,
473502,0000000963,沖縄県,南風原町,医療法人尚仁会　メディカルプラザ歯科,イリョウホウジンナオジンカイ　メディカルプラザシカ,無床診療所,南風原町字与那覇283　メディカルプラザはえばる3F,,26.20041515,127.73886870,(098)888-6480,,,,,,,,,,,歯科;歯科口腔外科;小児歯科,0,,
473294,0000000964,沖縄県,西原町,伊熊歯科,イクマシカ,無床診療所,西原町字呉屋108-2,,26.22731005,127.75561593,(098)994-3669,,,,,,,,,,,歯科;歯科口腔外科;小児歯科;矯正歯科,0,,
472158,0000000965,沖縄県,南城市,みのり歯科,ミノリシカ,無床診療所,南城市大里字高平高宮城原97番地2,,26.17170692,127.74309778,(098)943-8686,,,,,,,,,,,歯科;小児歯科;歯科口腔外科,0,,
472085,0000000966,沖縄県,浦添市,医療法人なかわか　くくる歯科医院,イリョウホウジンナカワカ　ククルシカイイン,無床診療所,浦添市字経塚600番地,,26.23424173,127.72137659,(098)943-9968,,,,,,,,,,,歯科;小児歯科;歯科口腔外科,0,,
473481,0000000967,沖縄県,与那原町,医療法人社団恵仁会　東浜アクア歯科,イリョウホウジンシャダンケイジンカイ　ヒガシハマアクアシカ,無床診療所,与那原町字東浜99番3,,26.20355414,127.75757808,,,,,,,,,,,,歯科;矯正歯科;小児歯科;歯科口腔外科,0,,
473502,0000000968,沖縄県,南風原町,はえばる歯科医院,ハエバルシカイイン,無床診療所,南風原町字照屋368番地　サンキャッスル102号,,26.18677749,127.72750405,(098)889-8788,,,,,,,,,,,歯科,0,,
473502,0000000969,沖縄県,南風原町,まじきな歯科クリニック,マジキナシカクリニック,無床診療所,南風原町字新川215-3　　　,,26.20400063,127.72713896,,,,,,,,,,,,歯科;小児歯科;矯正歯科,0,,
472085,0000000970,沖縄県,浦添市,高良歯科医院,タカラシカイイン,無床診療所,浦添市屋富祖1-2-10,,26.25147879,127.71249054,(098)879-0849,,,,,,,,,,,歯科,0,,
472085,0000000971,沖縄県,浦添市,高宮城歯科医院,タカミヤギシカイイン,無床診療所,浦添市牧港1-31-20,,26.26475301,127.72302558,(098)877-3621,,,,,,,,,,,歯科,0,,
472085,0000000972,沖縄県,浦添市,しろま歯科医院,シロマシカイイン,無床診療所,浦添市屋富祖1-3-6,,26.25234812,127.71138780,(098)878-6121,,,,,,,,,,,歯科,0,,
472085,0000000973,沖縄県,浦添市,伊禮歯科医院,イレイシカイイン,無床診療所,浦添市屋富祖3-7-3,,26.25362836,127.70572423,(098)877-9039,,,,,,,,,,,歯科;歯科口腔外科;小児歯科;矯正歯科,0,,
472085,0000000974,沖縄県,浦添市,三愛歯科医院,サンアイシカイイン,無床診療所,浦添市勢理客1-2-28,,26.24300133,127.70044433,(098)876-1203,,,,,,,,,,,歯科;小児歯科,0,,
472085,0000000975,沖縄県,浦添市,ちはる歯科クリニック,チハルシカクリニック,無床診療所,浦添市字仲間3-3-9,,26.24516036,127.72814517,(098)877-6480,,,,,,,,,,,歯科;小児歯科;矯正歯科,0,,
473570,0000000976,沖縄県,南大東村,南大東村立歯科診療所,ミナミダイトウソンタチシカシンリョウジョ,無床診療所,南大東村字在所308番地,,25.83014121,131.23007686,(098)022-2568,,,,,,,,,,,"歯科

",0,,
473588,0000000977,沖縄県,北大東村,北大東村立歯科診療所,キタダイトウソンリツシカシンリョウジョ,無床診療所,北大東村字中野209-3,,25.94509996,131.29816625,(098)023-4408,,,,,,,,,,,歯科,0,,
472085,0000000978,沖縄県,浦添市,歯ならび矯正クリニック,ハナラビキョウセイクリニック,無床診療所,浦添市宮城1丁目26番8号　平安ビル203号,,26.25152014,127.70341611,(098)875-4187,,,,,,,,,,,歯科,0,,
472085,0000000979,沖縄県,浦添市,ラビット歯科,ラビットシカ,無床診療所,浦添市屋富祖1-5-2,,26.24955393,127.71164620,(098)876-0045,,,,,,,,,,,歯科,0,,
472085,0000000980,沖縄県,浦添市,サンタ歯科,サンタシカ,無床診療所,浦添市港川2-22-1,,26.26396388,127.71429559,(098)942-1988,,,,,,,,,,,歯科;小児歯科,0,,
472085,0000000981,沖縄県,浦添市,にこにこ歯科・小児歯科,ニコニコシカ・ショウニシカ,無床診療所,浦添市当山2丁目9-3,,26.24866031,127.73775267,(098)873-2525,,,,,,,,,,,歯科;小児歯科;矯正歯科,0,,
472085,0000000982,沖縄県,浦添市,ながみね歯科医院,ナガミネシカイイン,無床診療所,浦添市西原5丁目11番3号,,26.24794376,127.74004694,(098)876-6086,,,,,,,,,,,歯科;小児歯科,0,,
472085,0000000983,沖縄県,浦添市,東京デンタルクリニック,トウキョウデンタルクリニック,無床診療所,浦添市内間4-16-10　ファミリータウンTOMA,,26.23957404,127.70537192,(098)870-6677,,,,,,,,,,,歯科;小児科;矯正歯科,0,,
472085,0000000984,沖縄県,浦添市,ねま歯科医院,ネマシカイイン,無床診療所,浦添市内間3-12-6　かりゆしビル2F,,26.23651032,127.70196391,(098)874-0648,,,,,,,,,,,歯科;小児歯科;矯正歯科,0,,
472085,0000000985,沖縄県,浦添市,とみしま歯科クリニック,トミシマシカクリニック,無床診療所,浦添市字西原5丁目2番5-101,,26.25040741,127.73915805,(098)879-8889,,,,,,,,,,,歯科;小児歯科;歯科口腔外科,0,,
472085,0000000986,沖縄県,浦添市,医療法人仁陽会　島デンタルクリニック,イリョウホウジンジンヨウカイ　シマデンタルクリニック,無床診療所,浦添市宮城5-2-1（琉球銀行　内間支店2階）,,26.24192385,127.70568849,(098)878-3034,,,,,,,,,,,歯科;小児歯科;矯正歯科,0,,
472085,0000000987,沖縄県,浦添市,湖城歯科クリニック,コグスクシカクリニック,無床診療所,浦添市大平1-36-5,,26.24708185,127.70933253,(098)874-1256,,,,,,,,,,,歯科;小児歯科,0,,
472085,0000000988,沖縄県,浦添市,おおひら歯科クリニック,オオヒラシカクリニック,無床診療所,浦添市字安波茶1-27-8,,26.24778487,127.71891800,(098)877-3397,,,,,,,,,,,歯科;小児歯科　,0,,
472085,0000000989,沖縄県,浦添市,浦添歯科クリニック,ウラソエシカクリニック,無床診療所,浦添市字安波茶3-7-7,,26.24476311,127.72591759,(098)879-2812,,,,,,,,,,,歯科;小児歯科;矯正歯科,0,,
472085,0000000990,沖縄県,浦添市,さわだ歯科,サワダシカ,無床診療所,浦添市勢理客2-5-23-102,,26.24392339,127.69786112,(098)875-4555,,,,,,,,,,,歯科;小児歯科,0,,
472085,0000000991,沖縄県,浦添市,ふく・ざと歯科医院,フク・ザトシカイイン,無床診療所,浦添市宮城3-14-1,,26.24633444,127.70238854,(098)875-0121,,,,,,,,,,,歯科,0,,
472085,0000000992,沖縄県,浦添市,医療法人健生会　上原歯科クリニック,イリョウホウジンケンセイカイ　ウエハラシカクリニック,無床診療所,浦添市前田1丁目48番1-201号,,26.23822239,127.73861124,(098)879-1555,,,,,,,,,,,歯科;小児歯科;矯正歯科;歯科口腔外科,0,,
472085,0000000993,沖縄県,浦添市,くばがわ小児歯科,クバガワショウニシカ,無床診療所,浦添市城間3-16-1,,26.25565343,127.71260985,(098)876-1908,,,,,,,,,,,歯科;小児歯科;矯正歯科,0,,
472085,0000000994,沖縄県,浦添市,医療法人南友会　うちま歯科医院,イリョウホウジンミナミユウカイ　ウチマシカイイン,無床診療所,浦添市内間2-10-12,,26.23693537,127.70478316,(098)877-3030,,,,,,,,,,,歯科;小児歯科;矯正歯科;口腔外科,0,,
472085,0000000995,沖縄県,浦添市,町の歯いしゃさん　DENTAL CLINIC,マチノハイシャサン　DENTAL CLINIC,無床診療所,浦添市沢岻1-17-2,,26.23476092,127.71433819,(098)874-5151,,,,,,,,,,,歯科,0,,
472085,0000000996,沖縄県,浦添市,カルシウム歯科,カルシウムシカ,無床診療所,浦添市字経塚467,,26.23360840,127.71909345,(098)873-0648,,,,,,,,,,,歯科;小児歯科,0,,
472085,0000000997,沖縄県,浦添市,ティダの杜歯科　,ティダノモリシカ　,無床診療所,浦添市内間3-2-3,,26.23603820,127.70398881,(098)870-5088,,,,,,,,,,,歯科;小児歯科;口腔外科;矯正歯科,0,,
472085,0000000998,沖縄県,浦添市,バークレー歯科,バークレーシカ,無床診療所,浦添市当山2丁目2番2-4号 バークレーズコートサービスコート内,,26.25235995,127.73640543,(098)878-0648,,,,,,,,,,,歯科;矯正歯科,0,,
472085,0000000999,沖縄県,浦添市,宮城歯科医院,ミヤギシカイイン,無床診療所,浦添市港川2丁目28番8号,,26.26505553,127.71628431,(098)879-1487,,,,,,,,,,,歯科;小児歯科,0,,
472085,0000001000,沖縄県,浦添市,経塚歯科クリニック,キョウヅカシカクリニック,無床診療所,浦添市字経塚437,,26.23526380,127.71972111,(098)876-1102,,,,,,,,,,,歯科;小児歯科;口腔外科,0,,
472085,0000001001,沖縄県,浦添市,医療法人社団秋桜会　ファーストデンタルクリニックさくら,イリョウホウジンシャダンコスモスカイ　ファーストデンタルクリニックサクラ,無床診療所,浦添市宮城3丁目3番1号,,26.24576521,127.70704660,(098)875-8044,,,,,,,,,,,歯科　,0,,
472085,0000001002,沖縄県,浦添市,みのり歯科クリニック ,ミノリシカクリニック ,無床診療所,浦添市伊祖2丁目21番16号,,26.25503696,127.71710125,(098)879-3343,,,,,,,,,,,歯科;小児歯科;歯科口腔外科,0,,
472085,0000001003,沖縄県,浦添市,やかデンタルクリニック,ヤカデンタルクリニック,無床診療所,浦添市字経塚801-2　1Ｆ,,26.23948303,127.72555943,,,,,,,,,,,,歯科;小児歯科;歯科口腔外科,0,,
472085,0000001004,沖縄県,浦添市,慎次デンタルクリニック,シンジデンタルクリニック,無床診療所,浦添市牧港2-43-7　グリーンエクセル1F,,26.26321708,127.72434777,(098)988-0828,,,,,,,,,,,歯科;小児歯科;口腔外科,0,,
472085,0000001005,沖縄県,浦添市,あーる歯科,アールシカ,無床診療所,浦添市宮城4-3-2　1階,,26.24389035,127.70633282,(098)988-4973,,,,,,,,,,,歯科;小児歯科,0,,
472085,0000001006,沖縄県,浦添市,ウェルネス　デンタルケア,ウェルネス　デンタルケア,無床診療所,浦添市港川1-2-6,,26.26078929,127.71778995,(098)879-6070,,,,,,,,,,,歯科,0,,
472085,0000001007,沖縄県,浦添市,みやら歯科診療所,ミヤラシカシンリョウジョ,無床診療所,浦添市字経塚705,,26.23675546,127.72411796,(098)878-6661,,,,,,,,,,,歯科;矯正歯科;小児歯科;歯科口腔外科,0,,
472085,0000001008,沖縄県,浦添市,中央歯科,チュウオウシカ,無床診療所,浦添市城間4丁目3番18号-1F,,26.25615629,127.71611239,(098)942-4444,,,,,,,,,,,歯科;口腔外科;小児歯科;矯正歯科,0,,
472085,0000001009,沖縄県,浦添市,みやびデンタルクリニック,ミヤビデンタルクリニック,無床診療所,浦添市字経塚745-7　経塚駅前医療モール　1F,,26.23545563,127.72585121,(098)878-4181,,,,,,,,,,,歯科;小児歯科;矯正歯科;歯科口腔外科,0,,
472085,0000001010,沖縄県,浦添市,おおせと歯科医院,オオセトシカイイン,無床診療所,浦添市宮城4丁目15-5　コーポ南十字103号,,26.24588728,127.70317740,,,,,,,,,,,,歯科;小児歯科;歯科口腔外科,0,,
473502,0000001011,沖縄県,南風原町,沖縄県口腔保健医療センター,オキナワケンコウクウホケンイリョウセンター,無床診療所,南風原町字新川218番地1,,26.20586152,127.72673887,(098)888-0648,,,,,,,,,,,歯科,0,,
472085,0000001012,沖縄県,浦添市,なな歯科クリニック,ナナシカクリニック,無床診療所,浦添市宮城5-9-10　1F,,26.24278755,127.70286641,,,,,,,,,,,,歯科;小児歯科;歯科口腔外科;矯正歯科,0,,
472085,0000001013,沖縄県,浦添市,大西歯科クリニック,オオニシシカクリニック,無床診療所,浦添市伊祖3-9-3　2Ｆ,,26.25740902,127.71776504,,,,,,,,,,,,歯科;小児歯科,0,,
473502,0000001014,沖縄県,南風原町,みのる歯科,ミノルシカ,無床診療所,南風原町字津嘉山1371,,26.19268502,127.71285789,,,,,,,,,,,,歯科;小児歯科;歯科口腔外科,0,,
473481,0000001015,沖縄県,与那原町,池田歯科クリニック,イケダシカクリニック,無床診療所,与那原町字上与那原435-2番地　1階,,26.20027088,127.74729854,,,,,,,,,,,,歯科;小児歯科;歯科口腔外科,0,,
472123,0000001016,沖縄県,豊見城市,医療法人豊良会　モリヤデンタルオフィス,イリョウホウジンユタカリョウカイ　モリヤデンタルオフィス,無床診療所,豊見城市字翁長854-2-101,,26.16125645,127.66923268,(098)850-3239,,,,,,,,,,,歯科;歯科口腔外科;小児歯科;矯正歯科,0,,
472085,0000001017,沖縄県,浦添市,ライト歯科,ライトシカ,無床診療所,浦添市安波茶2丁目1-1　役所前アパート,,26.24643787,127.72266222,(098)988-8311,,,,,,,,,,,歯科口腔外科;小児歯科;矯正歯科,0,,
472085,0000001018,沖縄県,浦添市,サザン歯科まえだ,サザンシカマエダ,無床診療所,浦添市字前田真和志堂1143番31,,26.24604668,127.73865545,,,,,,,,,,,,歯科;小児歯科;矯正歯科;歯科口腔外科,0,,
473537,0000001019,沖縄県,渡嘉敷村,渡嘉敷村歯科診療所,トカシキソンシカシンリョウジョ,無床診療所,渡嘉敷村字渡嘉敷209番地,,26.19714601,127.36466870,(098)987-3220,,,,,,,,,,,歯科,0,,
473626,0000001020,沖縄県,八重瀬町,いちまる歯科口腔外科医院,イチマルシカコウクウゲカイイン,無床診療所,八重瀬町字東風平493-6,,26.15475250,127.71776776,,,,,,,,,,,,歯科;小児歯科;矯正歯科;歯科口腔外科,0,,
472085,0000001021,沖縄県,浦添市,医療法人志尚会　ライフデンタルクリニック浦添,イリョウホウジンココロザシナオカイ　ライフデンタルクリニックウラソエ,無床診療所,浦添市宮城3丁目7番5-103号,,26.24629568,127.70575777,(098)879-5404,,,,,,,,,,,歯科;小児歯科;矯正歯科;歯科口腔外科,0,,
472107,0000001022,沖縄県,糸満市,上原歯科医院,ウエハラシカイイン,無床診療所,糸満市糸満1367番地1,,26.12915056,127.67248590,,,,,,,,,,,,歯科;小児歯科,0,,
472123,0000001023,沖縄県,豊見城市,歯ーサーデンタルクリニック（シーサーデンタルクリニック）,ハーサーデンタルクリニック（シーサーデンタルクリニック）,無床診療所,豊見城市字渡橋名2番地1,,26.16760369,127.67632687,(098)856-7800,,,,,,,,,,,歯科;小児歯科;矯正歯科;歯科口腔外科,0,,
473618,0000001024,沖縄県,久米島町,医療法人恵歯会　具志川歯科医院,イリョウホウジンメグミハカイ　グシカワシカイイン,無床診療所,久米島町字大田564番地　1F,,26.34527489,126.75153631,(098)985-2321,,,,,,,,,,,歯科,0,,
472085,0000001025,沖縄県,浦添市,おかむら歯科医院,オカムラシカイイン,無床診療所,浦添市伊祖1-10-7,,26.25161498,127.71553199,,,,,,,,,,,,歯科;小児歯科;歯科口腔外科,0,,
472123,0000001026,沖縄県,豊見城市,よつば小児・矯正歯科,ヨツバショウニ・キョウセイシカ,無床診療所,豊見城市字豊崎1番地323　グラン大政101,,26.15660070,127.66095241,(098)851-3167,,,,,,,,,,,小児歯科;矯正歯科;歯科,0,,
472085,0000001027,沖縄県,浦添市,Ｍｉｃデンタルクリニック,マイクデンタルクリニック,無床診療所,浦添市宮城1丁目36-11　2階,,26.24986187,127.70129407,(098)879-7319,,,,,,,,,,,歯科;矯正歯科;歯科口腔外科,0,,
473561,0000001028,沖縄県,渡名喜村,渡名喜村歯科診療所,トナキムラシカシンリョウジョ,無床診療所,渡名喜村1916番1,,26.37154695,127.14079697,(098)989-2011,,,,,,,,,,,歯科;歯科矯正科;小児歯科,0,,
472123,0000001029,沖縄県,豊見城市,あおぞらデンタルオフィス,アオゾラデンタルオフィス,無床診療所,豊見城市字豊崎1-326,,26.15623965,127.66137463,(098)850-9009,,,,,,,,,,,歯科;小児歯科;歯科口腔外科;歯科矯正,0,,
472085,0000001030,沖縄県,浦添市,ほかまデンタルクリニック,ホカマデンタルクリニック,無床診療所,浦添市城間3丁目1-3,,26.25608397,127.71324590,(098)876-8211,,,,,,,,,,,歯科;矯正歯科;小児歯科;歯科口腔外科,0,,
472085,0000001031,沖縄県,浦添市,たなだ歯科,タナダシカ,無床診療所,浦添市牧港2-46-12　メディカルプラザ牧港4階,,26.26532803,127.72591420,,,,,,,,,,,,歯科;歯科口腔外科;小児歯科,0,,
472085,0000001032,沖縄県,浦添市,てぃーだ歯科クリニック,ティーダシカクリニック,無床診療所,浦添市城間2-5-1（102）,,26.25430914,127.71367927,(098)874-5648,,,,,,,,,,,歯科;小児歯科;歯科口腔外科,0,,
472085,0000001033,沖縄県,浦添市,広栄歯科　,ヒロサカエシカ　,無床診療所,浦添市西原1-9-3,,26.25444039,127.73926347,,,,,,,,,,,,歯科;小児歯科;歯科口腔外科,0,,
473626,0000001034,沖縄県,八重瀬町,サザン歯科やえせ,サザンシカヤエセ,無床診療所,八重瀬町字伊覇273番地6　八重の結1階,,26.16021601,127.72488070,(098)998-7171,,,,,,,,,,,歯科;小児歯科;歯科口腔外科;矯正歯科,0,,
472085,0000001035,沖縄県,浦添市,サンエー経塚シティオレンジ歯科　えがおとママとこどもの予防の歯医者さん,サンエーキョウヅカシティオレンジシカ　エガオトママトコドモノヨボウノハイシャサン,無床診療所,浦添市字経塚652番1-1Ｆ,,26.23758312,127.72267359,(098)878-6874,,,,,,,,,,,歯科;歯科口腔外科;小児歯科;矯正歯科,0,,
472107,0000001036,沖縄県,糸満市,糸満ロータリー歯科,イトマンロータリーシカ,無床診療所,糸満市字糸満591番地,,26.12958378,127.66954439,(098)992-0418,,,,,,,,,,,歯科;歯科口腔外科;小児歯科,0,,
472085,0000001037,沖縄県,浦添市,よつ葉歯科,ヨツバシカ,無床診療所,浦添市港川一丁目5番9号　1階,,26.25876168,127.71793721,(098)876-3428,,,,,,,,,,,歯科;小児歯科;矯正歯科;歯科口腔外科,0,,
472085,0000001038,沖縄県,浦添市,フジデンタルクリニック,フジデンタルクリニック,無床診療所,浦添市字港川254番地,,26.26511654,127.71378724,(098)875-4473,,,,,,,,,,,歯科;小児歯科;歯科口腔外科,0,,
472158,0000001039,沖縄県,南城市,なんじぃデンタルクリニック,ナンジィデンタルクリニック,無床診療所,南城市佐敷字新里607-1　1階,,26.17187151,127.77703647,(098)963-9930,,,,,,,,,,,歯科,0,,
472085,0000001040,沖縄県,浦添市,とうま歯科,トウマシカ,無床診療所,浦添市城間4-40-5,,26.26147532,127.71715941,(098)876-1290,,,,,,,,,,,歯科,0,,
472085,0000001041,沖縄県,浦添市,まきみなと歯科医院,マキミナトシカイイン,無床診療所,浦添市牧港1-9-8　2階,,26.26620568,127.72387543,(098)876-6474,,,,,,,,,,,歯科;小児歯科;歯科口腔外科,0,,
473502,0000001042,沖縄県,南風原町,メイプル歯科,メイプルシカ,無床診療所,南風原町津嘉山1404-2-2　1階,,26.19085188,127.71069159,(098)894-6890,,,,,,,,,,,歯科;歯科口腔外科;小児歯科,0,,
473626,0000001043,沖縄県,八重瀬町,なかま歯科医院,ナカマシカイイン,無床診療所,八重瀬町字具志頭636-6,,26.12194154,127.74113847,,,,,,,,,,,,歯科,0,,
472085,0000001044,沖縄県,浦添市,うえだ歯科　,ウエダシカ　,無床診療所,浦添市伊祖2丁目2番5号　サンチャイルドめぐみ201号,,26.25257041,127.71409040,(098)876-0034,,,,,,,,,,,歯科;矯正歯科;小児歯科,0,,
473626,0000001045,沖縄県,八重瀬町,スマイリー矯正歯科,スマイリーキョウセイシカ,無床診療所,八重瀬町東風平1314-5　1階,,26.15703571,127.72655007,(098)851-3005,,,,,,,,,,,歯科;矯正歯科,0,,
473502,0000001046,沖縄県,南風原町,トムこども歯科クリニック,トムコドモシカクリニック,無床診療所,南風原町字兼城710-1　103号室,,26.19031048,127.72946194,(098)882-6480,,,,,,,,,,,歯科;小児歯科,0,,
472123,0000001047,沖縄県,豊見城市,神農デンタルオフィス,カミノウデンタルオフィス,無床診療所,豊見城市渡橋名289-62-3,,26.16240903,127.66792988,,,,,,,,,,,,歯科;歯科口腔外科,0,,
472085,0000001048,沖縄県,浦添市,がねこ歯科醫院,ガネコシカイイン,無床診療所,浦添市伊祖2丁目1番3号　メディカルプレイス伊祖　6F-2,,26.25150107,127.71449319,,,,,,,,,,,,歯科;歯科口腔外科;小児歯科;矯正歯科,0,,
472107,0000001049,沖縄県,糸満市,サンエーしおざきシティオレンジ歯科　えがおとママとこどもの予防の歯医者さん,サンエーシオザキシティオレンジシカ　エガオトママトコドモノヨボウノハイシャサン,無床診療所,糸満市潮崎町2丁目2番地,,26.12462301,127.66869176,(098)987-7878,,,,,,,,,,,歯科;歯科口腔外科;小児歯科;矯正歯科,0,,
473502,0000001050,沖縄県,南風原町,一日橋デンタルクリニック,ツイタチハシデンタルクリニック,無床診療所,南風原町兼城516-1　2階,,26.19589586,127.71983470,,,,,,,,,,,,歯科;小児歯科;矯正歯科;歯科口腔外科,0,,
472107,0000001051,沖縄県,糸満市,潮崎デンタルクリニック,シオザキデンタルクリニック,無床診療所,糸満市潮崎町2-1-15　上原アパート　1F　101,,26.12459520,127.66718630,(098)987-4201,,,,,,,,,,,歯科;小児歯科;矯正歯科;歯科口腔外科,0,,
473502,0000001052,沖縄県,南風原町,オキナワ・デンタルオフィス,オキナワ・デンタルオフィス,無床診療所,南風原町字津嘉山1339番地1,,26.19155183,127.71411062,(098)888-2087,,,,,,,,,,,歯科;歯科口腔外科;矯正歯科;小児歯科,0,,
473553,0000001053,沖縄県,粟国村,粟国村歯科診療所,アグニソンシカシンリョウジョ,無床診療所,粟国村字東513番地1及び東517番地1　1階,,26.58166401,127.23017809,,,,,,,,,,,,歯科,0,,
472123,0000001054,沖縄県,豊見城市,おきなわ矯正歯科,オキナワキョウセイシカ,無床診療所,豊見城市字真玉橋135番地　2階　2-B号室,,26.19327353,127.69426516,,,,,,,,,,,,歯科;小児歯科;矯正歯科;歯科口腔外科,0,,
473618,0000001055,沖縄県,久米島町,球美の歯科,タマビノシカ,無床診療所,久米島町真我里78番地　コーポ球美105号,,26.33346877,126.79468632,,,,,,,,,,,,歯科,0,,
472140,0000001056,沖縄県,宮古島市,国立療養所　宮古南静園,コクリツリョウヨウジョ　ミヤコミナミシズカエン,病院,宮古島市平良字島尻888,,24.85707273,125.30258920,(0980)72-5321,,,,,,,,,,,内科;外科;皮膚科;眼科;耳鼻咽喉科;歯科,0,,
472140,0000001057,沖縄県,宮古島市,医療法人徳洲会　宮古島徳洲会病院,イリョウホウジントクシュウカイ　ミヤコジマトクシュウカイビョウイン,病院,宮古島市平良字松原552番地1,,24.78883514,125.27934843,(0980)73-1100,,,,,,,,,,,内科;外科;心臓血管外科;整形外科;脳神経外科;泌尿器科;皮膚科;放射線科;リハビリテーション科;形成外科,0,,
472140,0000001058,沖縄県,宮古島市,沖縄県立宮古病院,オキナワケンリツミヤコビョウイン,病院,宮古島市平良字下里427-1,,24.79934244,125.27634307,(0980)72-3151,,,,,,,,,,,"内科;呼吸器内科;消化器内科;循環器内科;神経内科;外科;消化器外科;心臓血管外科;脳神経外科;整形外科;精神科;小児科;皮膚科
泌尿器科;産科;婦人科;眼科;耳鼻咽喉科;リハビリテーション科;放射線科;歯科口腔外科;救急科;麻酔科;腎臓内科;病理診断科",0,,
472140,0000001059,沖縄県,宮古島市,宮古島リハビリ温泉病院,ミヤコジマリハビリオンセンビョウイン,病院,宮古島市平良字東仲宗根添1898番7,,24.76974447,125.34255989,,,,,,,,,,,,内科;人工透析内科;消化器内科;リハビリテーション科;脳神経内科,0,,
472140,0000001060,沖縄県,宮古島市,医療法人　一二三会　こうむら眼科,イリョウホウジン　ヒフミカイ　コウムラガンカ,無床診療所,宮古島市平良字久貝1064-10-1,,24.78929623,125.28074274,(0980)73-4123,,,,,,,,,,,眼科,0,,
472140,0000001061,沖縄県,宮古島市,沖縄県宮古保健所,オキナワケンミヤコホケンジョ,無床診療所,宮古島市平良字東仲宗根476,,24.80353110,125.28801132,(0980)72-2420,,,,,,,,,,,内科;小児科;歯科,0,,
472140,0000001062,沖縄県,宮古島市,第二共済組合国立療養所宮古南静園所属診療所,ダイニキョウサイクミアイコクリツリョウヨウジョミヤコミナミシズカエンショゾクシンリョウジョ,無床診療所,宮古島市平良字島尻888,,24.85707273,125.30258920,(0980)72-5321,,,,,,,,,,,内科;外科;皮膚科;眼科;耳鼻咽喉科;歯科,0,,
472140,0000001063,沖縄県,宮古島市,沖縄県社会福祉事業団　宮古厚生園　医務室,オキナワケンシャカイフクシジギョウダン　ミヤココウセイエン　イムシツ,無床診療所,宮古島市平良西仲宗根745-7,,24.81565491,125.29385772,(0980)72-2422,,,,,,,,,,,内科;精神科,0,,
472140,0000001064,沖縄県,宮古島市,特別養護老人ホーム　宮古の里,トクベツヨウゴロウジンホーム　ミヤコノサト,無床診療所,宮古島市平良字東仲宗根添1800,,24.77232188,125.33969619,(0980)77-2595,,,,,,,,,,,内科,0,,
472140,0000001065,沖縄県,宮古島市,池村内科医院,イケムラナイカイイン,有床診療所,宮古島市平良東仲宗根194,,24.80488092,125.28596149,(0980)72-3500,,,,,,,,,,,内科;循環器科;呼吸器科;消化器科;皮膚科,0,,
472140,0000001066,沖縄県,宮古島市,医療法人　たぶの木　うむやすみゃあす・ん診療所,イリョウホウジン　タブノキ　ウムヤスミャアス・ンシンリョウジョ,無床診療所,宮古島市平良字下里1477-4,,24.78713824,125.28742270,(0980)73-3854,,,,,,,,,,,"脳神経外科;神経内科;内科;リハビリテーション科;精神科,
呼吸器外科",0,,
472140,0000001067,沖縄県,宮古島市,いけむら小児科,イケムラショウニカ,無床診療所,宮古島市平良字西里978番地2,,24.79834280,125.29173882,(0980)73-4970,,,,,,,,,,,小児科;内科;精神科,0,,
472140,0000001068,沖縄県,宮古島市,きしもと内科医院,キシモトナイカイイン,無床診療所,宮古島市平良字下里1555番地1,,24.78969899,125.28140101,(0980)79-0501,,,,,,,,,,,内科;消化器内科,0,,
472140,0000001069,沖縄県,宮古島市,いけむら外科・胃腸科・肛門科,イケムラゲカ・イチョウカ・コウモンカ,有床診療所,宮古島市平良字西里978-2,,24.79834280,125.29173882,(0980)73-6300,,,,,,,,,,,外科;胃腸科;肛門科,0,,
472140,0000001070,沖縄県,宮古島市,ドクターゴン診療所,ドクターゴンシンリョウジョ,無床診療所,宮古島市上野字宮国746-17,,24.71813194,125.32023169,(0980)76-2788,,,,,,,,,,,内科,0,,
472140,0000001071,沖縄県,宮古島市,砂川内科医院,スナカワナイカイイン,無床診療所,宮古島市平良字西里796-3,,24.80015094,125.29044447,(0980)73-0037,,,,,,,,,,,内科,0,,
472140,0000001072,沖縄県,宮古島市,特別養護老人ホーム松風園（医務室）,トクベツヨウゴロウジンホームショウフウエン（イムシツ）,無床診療所,宮古島市伊良部字長浜1025-3,,24.83160055,125.18323421,(0980)78-5111,,,,,,,,,,,内科,0,,
472140,0000001073,沖縄県,宮古島市,特別養護老人ホーム　しもじ長生園（医務室）,トクベツヨウゴロウジンホーム　シモジナガオエン（イムシツ）,無床診療所,宮古島市下地字嘉手苅660-2,,24.73794909,125.31099335,(0980)76-3330,,,,,,,,,,,内科,0,,
472140,0000001074,沖縄県,宮古島市,医療法人　おおはらクリニック,イリョウホウジン　オオハラクリニック,無床診療所,宮古島市平良字下里1099-3,,24.79366532,125.28324525,(0980)72-80)6,,,,,,,,,,,外科;内科;胃腸科;肛門科;泌尿器科,0,,
472140,0000001075,沖縄県,宮古島市,下地眼科医院,シモジガンカイイン,無床診療所,宮古島市平良字下里577-1,,24.80425589,125.27943714,(0980)73-2228,,,,,,,,,,,眼科,0,,
472140,0000001076,沖縄県,宮古島市,医療法人みやこクリニック,イリョウホウジンミヤコクリニック,有床診療所,宮古島市平良字東仲宗根596,,24.80689193,125.29235527,(0980)73-4103,,,,,,,,,,,産科;婦人科;小児科;内科,0,,
472140,0000001077,沖縄県,宮古島市,ひが小児科医院,ヒガショウニカイイン,無床診療所,宮古島市平良字西里781-5,,24.79905105,125.29042505,(0980)73-1477,,,,,,,,,,,小児科;内科,0,,
472140,0000001078,沖縄県,宮古島市,真壁眼科,マカベガンカ,有床診療所,宮古島市平良字西里787-1,,24.79979262,125.28959177,(0980)73-2200,,,,,,,,,,,眼科,0,,
472140,0000001079,沖縄県,宮古島市,医療法人徳洲会 伊良部島診療所,イリョウホウジントクシュウカイ イラブジマシンリョウジョ,無床診療所,宮古島市伊良部字前里添639-2,,24.84047236,125.20404069,(0980)78-6661,,,,,,,,,,,内科;外科;小児科;皮膚科;リハビリテーション科,0,,
472140,0000001080,沖縄県,宮古島市,くらはし整形外科クリニック,クラハシセイケイゲカクリニック,無床診療所,宮古島市平良字西里782-1,,24.79833443,125.28941404,(0980)75-5550,,,,,,,,,,,内科;外科;小児科;リハビリテーション科;リウマチ科;整形外科,0,,
472140,0000001081,沖縄県,宮古島市,原皮フ科,ゲンピフカ,無床診療所,宮古島市下地字上地430-4,,24.74785216,125.27620966,(0980)76-3838,,,,,,,,,,,皮膚科,0,,
472140,0000001082,沖縄県,宮古島市,みやぎMS.クリニック,ミヤギMS.クリニック,無床診療所,宮古島市平良字久貝1068-15,,24.78752420,125.28169544,(0980)75-0722,,,,,,,,,,,婦人科,0,,
472140,0000001083,沖縄県,宮古島市,いしみねクリニック,イシミネクリニック,無床診療所,宮古島市平良字西里269-5,,24.80308937,125.28133698,(0980)75-5878,,,,,,,,,,,内科;小児科;循環器科,0,,
472140,0000001084,沖縄県,宮古島市,稲村耳鼻咽喉科,イナムラジビインコウカ,無床診療所,宮古島市平良字久貝669-1,,24.79803693,125.27046590,(0980)74-1187,,,,,,,,,,,耳鼻咽喉科,0,,
472140,0000001085,沖縄県,宮古島市,たいら内科,タイラナイカ,無床診療所,宮古島市平良字東仲宗根572-6,,24.80711411,125.29116649,(0980)73-8115,,,,,,,,,,,内科,0,,
472140,0000001086,沖縄県,宮古島市,城辺中央クリニック,グスクベチュウオウクリニック,有床診療所,宮古島市城辺字比嘉628-5,,24.76222701,125.37952058,(0980)77-4693,,,,,,,,,,,内科;外科;整形外科;小児科;皮膚科;婦人科;眼科,0,,
472140,0000001087,沖縄県,宮古島市,レオクリニック,レオクリニック,無床診療所,宮古島市平良字下里1578-8,,24.78748810,125.28200097,(0980)79-0923,,,,,,,,,,,耳鼻咽喉科,0,,
472140,0000001088,沖縄県,宮古島市,ドクターゴン四島診療所,ドクターゴンヨントウシンリョウジョ,無床診療所,宮古島市平良字西里267番地,,24.80338933,125.28097034,(0980)79-5164,,,,,,,,,,,内科,0,,
472140,0000001089,沖縄県,宮古島市,社会福祉法人ユームツ会　青潮園　診療所,シャカイフクシホウジンユームツカイ　アオシオエン　シンリョウジョ,無床診療所,宮古島市平良字下里2632番1,,24.77194035,125.31041257,(0980)72-7795,,,,,,,,,,,内科,0,,
472140,0000001090,沖縄県,宮古島市,下地診療所,シモジシンリョウジョ,無床診療所,宮古島市下地字上地634-1,,24.74923016,125.28323695,,,,,,,,,,,,内科;外科;胃腸内科;肛門外科;リハビリテーション科;整形外科;ペインクリニック内科,0,,
472140,0000001091,沖縄県,宮古島市,奥平産婦人科医院,オクヒラサンフジンカイイン,有床診療所,"宮古島市平良字下里1259-1
",,24.79535965,125.28553112,,,,,,,,,,,,産科;婦人科,0,,
472140,0000001092,沖縄県,宮古島市,こころのクリニックてぃんぬぱう,ココロノクリニックティンヌパウ,無床診療所,宮古島市平良下里1245-9　正ビル1F,,24.79315715,125.28916136,,,,,,,,,,,,心療内科　精神科,0,,
473758,0000001093,沖縄県,多良間村,沖縄県立宮古病院付属多良間診療所,オキナワケンリツミヤコビョウインフゾクタラマシンリョウジョ,無床診療所,多良間村字塩川162-3,,24.66912690,124.70183545,(0980)79-2101,,,,,,,,,,,内科;小児科;外科,0,,
472140,0000001094,沖縄県,宮古島市,中村胃腸科内科,ナカムライチョウカナイカ,無床診療所,宮古島市平良字下里1259-1,,24.79535965,125.28553112,,,,,,,,,,,,内科;胃腸内科,0,,
472140,0000001095,沖縄県,宮古島市,シンワメディカルリゾート宮古島,シンワメディカルリゾートミヤコジマ,無床診療所,宮古島市上野字新里1405-201　ホテルシギラミラージュ2階,,24.72100476,125.33943860,(0980)79-9740,,,,,,,,,,,内科;婦人科;乳腺外科;消化器内科;皮膚科,0,,
472140,0000001096,沖縄県,宮古島市,陸上自衛隊宮古島駐屯地医務室,リクジョウジエイタイミヤコジマチュウトンチイムシツ,有床診療所,宮古島市上野字カギモリ原83-5,,24.72993456,125.34189113,(0980)76-6661,,,,,,,,,,,内科;外科;歯科,0,,
,0000001097,沖縄県,,安谷屋　正明（往診のみ）,アダニヤ　マサアキ（オウシンノミ）,無床診療所,,,,,,,,,,,,,,,,小児科;内科,0,,
472140,0000001098,沖縄県,宮古島市,宮古島市コロナワクチン接種診療所,ミヤコジマシコロナワクチンセッシュシンリョウジョ,無床診療所,宮古島市平良字西里1140番地,,24.79009924,125.29484699,,,,,,,,,,,,内科,0,,
472140,0000001099,沖縄県,宮古島市,高峰整形外科クリニック,タカミネセイケイゲカクリニック,無床診療所,宮古島市平良字久貝787-1,,24.79122638,125.26736067,,,,,,,,,,,,整形外科,0,,
472140,0000001100,沖縄県,宮古島市,クロトンルームぼぼちち,クロトンルームボボチチ,無床診療所,宮古島市下地字川満43,,24.76301800,125.28490352,,,,,,,,,,,,婦人科,0,,
472140,0000001101,沖縄県,宮古島市,医療法人社団純英会　Hirara生活習慣病クリニック,イリョウホウジンシャダンジュンヒデカイ　Hiraraセイカツシュウカンビョウクリニック,無床診療所,宮古島市平良字東仲宗根869番地4　Liveメディカルガーデン宮古島　A号室,,24.79990934,125.29297479,,,,,,,,,,,,糖尿病内科;内科,0,,
472140,0000001102,沖縄県,宮古島市,高輪アイランドクリニック,タカナワアイランドクリニック,無床診療所,宮古島市平良字下里535-5　セレブラムビル3階,,24.80298933,125.27842615,,,,,,,,,,,,内科;婦人科;歯科,0,,
472140,0000001103,沖縄県,宮古島市,みずの皮フ科平良院,ミズノカワフカタイライン,無床診療所,宮古島市平良字東仲宗根869番地4　Liveメディカルガーデン宮古島　C号室,,24.79990934,125.29297479,,,,,,,,,,,,皮膚科;アレルギー科,0,,
472140,0000001104,沖縄県,宮古島市,ひだまり診療所,ヒダマリシンリョウジョ,無床診療所,宮古島市平良字東仲宗根757番地28,,24.80159251,125.29377746,,,,,,,,,,,,小児科;内科;精神科,0,,
472140,0000001105,沖縄県,宮古島市,ひさまつクリニック,ヒサマツクリニック,無床診療所,宮古島市平良久貝980-7,,24.79144308,125.27092422,,,,,,,,,,,,内科;外科;皮膚科,0,,
472140,0000001106,沖縄県,宮古島市,宮古島栄養クリニック,ミヤコジマエイヨウクリニック,無床診療所,宮古島市平良字西里294-1,,24.80336157,125.28156750,,,,,,,,,,,,内科;皮膚科;泌尿器科;婦人科,0,,
472140,0000001107,沖縄県,宮古島市,医療法人　がねこ歯科クリニック,イリョウホウジン　ガネコシカクリニック,無床診療所,宮古島市平良字西里382,,24.80314498,125.28488940,(0980)73-1183,,,,,,,,,,,歯科;小児歯科,0,,
472140,0000001108,沖縄県,宮古島市,医療法人　英秀会　岡村歯科医院,イリョウホウジン　エイヒデカイ　オカムラシカイイン,無床診療所,宮古島市平良字下里921,,24.79889534,125.28097318,(0980)74-3204,,,,,,,,,,,歯科;小児歯科,0,,
472140,0000001109,沖縄県,宮古島市,城辺歯科クリニック,グスクベシカクリニック,無床診療所,宮古島市城辺字比嘉627-1,,24.76227977,125.37921506,(0980)77-8481,,,,,,,,,,,歯科;小児歯科;歯科口腔外科;矯正歯科,0,,
472140,0000001110,沖縄県,宮古島市,もりお歯科,モリオシカ,無床診療所,宮古島市平良字下里1554-1,,24.78948512,125.28119269,(0980)79-8778,,,,,,,,,,,歯科;小児歯科,0,,
472140,0000001111,沖縄県,宮古島市,もりた歯科医院,モリタシカイイン,無床診療所,宮古島市平良字西里993-26,,24.79677074,125.29166108,(0980)73-1184,,,,,,,,,,,歯科;小児歯科;矯正歯科;歯科口腔外科,0,,
472140,0000001112,沖縄県,宮古島市,下地中央歯科医院,シモジチュウオウシカイイン,無床診療所,宮古島市下地字洲鎌494-1,,24.74734393,125.27762623,(0980)76-3888,,,,,,,,,,,歯科;小児歯科;矯正歯科,0,,
472140,0000001113,沖縄県,宮古島市,永和歯科医院,エイワシカイイン,無床診療所,宮古島市平良字下里595-1,,24.80252830,125.28083703,(0980)73-7155,,,,,,,,,,,歯科,0,,
472140,0000001114,沖縄県,宮古島市,ＫＡＺＵデンタルクリニック,カズデンタルクリニック,無床診療所,宮古島市平良字西里159,,24.80538355,125.27966488,(0980)73-4184,,,,,,,,,,,歯科,0,,
472140,0000001115,沖縄県,宮古島市,たいら歯科クリニック,タイラシカクリニック,無床診療所,宮古島市平良字西里472-2-1Ｆ,,24.80154794,125.28644483,(0980)74-2711,,,,,,,,,,,歯科;小児歯科;矯正歯科,0,,
472140,0000001116,沖縄県,宮古島市,伊良部中央歯科医院,イラブチュウオウシカイイン,無床診療所,宮古島市伊良部字長浜1377-9,,24.83216686,125.16706604,(0980)78-5888,,,,,,,,,,,歯科;小児歯科;矯正歯科,0,,
472140,0000001117,沖縄県,宮古島市,池村歯科クリニック,イケムラシカクリニック,無床診療所,宮古島市平良字西里1018-2,,24.79330169,125.29388314,(0980)73-0252,,,,,,,,,,,歯科,0,,
472140,0000001118,沖縄県,宮古島市,さいわい歯科医院,サイワイシカイイン,無床診療所,宮古島市平良字下里851-8　1Ｆ,,24.79856763,125.28332574,(0980)73-0789,,,,,,,,,,,歯科;小児歯科,0,,
472140,0000001119,沖縄県,宮古島市,すながわ歯科クリニック,スナガワシカクリニック,無床診療所,宮古島市平良字西里792-6,,24.80109805,125.28985284,(0980)73-4183,,,,,,,,,,,歯科,0,,
472140,0000001120,沖縄県,宮古島市,松原歯科医院,マツバラシカイイン,無床診療所,宮古島市平良字下里944-2,,24.79984244,125.27992327,(0980)73-1788,,,,,,,,,,,歯科,0,,
472140,0000001121,沖縄県,宮古島市,方歯科医院,カタシカイイン,無床診療所,宮古島市平良字西仲宗根237-3,,24.80993591,125.28332276,(0980)73-1010,,,,,,,,,,,歯科;小児歯科;矯正歯科,0,,
472140,0000001122,沖縄県,宮古島市,上野歯科診療所,ウエノシカシンリョウジョ,無床診療所,宮古島市上野字新里514-2,,24.74005262,125.33213344,(0980)76-6762,,,,,,,,,,,歯科,0,,
472140,0000001123,沖縄県,宮古島市,佐良浜歯科医院,サラウヒンシカイイン,無床診療所,宮古島市伊良部字前里添593-42,,24.84368322,125.20720424,(0980)78-4633,,,,,,,,,,,歯科,0,,
472140,0000001124,沖縄県,宮古島市,羽地歯科口腔外科医院,ハネジシカコウクウゲカイイン,無床診療所,宮古島市平良字久貝1062番地2,,24.78991006,125.28036777,(0980)73-4618,,,,,,,,,,,歯科;小児歯科;歯科口腔外科;矯正歯科,0,,
472140,0000001125,沖縄県,宮古島市,医療法人アマカ会　あだん歯科クリニック,イリョウホウジンアマカカイ　アダンシカクリニック,無床診療所,宮古島市平良字久貝654-36,,24.79848409,125.26977429,(0980)79-0678,,,,,,,,,,,歯科;小児歯科;矯正歯科;口腔外科,0,,
472140,0000001126,沖縄県,宮古島市,宮古島デンタルオフィス,ミヤコジマデンタルオフィス,無床診療所,宮古島市平良字東仲宗根493-1,,24.80452271,125.29018887,(0980)73-6480,,,,,,,,,,,歯科;歯科口腔外科;小児歯科;矯正歯科,0,,
472140,0000001127,沖縄県,宮古島市,サン　デンタルクリニック,サン　デンタルクリニック,無床診療所,宮古島市平良字西里524-2,,24.79995640,125.28491722,,,,,,,,,,,,歯科;歯科口腔外科;小児歯科;矯正歯科,0,,
472140,0000001128,沖縄県,宮古島市,さわ矯正歯科医院,サワキョウセイシカイイン,無床診療所,宮古島市平良久貝721-10,,24.79528442,125.27034372,(0980)79-9887,,,,,,,,,,,矯正歯科,0,,
472140,0000001129,沖縄県,宮古島市,医療法人髙森会　山本歯科医院,イリョウホウジンダカイモリカイ　ヤマモトシカイイン,無床診療所,宮古島市平良字下里639番地1,,24.80118675,125.27943441,,,,,,,,,,,,歯科,0,,
472140,0000001130,沖縄県,宮古島市,ともくんデンタルクリニック,トモクンデンタルクリニック,無床診療所,宮古島市平良字下里695-3　1階,,24.80038961,125.27980383,,,,,,,,,,,,歯科;小児歯科,0,,
472077,0000001131,沖縄県,石垣市,かりゆし病院,カリユシビョウイン,病院,石垣市字新川2124,,24.36103465,124.14093765,(0980)83-5600,,,,,,,,,,,内科;消化器科;リハビリテーション科;循環器科;呼吸器科;神経内科,0,,
472077,0000001132,沖縄県,石垣市,医療法人徳洲会　石垣島徳洲会病院,イリョウホウジントクシュウカイ　イシガキジマトクシュウカイビョウイン,病院,石垣市大浜南大浜446番1,,24.34388787,124.19741766,(0980)88-0123,,,,,,,,,,,内科;外科;整形外科;呼吸器内科;消化器外科; 泌尿器科;循環器内科;心臓血管外科;人工透析内科; 肛門外科;救急科;臨床検査科;リハビリテーション科; 放射線科;乳腺外科;皮膚科,0,,
472077,0000001133,沖縄県,石垣市,沖縄県立八重山病院,オキナワケンリツヤエヤマビョウイン,病院,石垣市真栄里584-1,,24.34346367,124.18386544,(0980)87-5557,,,,,,,,,,,内科;呼吸器内科;消化器内科;循環器内科;神経内科;外科;呼吸器外科;消化器外科;脳神経外科;整形外科;精神科;小児科;皮膚科;泌尿器科;産科;婦人科;眼科;耳鼻咽喉科;リハビリテーション科;救急科;麻酔科;放射線科;腎臓内科;歯科口腔外科,0,,
472077,0000001134,沖縄県,石垣市,よなは医院,ヨナハイイン,無床診療所,石垣市字新川2287-35,,24.35171836,124.14498716,(0980)83-4781,,,,,,,,,,,内科;腎臓内科;糖尿病内科;リウマチ科;皮膚科,0,,
472077,0000001135,沖縄県,石垣市,下地第２脳神経外科,シモジダイ２ノウシンケイゲカ,有床診療所,石垣市字新川1695-123,,24.36254664,124.12046076,(0980)88-5150,,,,,,,,,,,脳神経外科;外科;整形外科;リハビリテーション科;内科;小児科;皮膚科;放射線科,0,,
472077,0000001136,沖縄県,石垣市,八重山厚生園    医務室,ヤエヤマコウセイエン    イムシツ,無床診療所,石垣市新川1740-2,,24.35948006,124.12302167,(0980)82-2334,,,,,,,,,,,精神科;内科,0,,
473821,0000001137,沖縄県,与那国町,特別養護老人ホーム　月桃の里 医務室,トクベツヨウゴロウジンホーム　ゲットウノサト イムシツ,無床診療所,与那国町字与那国4161-1,,24.46492689,122.95655324,(0980)87-3151,,,,,,,,,,,内科,0,,
472077,0000001138,沖縄県,石垣市,下地脳神経外科,シモジノウシンケイゲカ,無床診療所,石垣市字登野城644-19,,24.33775679,124.16809659,(0980)88-7300,,,,,,,,,,,脳神経外科;外科;整形外科;内科;放射線科;リハビリテーション科,0,,
473812,0000001139,沖縄県,竹富町,沖縄県立八重山病院附属大原診療所,オキナワケンリツヤエヤマビョウインフゾクオオハラシンリョウジョ,無床診療所,竹富町字南風見201-131,,24.26939539,123.88019275,(0980)85-5516,,,,,,,,,,,内科;外科;小児科,0,,
472077,0000001140,沖縄県,石垣市,やいま中央クリニック,ヤイマチュウオウクリニック,無床診療所,石垣市字平得120-3,,24.34067571,124.17258809,(0980)88-7711,,,,,,,,,,,内科;消化器科;循環器科;呼吸器科;小児科;放射線科;リハビリテーション科,0,,
472077,0000001141,沖縄県,石垣市,石垣市健康福祉センター検診室,イシガキシケンコウフクシセンターケンシンシツ,無床診療所,石垣市字登野城1357-1,,24.34795026,124.17111902,(0980)88-0088,,,,,,,,,,,内科,0,,
472077,0000001142,沖縄県,石垣市,障がい者支援施設　ハーモニー医務室,ショウガイシャシエンシセツ　ハーモニーイムシツ,無床診療所,石垣市字大浜1349-79,,24.35513358,124.20387323,(0980)82-0202,,,,,,,,,,,内科,0,,
473821,0000001143,沖縄県,与那国町,与那国町診療所,ヨナグニチョウシンリョウジョ,有床診療所,与那国町字与那国125-1,,24.46807148,123.00403796,(0980)87-2250,,,,,,,,,,,内科;小児科;外科,0,,
472077,0000001144,沖縄県,石垣市,沖縄県八重山保健所,オキナワケンヤエヤマホケンジョ,無床診療所,石垣市真栄里438,,24.34032209,124.18723740,(0980)82-3240,,,,,,,,,,,内科,0,,
472077,0000001145,沖縄県,石垣市,国土交通省共済組合  石垣海上保安部診療所,コクドコウツウショウキョウサイクミアイ  イシガキカイジョウホアンブシンリョウジョ,無床診療所,石垣市浜崎町1-1-8,,24.33925208,124.15284472,(0980)83-0118,,,,,,,,,,,内科,0,,
473812,0000001146,沖縄県,竹富町,沖縄県立八重山病院附属 小浜診療所,オキナワケンリツヤエヤマビョウインフゾク コハマシンリョウジョ,無床診療所,竹富町字小浜30,,24.33978234,123.97915658,(0980)85-3247,,,,,,,,,,,内科;外科;小児科,0,,
473812,0000001147,沖縄県,竹富町,県立八重山病院附属  西表西部診療所,ケンリツヤエヤマビョウインフゾク  イリオモテセイブシンリョウジョ,無床診療所,竹富町字西表694,,24.38718927,123.74762656,(0980)85-6268,,,,,,,,,,,内科;外科;小児科,0,,
472077,0000001148,沖縄県,石垣市,上原内科医院,ウエハラナイカイイン,無床診療所,石垣市字登野城548番地4,,24.33455710,124.16729655,(0980)88-7078,,,,,,,,,,,内科;小児科,0,,
472077,0000001149,沖縄県,石垣市,愛島クリニック,アイジマクリニック,無床診療所,石垣市字真栄里108番地7　1F,,24.33232651,124.17053239,(0980)88-1212,,,,,,,,,,,皮膚科;美容皮膚科,0,,
472077,0000001150,沖縄県,石垣市,ヒデ整形クリニック,ヒデセイケイクリニック,無床診療所,石垣市真栄里108番地3,,24.33254035,124.17100737,(0980)84-1155,,,,,,,,,,,整形外科;リハビリテーション科,0,,
473812,0000001151,沖縄県,竹富町,竹富町立竹富診療所,タケトミチョウリツタケトミシンリョウジョ,無床診療所,竹富町字竹富323,,24.32926700,124.08529839,(0980)85-2132,,,,,,,,,,,内科,0,,
473812,0000001152,沖縄県,竹富町,沖縄県立八重山病院附属  波照間診療所,オキナワケンリツヤエヤマビョウインフゾク  ハテルマシンリョウジョ,無床診療所,竹富町字波照間2750-1,,24.06091693,123.77474898,(0980)85-8402,,,,,,,,,,,内科;外科;小児科,0,,
473812,0000001153,沖縄県,竹富町,竹富町立黒島診療所,タケトミチョウリツクロシマシンリョウジョ,無床診療所,竹富町字黒島1473-1,,24.23810395,124.01465884,(0980)85-4114,,,,,,,,,,,内科,0,,
472077,0000001154,沖縄県,石垣市,よしもとこどもクリニック,ヨシモトコドモクリニック,無床診療所,石垣市字登野城1024番1,,24.34317558,124.17156048,(0980)88-6688,,,,,,,,,,,小児科;アレルギー科,0,,
472077,0000001155,沖縄県,石垣市,社会福祉法人沖縄松楓会特別養護老人ホーム  なごみの里医務室,シャカイフクシホウジンオキナワマツカエデカイトクベツヨウゴロウジンホーム  ナゴミノサトイムシツ,無床診療所,石垣市字宮良1131-2,,24.36376535,124.21551191,(0980)86-8316,,,,,,,,,,,内科;皮膚科;外科;精神科,0,,
472077,0000001156,沖縄県,石垣市,八重山クリニック,ヤエヤマクリニック,有床診療所,石垣市字大川578-37,,24.34978412,124.16187793,(0980)82-0319,,,,,,,,,,,産科;婦人科;内科;小児科,0,,
472077,0000001157,沖縄県,石垣市,宮良内科胃腸科医院,ミヤラナイカイチョウカイイン,無床診療所,石垣市字新川27,,24.34438219,124.15428646,(0980)82-4181,,,,,,,,,,,内科;呼吸器科;胃腸科;循環器科;小児科;放射線科;リハビリテーション科,0,,
472077,0000001158,沖縄県,石垣市,博愛医院,ハクアイイイン,無床診療所,石垣市字大川179-7,,24.34132097,124.15938053,(0980)82-3170,,,,,,,,,,,内科;循環器科;胃腸科,0,,
473812,0000001159,沖縄県,竹富町,南風見苑診療所,ハエミソノシンリョウジョ,無床診療所,竹富町字上原870-237,,24.41192668,123.80404528,(0980)85-6911,,,,,,,,,,,内科,0,,
472077,0000001160,沖縄県,石垣市,南西耳鼻咽喉科医院,ナンセイジビインコウカイイン,無床診療所,石垣市字真栄里97-4,,24.33426259,124.16874367,(0980)83-0001,,,,,,,,,,,耳鼻いんこう科,0,,
472077,0000001161,沖縄県,石垣市,ひとし眼科,ヒトシガンカ,無床診療所,石垣市字真栄里108番地4,,24.33239312,124.17129624,(0980)88-5121,,,,,,,,,,,眼科,0,,
472077,0000001162,沖縄県,石垣市,大浜診療所,オオハマシンリョウジョ,無床診療所,石垣市字大浜36番地,,24.34376294,124.19635937,(0980)87-5093,,,,,,,,,,,内科;循環器内科,0,,
472077,0000001163,沖縄県,石垣市,まつをレディースクリニック,マツヲレディースクリニック,無床診療所,石垣市真栄里233-3,,24.33517029,124.17781264,(0980)83-4822,,,,,,,,,,,産婦人科,0,,
472077,0000001164,沖縄県,石垣市,てるや内科胃腸科,テルヤナイカイチョウカ,無床診療所,石垣市新川127-3,,24.34865993,124.15029792,(0980)88-1616,,,,,,,,,,,内科;胃腸科,0,,
472077,0000001165,沖縄県,石垣市,にいむら内科胃腸科クリニック,ニイムラナイカイチョウカクリニック,無床診療所,石垣市字真栄里243-1,,24.33483972,124.17861816,(0980)83-7771,,,,,,,,,,,内科;胃腸科;小児科;眼科;整形外科;皮膚科,0,,
472077,0000001166,沖縄県,石垣市,とみやま耳鼻咽喉科,トミヤマジビインコウカ,無床診療所,石垣市新川2427　ｶﾒﾔﾝｺ-ﾄ101,,24.34877942,124.14925908,(0980)88-8741,,,,,,,,,,,耳鼻いんこう科;小児科,0,,
472077,0000001167,沖縄県,石垣市,宮良眼科医院,ミヤラガンカイイン,有床診療所,石垣市字大川140,,24.34307070,124.16165268,(0980)82-3068,,,,,,,,,,,眼科,0,,
472077,0000001168,沖縄県,石垣市,やしのきクリニック,ヤシノキクリニック,無床診療所,石垣市字大川579-5,,24.34984798,124.16227791, (0980)88-1184,,,,,,,,,,,心療内科;精神科;美容内科,0,,
472077,0000001169,沖縄県,石垣市,コーラルクリニック,コーラルクリニック,無床診療所,石垣市浜崎町3-3-9,,24.34038283,124.14835610,(0980)87-5698,,,,,,,,,,,整形外科;内科,0,,
472077,0000001170,沖縄県,石垣市,くろしま整形外科,クロシマセイケイゲカ,無床診療所,石垣市登野城1016番地1,,24.34185626,124.17131877,(0980)83-4154,,,,,,,,,,,整形外科;リハビリテーション科,0,,
472077,0000001171,沖縄県,石垣市,特別養護老人ホーム　まえさと茶寿苑　医務室,トクベツヨウゴロウジンホーム　マエサトチャヒサシソノ　イムシツ,無床診療所,石垣市真栄里204-382,,24.33237348,124.17445993,(0980)82-0080  ,,,,,,,,,,,内科,0,,
473821,0000001172,沖縄県,与那国町,陸上自衛隊与那国駐屯地医務室,リクジョウジエイタイヨナグニチュウトンチイムシツ,無床診療所,与那国町字与那国3765-1,,24.44948391,122.94247409,,,,,,,,,,,,内科;外科,0,,
472077,0000001173,沖縄県,石垣市,小田内科医院,オダナイカイイン,無床診療所,石垣市登野城319番地2メゾン32　1-A号室,,24.34182881,124.16633294,(0980)83-8001,,,,,,,,,,,内科,0,,
472077,0000001174,沖縄県,石垣市,のびのび子育て　くまさか医院,ノビノビコソダテ　クマサカイイン,無床診療所,石垣市字登野城1470番地1,,24.34921947,124.17321618,,,,,,,,,,,,精神科;小児科,0,,
472077,0000001175,沖縄県,石垣市,まるの脳神経クリニック,マルノノウシンケイクリニック,無床診療所,石垣市新川121番地,,24.34797670,124.14918684, (0980)82-8800 ,,,,,,,,,,,脳神経外科;内科;放射線科,0,,
472077,0000001176,沖縄県,石垣市,ぬちぐすい診療所,ヌチグスイシンリョウジョ,無床診療所,石垣市登野城623-6,,24.33680414,124.16715772,,,,,,,,,,,,内科;小児科,0,,
473812,0000001177,沖縄県,竹富町,竹富町立新型コロナウイルスワクチン接種（竹富）診療所,タケトミチョウリツシンガタコロナウイルスワクチンセッシュ（タケトミ）シンリョウジョ,無床診療所,竹富町字竹富545番地　竹富町立竹富中学校,,24.32893921,124.08659549,,,,,,,,,,,,,0,,
473812,0000001178,沖縄県,竹富町,竹富町立新型コロナウイルスワクチン接種（黒島）診療所,タケトミチョウリツシンガタコロナウイルスワクチンセッシュ（クロシマ）シンリョウジョ,無床診療所,竹富町字黒島1475番地　竹富町黒島伝統芸能館,,24.23764290,124.01551987,,,,,,,,,,,,,0,,
473812,0000001179,沖縄県,竹富町,竹富町立新型コロナウイルスワクチン接種（小浜）診療所,タケトミチョウリツシンガタコロナウイルスワクチンセッシュ（オバマ）シンリョウジョ,無床診療所,竹富町字小浜61.62.62-1番地　小浜島集会所施設（小浜公民館）,,24.34014064,123.98158691,,,,,,,,,,,,,0,,
473812,0000001180,沖縄県,竹富町,竹富町立新型コロナウイルスワクチン接種（波照間）診療所,タケトミチョウリツシンガタコロナウイルスワクチンセッシュ（ハテルマ）シンリョウジョ,無床診療所,竹富町字波照間2770.2771.2772番地　波照間農村集落センター,,24.06140573,123.77585168,,,,,,,,,,,,,0,,
473812,0000001181,沖縄県,竹富町,竹富町立新型コロナウイルスワクチン接種（鳩間）診療所,タケトミチョウリツシンガタコロナウイルスワクチンセッシュ（ハトマ）シンリョウジョ,無床診療所,竹富町字鳩間582番地　竹富町立鳩間小中学校,,24.46933422,123.82446202,,,,,,,,,,,,,0,,
473812,0000001182,沖縄県,竹富町,竹富町立新型コロナウイルスワクチン接種（西表西部）診療所,タケトミチョウリツシンガタコロナウイルスワクチンセッシュ（イリオモテセイブ）シンリョウジョ,無床診療所,竹富町字上原10 番地579　中野地区地域活性施設（中野わいわいホール）,,24.43051998,123.77211195,,,,,,,,,,,,,0,,
473812,0000001183,沖縄県,竹富町,竹富町立新型コロナウイルスワクチン接種（西表東部）診療所,タケトミチョウリツシンガタコロナウイルスワクチンセッシュ（イリオモテトウブ）シンリョウジョ,無床診療所,竹富町字南風見201番47　竹富町離島振興総合センター,,24.27333388,123.87999289,,,,,,,,,,,,,0,,
473812,0000001184,沖縄県,竹富町,竹富町立新型コロナウイルスワクチン接種（南風見苑）診療所,タケトミチョウリツシンガタコロナウイルスワクチンセッシュ（ハエミエン）シンリョウジョ,無床診療所,竹富町字上原870番237　特別養護老人ホーム南風見苑,,24.41192668,123.80404528,,,,,,,,,,,,,0,,
472077,0000001185,沖縄県,石垣市,竹富町立新型コロナウイルスワクチン接種（石垣）診療所,タケトミチョウリツシンガタコロナウイルスワクチンセッシュ（イシガキ）シンリョウジョ,無床診療所,石垣市美崎町11番地1　竹富町役場仮設庁舎,,24.34002693,124.15440021,,,,,,,,,,,,,0,,
472077,0000001186,沖縄県,石垣市,おおかわ歯科,オオカワシカ,無床診療所,石垣市大川431-3,,24.34632324,124.16179168,(0980)88-5528,,,,,,,,,,,歯科;歯科口腔外科;小児歯科,0,,
472077,0000001187,沖縄県,石垣市,つばき歯科医院,ツバキシカイイン,無床診療所,石垣市真栄里91-1,,24.33397366,124.16968804,(0980)83-7888,,,,,,,,,,,歯科;小児歯科,0,,
472077,0000001188,沖縄県,石垣市,すながわ歯科,スナガワシカ,無床診療所,石垣市字登野城70-4　2階,,24.33823227,124.15995540,(0980)82-2033,,,,,,,,,,,歯科;歯科口腔外科,0,,
472077,0000001189,沖縄県,石垣市,やましろ歯科クリニック,ヤマシロシカクリニック,無床診療所,石垣市登野城618　山興ビル2階,,24.33731808,124.16576615,(0980)83-3418,,,,,,,,,,,歯科;歯科口腔外科,0,,
473812,0000001190,沖縄県,竹富町,医療法人社団桜和会　西表西部歯科診療所,イリョウホウジンシャダンサクラワカイ　イリオモテセイブシカシンリョウショ,無床診療所,竹富町字上原550-1,,24.41829006,123.79852089,(0980)85-6573,,,,,,,,,,,歯科;小児歯科;矯正歯科;歯科口腔外科,0,,
472077,0000001191,沖縄県,石垣市,ミルク歯科,ミルクシカ,無床診療所,石垣市白保268-29,,24.35096670,124.23746120,(0980)86-8148,,,,,,,,,,,歯科;小児歯科;歯科口腔外科,0,,
472077,0000001192,沖縄県,石垣市,さんあい歯科クリニック,サンアイシカクリニック,無床診療所,石垣市字真栄里490-7,,24.33825583,124.18335140,(0980)83-5515,,,,,,,,,,,歯科;小児歯科;歯科口腔外科,0,,
472077,0000001193,沖縄県,石垣市,やいま歯科医院,ヤイマシカイイン,無床診療所,石垣市登野城630-19,,24.33632902,124.16966589,(0980)88-1234,,,,,,,,,,,歯科;小児歯科;矯正歯科;歯科口腔外科,0,,
472077,0000001194,沖縄県,石垣市,サトウ歯科,サトウシカ,無床診療所,石垣市字大川198-11　2階,,24.33976832,124.15909160,(0980)88-8181,,,,,,,,,,,歯科;小児歯科,0,,
473821,0000001195,沖縄県,与那国町,大仲歯科医院,オオナカシカイイン,無床診療所,与那国町字与那国241,,24.47016295,123.00572668,(0980)87-2003,,,,,,,,,,,歯科,0,,
472077,0000001196,沖縄県,石垣市,おおはま歯科医院,オオハマシカイイン,無床診療所,石垣市登野城655-8　1階,,24.33762633,124.16659945,(0980)83-6480,,,,,,,,,,,歯科,0,,
473812,0000001197,沖縄県,竹富町,竹富町立大原歯科診療所,タケトミチョウリツオオハラシカシンリョウショ,無床診療所,竹富町字南風見191-127,,24.27007594,123.87805406,(0980)85-5593,,,,,,,,,,,歯科;小児歯科;矯正歯科;歯科口腔外科,0,,
472077,0000001198,沖縄県,石垣市,みやら歯科医院,ミヤラシカイイン,無床診療所,石垣市八島町1-8-3,,24.33465754,124.16017752,(0980)83-4333,,,,,,,,,,,歯科,0,,
472077,0000001199,沖縄県,石垣市,かんな歯科クリニック,カンナシカクリニック,無床診療所,石垣市新川2444-1,,24.35139322,124.14782313,(0980)88-5454,,,,,,,,,,,歯科,0,,
472077,0000001200,沖縄県,石垣市,森岡歯科医院,モリオカシカイイン,無床診療所,石垣市新栄町70-3,,24.34634343,124.14998119,(0980)83-5233,,,,,,,,,,,歯科;矯正歯科;小児歯科;歯科口腔外科,0,,
472077,0000001201,沖縄県,石垣市,サザン歯科クリニック,サザンシカクリニック,無床診療所,石垣市登野城2-6　ｻﾝﾄﾞﾘﾊﾞ-ﾋﾞﾙ2階,,24.33670744,124.15919708,(0980)83-4658,,,,,,,,,,,歯科,0,,
472077,0000001202,沖縄県,石垣市,大山歯科医院,オオヤマシカイイン,無床診療所,石垣市新栄町12-9,,24.34309063,124.15394477,(0980)82-1608,,,,,,,,,,,歯科,0,,
472077,0000001203,沖縄県,石垣市,しおがい歯科医院,シオガイシカイイン,無床診療所,石垣市大川262番地,,24.34025177,124.15658621,(0980)83-5390,,,,,,,,,,,歯科,0,,
472077,0000001204,沖縄県,石垣市,宇江城デンタルクリニック,ウエシロデンタルクリニック,無床診療所,石垣市大川23番地,,24.34035989,124.15999991,(0980)83-4182,,,,,,,,,,,歯科,0,,
473812,0000001205,沖縄県,竹富町,竹富町立波照間歯科診療所,タケトミチョウリツハテルマシカシンリョウショ,無床診療所,竹富町字波照間6214番地,,24.06218622,123.77570723,(0980)85-8021,,,,,,,,,,,歯科;小児歯科;矯正歯科;歯科口腔外科,0,,
472077,0000001206,沖縄県,石垣市,柴田ファミリー歯科,シバタファミリーシカ,無床診療所,石垣市字真栄里204-375　1F,,24.33340109,124.17577655,(0980)88-7060,,,,,,,,,,,歯科;小児歯科;歯科口腔外科;矯正歯科,0,,
472077,0000001207,沖縄県,石垣市,新城歯科医院,シンジョウシカイイン,無床診療所,石垣市大川273番地,,24.34029620,124.15695563,(0980)82-4561,,,,,,,,,,,歯科,0,,
472077,0000001208,沖縄県,石垣市,コーラル・デンタル,コーラル・デンタル,無床診療所,石垣市浜崎町3-3-9　1F,,24.34038283,124.14835610,,,,,,,,,,,,歯科;矯正歯科;歯科口腔外科;小児歯科,0,,
472077,0000001209,沖縄県,石垣市,みやらデンタルクリニック,ミヤラデンタルクリニック,無床診療所,石垣市新川31-2,,24.34465716,124.15443090,(0980)87-7717,,,,,,,,,,,歯科;小児歯科;歯科口腔外科,0,,
